State,City,Zipcode,Store Number,URL
Alabama,Alexander City,35010,6889,https://www.homedepot.com/l/Alexander-City/AL/Alexander-City/35010/6889
Alabama,Auburn (opelika),36801,816,https://www.homedepot.com/l/Auburn-opelika/AL/Opelika/36801/816
Alabama,Daphne,36526,863,https://www.homedepot.com/l/Daphne/AL/Daphne/36526/863
Alabama,Decatur,35603,884,https://www.homedepot.com/l/Decatur/AL/Decatur/35603/884
Alabama,Dothan,36303,808,https://www.homedepot.com/l/Dothan/AL/Dothan/36303/808
Alabama,E Montgomery,36117,813,https://www.homedepot.com/l/E-Montgomery/AL/Montgomery/36117/813
Alabama,Eastwood,35210,880,https://www.homedepot.com/l/Eastwood/AL/Birmingham/35210/880
Alabama,Fairfield,35064,882,https://www.homedepot.com/l/Fairfield/AL/Fairfield/35064/882
Alabama,"Florence,AL",35630,8577,https://www.homedepot.com/l/Florence-AL/AL/Florence/35630/8577
Alabama,Foley,36535,802,https://www.homedepot.com/l/Foley/AL/Foley/36535/802
Alabama,Hoover,35244,881,https://www.homedepot.com/l/Hoover/AL/Birmingham/35244/881
Alabama,Inverness,35242,875,https://www.homedepot.com/l/Inverness/AL/Birmingham/35242/875
Alabama,"Jasper,AL",35501,810,https://www.homedepot.com/l/Jasper-AL/AL/Jasper/35501/810
Alabama,Mobile,36609,865,https://www.homedepot.com/l/Mobile/AL/Mobile/36609/865
Alabama,Montgomery,36117,883,https://www.homedepot.com/l/Montgomery/AL/Montgomery/36117/883
Alabama,N Huntsville,35801,804,https://www.homedepot.com/l/N-Huntsville/AL/Huntsville/35801/804
Alabama,"Oxford,AL",36203,866,https://www.homedepot.com/l/Oxford-AL/AL/Oxford/36203/866
Alabama,Pelham,35124,805,https://www.homedepot.com/l/Pelham/AL/Pelham/35124/805
Alabama,Pell City,35125,818,https://www.homedepot.com/l/Pell-City/AL/Pell-City/35125/818
Alabama,Phenix City,36867,817,https://www.homedepot.com/l/Phenix-City/AL/Phenix-City/36867/817
Alabama,Prattville,36066,806,https://www.homedepot.com/l/Prattville/AL/Prattville/36066/806
Alabama,S Huntsville,35803,888,https://www.homedepot.com/l/S-Huntsville/AL/Huntsville/35803/888
Alabama,Scottsboro,35768,812,https://www.homedepot.com/l/Scottsboro/AL/Scottsboro/35768/812
Alabama,Sylacauga,35150,809,https://www.homedepot.com/l/Sylacauga/AL/Sylacauga/35150/809
Alabama,Trussville,35173,887,https://www.homedepot.com/l/Trussville/AL/Trussville/35173/887
Alabama,Tuscaloosa,35404,877,https://www.homedepot.com/l/Tuscaloosa/AL/Tuscaloosa/35404/877
Alabama,W Huntsville,35757,803,https://www.homedepot.com/l/W-Huntsville/AL/Madison/35757/803
Alabama,W Mobile,36695,801,https://www.homedepot.com/l/W-Mobile/AL/Mobile/36695/801
Alaska,Anchorage,99503,1301,https://www.homedepot.com/l/Anchorage/AK/Anchorage/99503/1301
Alaska,Fairbanks,99701,1303,https://www.homedepot.com/l/Fairbanks/AK/Fairbanks/99701/1303
Alaska,Juneau,99801,8939,https://www.homedepot.com/l/Juneau/AK/Juneau/99801/8939
Alaska,Kenai,99611,8938,https://www.homedepot.com/l/Kenai/AK/Kenai/99611/8938
Alaska,Ne Anchorage,99508,1302,https://www.homedepot.com/l/Ne-Anchorage/AK/Anchorage/99508/1302
Alaska,Se Anchorage,99507,8940,https://www.homedepot.com/l/Se-Anchorage/AK/Anchorage/99507/8940
Alaska,Wasilla,99654,1304,https://www.homedepot.com/l/Wasilla/AK/Wasilla/99654/1304
Arizona,Apache Junction,85209,404,https://www.homedepot.com/l/Apache-Junction/AZ/Mesa/85209/404
Arizona,Arrowhead Ranch,85308,475,https://www.homedepot.com/l/Arrowhead-Ranch/AZ/Glendale/85308/475
Arizona,Avondale,85323,441,https://www.homedepot.com/l/Avondale/AZ/Avondale/85323/441
Arizona,Bullhead City,86429,442,https://www.homedepot.com/l/Bullhead-City/AZ/Bullhead-City/86429/442
Arizona,Camelback,85031,485,https://www.homedepot.com/l/Camelback/AZ/Phoenix/85031/485
Arizona,Carefree,85331,488,https://www.homedepot.com/l/Carefree/AZ/Cave-Creek/85331/488
Arizona,Casa Grande,85122,408,https://www.homedepot.com/l/Casa-Grande/AZ/Casa-Grande/85122/408
Arizona,Cave Creek,85022,480,https://www.homedepot.com/l/Cave-Creek/AZ/Phoenix/85022/480
Arizona,Central Tucson (el Con),85716,486,https://www.homedepot.com/l/Central-Tucson-el-Con/AZ/Tucson/85716/486
Arizona,Chandler,85224,470,https://www.homedepot.com/l/Chandler/AZ/Chandler/85224/470
Arizona,Chandler/Germann Rd,85286,8582,https://www.homedepot.com/l/Chandler-Germann-Rd/AZ/Chandler/85286/8582
Arizona,Cottonwood,86326,423,https://www.homedepot.com/l/Cottonwood/AZ/Cottonwood/86326/423
Arizona,Flagstaff,86001,482,https://www.homedepot.com/l/Flagstaff/AZ/Flagstaff/86001/482
Arizona,Flagstaff East,86004,421,https://www.homedepot.com/l/Flagstaff-East/AZ/Flagstaff/86004/421
Arizona,Gilbert,85296,471,https://www.homedepot.com/l/Gilbert/AZ/Gilbert/85296/471
Arizona,Glendale III,85302,405,https://www.homedepot.com/l/Glendale-III/AZ/Glendale/85302/405
Arizona,Irvington,85714,467,https://www.homedepot.com/l/Irvington/AZ/Tucson/85714/467
Arizona,Kingman,86409,416,https://www.homedepot.com/l/Kingman/AZ/Kingman/86409/416
Arizona,Lake Havasu City,86404,403,https://www.homedepot.com/l/Lake-Havasu-City/AZ/Lake-Havasu-City/86404/403
Arizona,Marana (nw Tucson),85741,478,https://www.homedepot.com/l/Marana-nw-Tucson/AZ/Tucson/85741/478
Arizona,Mcdowell,85035,455,https://www.homedepot.com/l/Mcdowell/AZ/Phoenix/85035/455
Arizona,Mesa,85210,469,https://www.homedepot.com/l/Mesa/AZ/Mesa/85210/469
Arizona,"Mesa,AZ",85201,6862,https://www.homedepot.com/l/Mesa-AZ/AZ/Mesa/85201/6862
Arizona,N Phoenix,85022,401,https://www.homedepot.com/l/N-Phoenix/AZ/Phoenix/85022/401
Arizona,N Scottsdale,85260,472,https://www.homedepot.com/l/N-Scottsdale/AZ/Scottsdale/85260/472
Arizona,N Tucson (oro Valley),85737,481,https://www.homedepot.com/l/N-Tucson-oro-Valley/AZ/Oro-Valley/85737/481
Arizona,Ne Mesa,85215,406,https://www.homedepot.com/l/Ne-Mesa/AZ/Mesa/85215/406
Arizona,Nogales,85621,8488,https://www.homedepot.com/l/Nogales/AZ/Nogales/85621/8488
Arizona,North Mesa,85204,473,https://www.homedepot.com/l/North-Mesa/AZ/Mesa/85204/473
Arizona,Ocotillo/S Chandler,85248,417,https://www.homedepot.com/l/Ocotillo-S-Chandler/AZ/Chandler/85248/417
Arizona,Payson,85541,422,https://www.homedepot.com/l/Payson/AZ/Payson/85541/422
Arizona,Peoria,85345,453,https://www.homedepot.com/l/Peoria/AZ/Peoria/85345/453
Arizona,Peoria/Happy Valley,85383,424,https://www.homedepot.com/l/Peoria-Happy-Valley/AZ/Peoria/85383/424
Arizona,Phoenix (51st/Baseline),85339,447,https://www.homedepot.com/l/Phoenix-51st-Baseline/AZ/Laveen/85339/447
Arizona,Prescott,86301,452,https://www.homedepot.com/l/Prescott/AZ/Prescott/86301/452
Arizona,Prescott Valley,86314,446,https://www.homedepot.com/l/Prescott-Valley/AZ/Prescott-Valley/86314/446
Arizona,Queen Creek,85142,415,https://www.homedepot.com/l/Queen-Creek/AZ/Queen-Creek/85142/415
Arizona,Ray Road,85226,476,https://www.homedepot.com/l/Ray-Road/AZ/Chandler/85226/476
Arizona,Scottsdale,85250,457,https://www.homedepot.com/l/Scottsdale/AZ/Scottsdale/85250/457
Arizona,Scottsdale-Shea,85258,420,https://www.homedepot.com/l/Scottsdale-Shea/AZ/Scottsdale/85258/420
Arizona,Show Low,85901,411,https://www.homedepot.com/l/Show-Low/AZ/Show-Low/85901/411
Arizona,Sierra Vista,85635,443,https://www.homedepot.com/l/Sierra-Vista/AZ/Sierra-Vista/85635/443
Arizona,Superstition,85209,456,https://www.homedepot.com/l/Superstition/AZ/Mesa/85209/456
Arizona,Surprise,85374,483,https://www.homedepot.com/l/Surprise/AZ/Surprise/85374/483
Arizona,Sw Phoenix,85037,413,https://www.homedepot.com/l/Sw-Phoenix/AZ/Phoenix/85037/413
Arizona,Tatum &amp; Bell,85032,464,https://www.homedepot.com/l/Tatum-Bell/AZ/Phoenix/85032/464
Arizona,Tempe,85284,458,https://www.homedepot.com/l/Tempe/AZ/Tempe/85284/458
Arizona,Tempe(K),85283,489,https://www.homedepot.com/l/Tempe-K/AZ/Tempe/85283/489
Arizona,Thatcher,85552,445,https://www.homedepot.com/l/Thatcher/AZ/Thatcher/85552/445
Arizona,Thomas Rd,85018,477,https://www.homedepot.com/l/Thomas-Rd/AZ/Phoenix/85018/477
Arizona,Thunderbird,85023,468,https://www.homedepot.com/l/Thunderbird/AZ/Phoenix/85023/468
Arizona,Tramonto,85086,6948,https://www.homedepot.com/l/Tramonto/AZ/Phoenix/85086/6948
Arizona,Tucson,85710,410,https://www.homedepot.com/l/Tucson/AZ/Tucson/85710/410
Arizona,Tucson / Oracle,85705,414,https://www.homedepot.com/l/Tucson-Oracle/AZ/Tucson/85705/414
Arizona,W Bell Rd,85308,459,https://www.homedepot.com/l/W-Bell-Rd/AZ/Glendale/85308/459
Arizona,Yuma,85365,402,https://www.homedepot.com/l/Yuma/AZ/Yuma/85365/402
Arkansas,Batesville,72501,1411,https://www.homedepot.com/l/Batesville/AR/Batesville/72501/1411
Arkansas,Benton,72019,1405,https://www.homedepot.com/l/Benton/AR/Benton/72019/1405
Arkansas,Cabot,72023,1412,https://www.homedepot.com/l/Cabot/AR/Cabot/72023/1412
Arkansas,Conway,72032,1407,https://www.homedepot.com/l/Conway/AR/Conway/72032/1407
Arkansas,El Dorado,71730,8537,https://www.homedepot.com/l/El-Dorado/AR/El-Dorado/71730/8537
Arkansas,"Fayetteville, AR",72703,1403,https://www.homedepot.com/l/Fayetteville-AR/AR/Fayetteville/72703/1403
Arkansas,Fort Smith,72903,1404,https://www.homedepot.com/l/Fort-Smith/AR/Fort-Smith/72903/1404
Arkansas,"Harrison,AR",72601,1409,https://www.homedepot.com/l/Harrison-AR/AR/Harrison/72601/1409
Arkansas,"Jonesboro,AR",72404,1406,https://www.homedepot.com/l/Jonesboro-AR/AR/Jonesboro/72404/1406
Arkansas,Mountain Home,72653,1410,https://www.homedepot.com/l/Mountain-Home/AR/Mountain-Home/72653/1410
Arkansas,N Little Rock,72117,1402,https://www.homedepot.com/l/N-Little-Rock/AR/North-Little-Rock/72117/1402
Arkansas,Rogers,72758,8445,https://www.homedepot.com/l/Rogers/AR/Rogers/72758/8445
Arkansas,S Little Rock,72209,8919,https://www.homedepot.com/l/S-Little-Rock/AR/Little-Rock/72209/8919
Arkansas,W Little Rock,72211,1401,https://www.homedepot.com/l/W-Little-Rock/AR/Little-Rock/72211/1401
California,Alhambra,91803,6610,https://www.homedepot.com/l/Alhambra/CA/Alhambra/91803/6610
California,Anaheim,92801,6647,https://www.homedepot.com/l/Anaheim/CA/Anaheim/92801/6647
California,Anaheim Hills,92807,6643,https://www.homedepot.com/l/Anaheim-Hills/CA/Anaheim/92807/6643
California,Antelope,95842,6669,https://www.homedepot.com/l/Antelope/CA/Sacramento/95842/6669
California,"Apple Valley,CA",92308,6834,https://www.homedepot.com/l/Apple-Valley-CA/CA/Apple-Valley/92308/6834
California,Arden Arcade,95825,6966,https://www.homedepot.com/l/Arden-Arcade/CA/Sacramento/95825/6966
California,Atascadero,93422,1031,https://www.homedepot.com/l/Atascadero/CA/Atascadero/93422/1031
California,"Auburn,CA",95603,8597,https://www.homedepot.com/l/Auburn-CA/CA/Auburn/95603/8597
California,Bakersfield Central,93309,1050,https://www.homedepot.com/l/Bakersfield-Central/CA/Bakersfield/93309/1050
California,Baldwin Park,91706,6663,https://www.homedepot.com/l/Baldwin-Park/CA/Baldwin-Park/91706/6663
California,Barstow,92311,6972,https://www.homedepot.com/l/Barstow/CA/Barstow/92311/6972
California,"Beaumont, CA",92223,8987,https://www.homedepot.com/l/Beaumont-CA/CA/Beaumont/92223/8987
California,Bollinger,95129,6635,https://www.homedepot.com/l/Bollinger/CA/San-Jose/95129/6635
California,"Brentwood,CA",94513,1076,https://www.homedepot.com/l/Brentwood-CA/CA/Brentwood/94513/1076
California,Burbank,91502,6654,https://www.homedepot.com/l/Burbank/CA/Burbank/91502/6654
California,Camarillo,93010,1012,https://www.homedepot.com/l/Camarillo/CA/Camarillo/93010/1012
California,Campbell,95008,642,https://www.homedepot.com/l/Campbell/CA/Campbell/95008/642
California,Canoga Park,91304,612,https://www.homedepot.com/l/Canoga-Park/CA/Canoga-Park/91304/612
California,Capitol Expressway,95136,6621,https://www.homedepot.com/l/Capitol-Expressway/CA/San-Jose/95136/6621
California,Carmel Mtn,92128,669,https://www.homedepot.com/l/Carmel-Mtn/CA/San-Diego/92128/669
California,Carmichael,95608,650,https://www.homedepot.com/l/Carmichael/CA/Carmichael/95608/650
California,Carson,90745,6670,https://www.homedepot.com/l/Carson/CA/Carson/90745/6670
California,Ceres,95351,6947,https://www.homedepot.com/l/Ceres/CA/Modesto/95351/6947
California,Cerritos,90703,608,https://www.homedepot.com/l/Cerritos/CA/Cerritos/90703/608
California,Chico,95928,6609,https://www.homedepot.com/l/Chico/CA/Chico/95928/6609
California,Chula Vista,91910,658,https://www.homedepot.com/l/Chula-Vista/CA/Chula-Vista/91910/658
California,Clovis,93612,664,https://www.homedepot.com/l/Clovis/CA/Clovis/93612/664
California,Colma II,94014,639,https://www.homedepot.com/l/Colma-II/CA/Colma/94014/639
California,Commerce,90040,654,https://www.homedepot.com/l/Commerce/CA/Commerce/90040/654
California,Compton,90220,1858,https://www.homedepot.com/l/Compton/CA/Compton/90220/1858
California,Concord,94520,634,https://www.homedepot.com/l/Concord/CA/Concord/94520/634
California,Corona,92879,601,https://www.homedepot.com/l/Corona/CA/Corona/92879/601
California,Costa Mesa,92626,6664,https://www.homedepot.com/l/Costa-Mesa/CA/Costa-Mesa/92626/6664
California,Covina,91722,1845,https://www.homedepot.com/l/Covina/CA/Covina/91722/1845
California,Crescent City,95531,8524,https://www.homedepot.com/l/Crescent-City/CA/Crescent-City/95531/8524
California,Cypress,90630,6650,https://www.homedepot.com/l/Cypress/CA/Cypress/90630/6650
California,Cypress Park,90065,6689,https://www.homedepot.com/l/Cypress-Park/CA/Los-Angeles/90065/6689
California,Daly City,94015,1092,https://www.homedepot.com/l/Daly-City/CA/Daly-City/94015/1092
California,Delano,93215,8426,https://www.homedepot.com/l/Delano/CA/Delano/93215/8426
California,Downey,90241,6627,https://www.homedepot.com/l/Downey/CA/Downey/90241/6627
California,E Palmdale,93552,6883,https://www.homedepot.com/l/E-Palmdale/CA/Palmdale/93552/6883
California,E Palo Alto,94303,6603,https://www.homedepot.com/l/E-Palo-Alto/CA/East-Palo-Alto/94303/6603
California,East Brea,92821,1072,https://www.homedepot.com/l/East-Brea/CA/Brea/92821/1072
California,East Irvine,92620,8525,https://www.homedepot.com/l/East-Irvine/CA/Irvine/92620/8525
California,East San Jose,95127,6672,https://www.homedepot.com/l/East-San-Jose/CA/San-Jose/95127/6672
California,Eastlake,91915,1030,https://www.homedepot.com/l/Eastlake/CA/Chula-Vista/91915/1030
California,Eastvale,91752,1084,https://www.homedepot.com/l/Eastvale/CA/Mira-Loma/91752/1084
California,El Cajon (r676),92020,1848,https://www.homedepot.com/l/El-Cajon-r676/CA/El-Cajon/92020/1848
California,El Centro,92243,1059,https://www.homedepot.com/l/El-Centro/CA/El-Centro/92243/1059
California,El Cerrito,94530,643,https://www.homedepot.com/l/El-Cerrito/CA/El-Cerrito/94530/643
California,El Monte,91731,6673,https://www.homedepot.com/l/El-Monte/CA/El-Monte/91731/6673
California,El Toro,92630,1840,https://www.homedepot.com/l/El-Toro/CA/Lake-Forest/92630/1840
California,Elk Grove,95758,6674,https://www.homedepot.com/l/Elk-Grove/CA/Elk-Grove/95758/6674
California,Emeryville,94608,627,https://www.homedepot.com/l/Emeryville/CA/Emeryville/94608/627
California,Encinitas,92024,660,https://www.homedepot.com/l/Encinitas/CA/Encinitas/92024/660
California,Escondido,92029,6612,https://www.homedepot.com/l/Escondido/CA/Escondido/92029/6612
California,Escondido II,92027,1053,https://www.homedepot.com/l/Escondido-II/CA/Escondido/92027/1053
California,"Fairfield, CA",94533,637,https://www.homedepot.com/l/Fairfield-CA/CA/Fairfield/94533/637
California,Fairmount Ave,92120,6634,https://www.homedepot.com/l/Fairmount-Ave/CA/San-Diego/92120/6634
California,Florin Rd,95823,651,https://www.homedepot.com/l/Florin-Rd/CA/Sacramento/95823/651
California,Folsom,95630,6675,https://www.homedepot.com/l/Folsom/CA/Folsom/95630/6675
California,Fremont,94538,6636,https://www.homedepot.com/l/Fremont/CA/Fremont/94538/6636
California,Fresno,93711,663,https://www.homedepot.com/l/Fresno/CA/Fresno/93711/663
California,Fullerton (relo 682),92831,6893,https://www.homedepot.com/l/Fullerton-relo-682/CA/Fullerton/92831/6893
California,Garden Grove,92843,6639,https://www.homedepot.com/l/Garden-Grove/CA/Garden-Grove/92843/6639
California,Gardena,90248,611,https://www.homedepot.com/l/Gardena/CA/Gardena/90248/611
California,Genesee,92117,680,https://www.homedepot.com/l/Genesee/CA/San-Diego/92117/680
California,Gilroy,95020,6677,https://www.homedepot.com/l/Gilroy/CA/Gilroy/95020/6677
California,Glendale,91204,649,https://www.homedepot.com/l/Glendale/CA/Glendale/91204/649
California,Glendora,91740,6617,https://www.homedepot.com/l/Glendora/CA/Glendora/91740/6617
California,Goleta,93117,6623,https://www.homedepot.com/l/Goleta/CA/Goleta/93117/6623
California,Hanford,93230,1073,https://www.homedepot.com/l/Hanford/CA/Hanford/93230/1073
California,Hawthorne,90250,620,https://www.homedepot.com/l/Hawthorne/CA/Hawthorne/90250/620
California,Hayward,94541,1017,https://www.homedepot.com/l/Hayward/CA/Hayward/94541/1017
California,Hemet,92545,6637,https://www.homedepot.com/l/Hemet/CA/Hemet/92545/6637
California,Hercules,94547,1044,https://www.homedepot.com/l/Hercules/CA/Hercules/94547/1044
California,Hillsdale,95124,1009,https://www.homedepot.com/l/Hillsdale/CA/San-Jose/95124/1009
California,Huntington Beach,92646,6963,https://www.homedepot.com/l/Huntington-Beach/CA/Huntington-Beach/92646/6963
California,Huntington Beach II,92647,6646,https://www.homedepot.com/l/Huntington-Beach-II/CA/Huntington-Beach/92647/6646
California,Huntington Park,90255,1002,https://www.homedepot.com/l/Huntington-Park/CA/Huntington-Park/90255/1002
California,Hyde Park,90047,1039,https://www.homedepot.com/l/Hyde-Park/CA/Los-Angeles/90047/1039
California,Imperial Beach,92154,671,https://www.homedepot.com/l/Imperial-Beach/CA/San-Diego/92154/671
California,Imperial Marketplace,92113,1032,https://www.homedepot.com/l/Imperial-Marketplace/CA/San-Diego/92113/1032
California,Indio,92203,6874,https://www.homedepot.com/l/Indio/CA/Indio/92203/6874
California,Industry,91748,607,https://www.homedepot.com/l/Industry/CA/City-Of-Industry/91748/607
California,Inglewood,90303,1010,https://www.homedepot.com/l/Inglewood/CA/Inglewood/90303/1010
California,Kifer Rd,94086,640,https://www.homedepot.com/l/Kifer-Rd/CA/Sunnyvale/94086/640
California,La Habra,90631,6657,https://www.homedepot.com/l/La-Habra/CA/La-Habra/90631/6657
California,La Mirada,90638,684,https://www.homedepot.com/l/La-Mirada/CA/La-Mirada/90638/684
California,La Quinta,92253,6630,https://www.homedepot.com/l/La-Quinta/CA/La-Quinta/92253/6630
California,Ladera Heights,90056,1061,https://www.homedepot.com/l/Ladera-Heights/CA/Los-Angeles/90056/1061
California,Laguna Hills,92637,6628,https://www.homedepot.com/l/Laguna-Hills/CA/Laguna-Hills/92637/6628
California,Laguna Niguel,92677,1077,https://www.homedepot.com/l/Laguna-Niguel/CA/Laguna-Niguel/92677/1077
California,Lake Elsinore,92530,8988,https://www.homedepot.com/l/Lake-Elsinore/CA/Lake-Elsinore/92530/8988
California,Lake Forest,92630,6668,https://www.homedepot.com/l/Lake-Forest/CA/Lake-Forest/92630/6668
California,"Lakewood, CA",90712,6614,https://www.homedepot.com/l/Lakewood-CA/CA/Lakewood/90712/6614
California,Lancaster,93534,6651,https://www.homedepot.com/l/Lancaster/CA/Lancaster/93534/6651
California,Lemon Grove,91945,659,https://www.homedepot.com/l/Lemon-Grove/CA/Lemon-Grove/91945/659
California,Lincoln,95648,8571,https://www.homedepot.com/l/Lincoln/CA/Lincoln/95648/8571
California,Livermore,94551,6678,https://www.homedepot.com/l/Livermore/CA/Livermore/94551/6678
California,"Lodi, CA",95240,6660,https://www.homedepot.com/l/Lodi-CA/CA/Lodi/95240/6660
California,Lompoc,93436,6681,https://www.homedepot.com/l/Lompoc/CA/Lompoc/93436/6681
California,Long Beach,90755,1062,https://www.homedepot.com/l/Long-Beach/CA/Signal-Hill/90755/1062
California,Los Banos,93635,8427,https://www.homedepot.com/l/Los-Banos/CA/Los-Banos/93635/8427
California,Madera,93637,1088,https://www.homedepot.com/l/Madera/CA/Madera/93637/1088
California,ManteCA,95336,1006,https://www.homedepot.com/l/ManteCA/CA/Manteca/95336/1006
California,Marina Del Rey,90066,6611,https://www.homedepot.com/l/Marina-Del-Rey/CA/Los-Angeles/90066/6611
California,Martinez,94553,1380,https://www.homedepot.com/l/Martinez/CA/Martinez/94553/1380
California,Meadowview,95832,1003,https://www.homedepot.com/l/Meadowview/CA/Sacramento/95832/1003
California,Merced,95341,6618,https://www.homedepot.com/l/Merced/CA/Merced/95341/6618
California,Mira Mesa,92126,6679,https://www.homedepot.com/l/Mira-Mesa/CA/San-Diego/92126/6679
California,Mission Viejo,92692,614,https://www.homedepot.com/l/Mission-Viejo/CA/Mission-Viejo/92692/614
California,Modesto,95351,6601,https://www.homedepot.com/l/Modesto/CA/Modesto/95351/6601
California,Monrovia,91016,6629,https://www.homedepot.com/l/Monrovia/CA/Monrovia/91016/6629
California,Monterey Park,91755,2304,https://www.homedepot.com/l/Monterey-Park/CA/Monterey-Park/91755/2304
California,Moreno Valley,92557,616,https://www.homedepot.com/l/Moreno-Valley/CA/Moreno-Valley/92557/616
California,Moreno Valley II,92551,1087,https://www.homedepot.com/l/Moreno-Valley-II/CA/Moreno-Valley/92551/1087
California,Morgan Hill,95037,8572,https://www.homedepot.com/l/Morgan-Hill/CA/Morgan-Hill/95037/8572
California,Murrieta,92562,668,https://www.homedepot.com/l/Murrieta/CA/Murrieta/92562/668
California,N Fresno,93720,1014,https://www.homedepot.com/l/N-Fresno/CA/Fresno/93720/1014
California,N Hollywood,91605,6613,https://www.homedepot.com/l/N-Hollywood/CA/North-Hollywood/91605/6613
California,N Oceanside,92057,1018,https://www.homedepot.com/l/N-Oceanside/CA/Oceanside/92057/1018
California,N Santa Ana,92705,6680,https://www.homedepot.com/l/N-Santa-Ana/CA/Santa-Ana/92705/6680
California,Napa,94559,6652,https://www.homedepot.com/l/Napa/CA/Napa/94559/6652
California,Ne Bakersfield,93306,1060,https://www.homedepot.com/l/Ne-Bakersfield/CA/Bakersfield/93306/1060
California,"Newark,CA",94560,6964,https://www.homedepot.com/l/Newark-CA/CA/Newark/94560/6964
California,Newhall,91355,1055,https://www.homedepot.com/l/Newhall/CA/Santa-Clarita/91355/1055
California,North Fontana,92336,6960,https://www.homedepot.com/l/North-Fontana/CA/Fontana/92336/6960
California,North Upland,91784,1083,https://www.homedepot.com/l/North-Upland/CA/Upland/91784/1083
California,Nw Bakersfield,93312,1064,https://www.homedepot.com/l/Nw-Bakersfield/CA/Bakersfield/93312/1064
California,Nw Victorville,92394,1844,https://www.homedepot.com/l/Nw-Victorville/CA/Victorville/92394/1844
California,Oakland,94601,1007,https://www.homedepot.com/l/Oakland/CA/Oakland/94601/1007
California,Oceanside,92056,679,https://www.homedepot.com/l/Oceanside/CA/Oceanside/92056/679
California,"Ontario,CA",91762,6884,https://www.homedepot.com/l/Ontario-CA/CA/Ontario/91762/6884
California,Orange (k),92865,6965,https://www.homedepot.com/l/Orange-k/CA/Orange/92865/6965
California,"Orange, CA",92867,615,https://www.homedepot.com/l/Orange-CA/CA/Orange/92867/615
California,Oroville,95965,8975,https://www.homedepot.com/l/Oroville/CA/Oroville/95965/8975
California,Otay Mesa,92154,1034,https://www.homedepot.com/l/Otay-Mesa/CA/San-Diego/92154/1034
California,Oxnard,93036,1040,https://www.homedepot.com/l/Oxnard/CA/Oxnard/93036/1040
California,Palm Springs,92264,8526,https://www.homedepot.com/l/Palm-Springs/CA/Palm-Springs/92264/8526
California,Palmdale,93551,638,https://www.homedepot.com/l/Palmdale/CA/Palmdale/93551/638
California,Panorama City,91402,6644,https://www.homedepot.com/l/Panorama-City/CA/Panorama-City/91402/6644
California,Paramount,90723,1037,https://www.homedepot.com/l/Paramount/CA/Paramount/90723/1037
California,Perris,92570,6875,https://www.homedepot.com/l/Perris/CA/Perris/92570/6875
California,Pittsburg,94565,644,https://www.homedepot.com/l/Pittsburg/CA/Pittsburg/94565/644
California,Placerville,95667,1085,https://www.homedepot.com/l/Placerville/CA/Placerville/95667/1085
California,Pleasanton,94588,629,https://www.homedepot.com/l/Pleasanton/CA/Pleasanton/94588/629
California,Pomona,91766,6645,https://www.homedepot.com/l/Pomona/CA/Pomona/91766/6645
California,Porterville,93257,1080,https://www.homedepot.com/l/Porterville/CA/Porterville/93257/1080
California,Poway,92064,8949,https://www.homedepot.com/l/Poway/CA/Poway/92064/8949
California,Power Inn,95826,6620,https://www.homedepot.com/l/Power-Inn/CA/Sacramento/95826/6620
California,Rancho Cordova,95742,652,https://www.homedepot.com/l/Rancho-Cordova/CA/Rancho-Cordova/95742/652
California,Rancho Cucamonga,91730,645,https://www.homedepot.com/l/Rancho-Cucamonga/CA/Rancho-Cucamonga/91730/645
California,Rancho Mirage,92270,667,https://www.homedepot.com/l/Rancho-Mirage/CA/Rancho-Mirage/92270/667
California,Red Bluff,96080,8492,https://www.homedepot.com/l/Red-Bluff/CA/Red-Bluff/96080/8492
California,Redding,96003,6682,https://www.homedepot.com/l/Redding/CA/Redding/96003/6682
California,Redlands,92374,1013,https://www.homedepot.com/l/Redlands/CA/Redlands/92374/1013
California,Rialto,92376,6683,https://www.homedepot.com/l/Rialto/CA/Rialto/92376/6683
California,Ridgecrest,93555,1089,https://www.homedepot.com/l/Ridgecrest/CA/Ridgecrest/93555/1089
California,Riverbank,95367,1842,https://www.homedepot.com/l/Riverbank/CA/Riverbank/95367/1842
California,Riverside,92504,6619,https://www.homedepot.com/l/Riverside/CA/Riverside/92504/6619
California,Rohnert Pk,94928,641,https://www.homedepot.com/l/Rohnert-Pk/CA/Rohnert-Park/94928/641
California,Roseville,95661,636,https://www.homedepot.com/l/Roseville/CA/Roseville/95661/636
California,S Corona,92881,6665,https://www.homedepot.com/l/S-Corona/CA/Corona/92881/6665
California,S Fontana,92337,1857,https://www.homedepot.com/l/S-Fontana/CA/Fontana/92337/1857
California,S Fresno,93727,1086,https://www.homedepot.com/l/S-Fresno/CA/Fresno/93727/1086
California,S San Bernardino,92408,610,https://www.homedepot.com/l/S-San-Bernardino/CA/San-Bernardino/92408/610
California,Salinas,93907,1843,https://www.homedepot.com/l/Salinas/CA/Salinas/93907/1843
California,San Bernardino,92405,683,https://www.homedepot.com/l/San-Bernardino/CA/San-Bernardino/92405/683
California,San Carlos,94070,628,https://www.homedepot.com/l/San-Carlos/CA/San-Carlos/94070/628
California,San Diego,c,designcenter,https://www.homedepot.com/c/designcenter
California,San Fernando,91340,609,https://www.homedepot.com/l/San-Fernando/CA/San-Fernando/91340/609
California,San Jose,95123,622,https://www.homedepot.com/l/San-Jose/CA/San-Jose/95123/622
California,San Jose (ge),95125,1861,https://www.homedepot.com/l/San-Jose-ge/CA/San-Jose/95125/1861
California,San Leandro,94577,625,https://www.homedepot.com/l/San-Leandro/CA/San-Leandro/94577/625
California,San Luis Obispo,93405,1052,https://www.homedepot.com/l/San-Luis-Obispo/CA/San-Luis-Obispo/93405/1052
California,San Marcos,92069,6656,https://www.homedepot.com/l/San-Marcos/CA/San-Marcos/92069/6656
California,San Mateo,94404,632,https://www.homedepot.com/l/San-Mateo/CA/San-Mateo/94404/632
California,San Pedro,90731,1005,https://www.homedepot.com/l/San-Pedro/CA/San-Pedro/90731/1005
California,San Rafael,94901,657,https://www.homedepot.com/l/San-Rafael/CA/San-Rafael/94901/657
California,San Ramon,94583,6604,https://www.homedepot.com/l/San-Ramon/CA/San-Ramon/94583/6604
California,Santa Ana,92704,606,https://www.homedepot.com/l/Santa-Ana/CA/Santa-Ana/92704/606
California,Santa Clara,95050,630,https://www.homedepot.com/l/Santa-Clara/CA/Santa-Clara/95050/630
California,Santa Clarita,91351,653,https://www.homedepot.com/l/Santa-Clarita/CA/Santa-Clarita/91351/653
California,Santa Maria,93455,6638,https://www.homedepot.com/l/Santa-Maria/CA/Santa-Maria/93455/6638
California,Santa Rosa,95403,1379,https://www.homedepot.com/l/Santa-Rosa/CA/Santa-Rosa/95403/1379
California,Santee,92071,673,https://www.homedepot.com/l/Santee/CA/Santee/92071/673
California,Seaside,93955,6967,https://www.homedepot.com/l/Seaside/CA/Seaside/93955/6967
California,Selma,93662,8529,https://www.homedepot.com/l/Selma/CA/Selma/93662/8529
California,Signal Hill,90755,648,https://www.homedepot.com/l/Signal-Hill/CA/Signal-Hill/90755/648
California,Simi Valley,93065,6640,https://www.homedepot.com/l/Simi-Valley/CA/Simi-Valley/93065/6640
California,Soquel,95073,6968,https://www.homedepot.com/l/Soquel/CA/Soquel/95073/6968
California,South Chino,91710,6876,https://www.homedepot.com/l/South-Chino/CA/Chino/91710/6876
California,Sports Arena,92110,674,https://www.homedepot.com/l/Sports-Arena/CA/San-Diego/92110/674
California,Stanford Ranch,95678,6688,https://www.homedepot.com/l/Stanford-Ranch/CA/Roseville/95678/6688
California,Stanton,90680,6952,https://www.homedepot.com/l/Stanton/CA/Stanton/90680/6952
California,Stockton,95212,662,https://www.homedepot.com/l/Stockton/CA/Stockton/95212/662
California,Sunset,90028,6616,https://www.homedepot.com/l/Sunset/CA/Hollywood/90028/6616
California,Sw Bakersfield,93313,6687,https://www.homedepot.com/l/Sw-Bakersfield/CA/Bakersfield/93313/6687
California,Tehachapi,93561,6835,https://www.homedepot.com/l/Tehachapi/CA/Tehachapi/93561/6835
California,Temecula,92592,1028,https://www.homedepot.com/l/Temecula/CA/Temecula/92592/1028
California,The Home Depot Pro,94014,6655,https://www.homedepot.com/l/The-Home-Depot-Pro/CA/Colma/94014/6655
California,Thousand Oaks,91320,6662,https://www.homedepot.com/l/Thousand-Oaks/CA/Thousand-Oaks/91320/6662
California,Torrance,90505,618,https://www.homedepot.com/l/Torrance/CA/Torrance/90505/618
California,Tracy,95304,1020,https://www.homedepot.com/l/Tracy/CA/Tracy/95304/1020
California,Truxel Rd,95834,6649,https://www.homedepot.com/l/Truxel-Rd/CA/Sacramento/95834/6649
California,Tulare,93274,6946,https://www.homedepot.com/l/Tulare/CA/Tulare/93274/6946
California,Turlock,95380,1001,https://www.homedepot.com/l/Turlock/CA/Turlock/95380/1001
California,Tustin,92782,603,https://www.homedepot.com/l/Tustin/CA/Tustin/92782/603
California,Ukiah,95482,8408,https://www.homedepot.com/l/Ukiah/CA/Ukiah/95482/8408
California,Union City,94587,635,https://www.homedepot.com/l/Union-City/CA/Union-City/94587/635
California,Upland,91786,687,https://www.homedepot.com/l/Upland/CA/Upland/91786/687
California,Vacaville,95687,1043,https://www.homedepot.com/l/Vacaville/CA/Vacaville/95687/1043
California,Vallejo,94591,633,https://www.homedepot.com/l/Vallejo/CA/Vallejo/94591/633
California,Van Nuys,91406,6661,https://www.homedepot.com/l/Van-Nuys/CA/Van-Nuys/91406/6661
California,Victorville,92395,665,https://www.homedepot.com/l/Victorville/CA/Victorville/92395/665
California,Visalia,93277,6615,https://www.homedepot.com/l/Visalia/CA/Visalia/93277/6615
California,Vista,92081,1074,https://www.homedepot.com/l/Vista/CA/Vista/92081/1074
California,W Inglewood,90301,6855,https://www.homedepot.com/l/W-Inglewood/CA/Inglewood/90301/6855
California,W Milpitas,95035,1041,https://www.homedepot.com/l/W-Milpitas/CA/Milpitas/95035/1041
California,W Sacramento,95605,1846,https://www.homedepot.com/l/W-Sacramento/CA/West-Sacramento/95605/1846
California,W Stockton,95219,1022,https://www.homedepot.com/l/W-Stockton/CA/Stockton/95219/1022
California,Watsonville,95076,1069,https://www.homedepot.com/l/Watsonville/CA/Watsonville/95076/1069
California,West Covina,91792,8463,https://www.homedepot.com/l/West-Covina/CA/West-Covina/91792/8463
California,West Hills,91307,1070,https://www.homedepot.com/l/West-Hills/CA/West-Hills/91307/1070
California,Westminster,92683,647,https://www.homedepot.com/l/Westminster/CA/Westminster/92683/647
California,Whittier,90606,6684,https://www.homedepot.com/l/Whittier/CA/Whittier/90606/6684
California,Wilshire/Union,90017,1048,https://www.homedepot.com/l/Wilshire-Union/CA/Los-Angeles/90017/1048
California,Windsor,95492,6667,https://www.homedepot.com/l/Windsor/CA/Windsor/95492/6667
California,Woodland,95776,1068,https://www.homedepot.com/l/Woodland/CA/Woodland/95776/1068
California,Woodland Hills,91367,6632,https://www.homedepot.com/l/Woodland-Hills/CA/Woodland-Hills/91367/6632
California,Yuba City,95993,1019,https://www.homedepot.com/l/Yuba-City/CA/Yuba-City/95993/1019
California,Yucca Valley,92284,6971,https://www.homedepot.com/l/Yucca-Valley/CA/Yucca-Valley/92284/6971
Colorado,Academy Blvd,80920,1510,https://www.homedepot.com/l/Academy-Blvd/CO/Colorado-Springs/80920/1510
Colorado,Arvada,80002,1502,https://www.homedepot.com/l/Arvada/CO/Arvada/80002/1502
Colorado,"Aurora, CO",80012,1501,https://www.homedepot.com/l/Aurora-CO/CO/Aurora/80012/1501
Colorado,Avon/Vail,81620,1525,https://www.homedepot.com/l/Avon-Vail/CO/Avon/81620/1525
Colorado,Bear Valley,80227,1520,https://www.homedepot.com/l/Bear-Valley/CO/Denver/80227/1520
Colorado,Boulder,80301,1546,https://www.homedepot.com/l/Boulder/CO/Boulder/80301/1546
Colorado,"Brighton,CO",80601,1547,https://www.homedepot.com/l/Brighton-CO/CO/Brighton/80601/1547
Colorado,Broomfield,80020,1524,https://www.homedepot.com/l/Broomfield/CO/Broomfield/80020/1524
Colorado,Canon City,81212,1542,https://www.homedepot.com/l/Canon-City/CO/Canon-City/81212/1542
Colorado,Castle Rock,80108,1531,https://www.homedepot.com/l/Castle-Rock/CO/Castle-Rock/80108/1531
Colorado,Colorado Springs,80909,1504,https://www.homedepot.com/l/Colorado-Springs/CO/Colorado-Springs/80909/1504
Colorado,Denver Sw,80123,1507,https://www.homedepot.com/l/Denver-Sw/CO/Denver/80123/1507
Colorado,Durango,81303,1534,https://www.homedepot.com/l/Durango/CO/Durango/81303/1534
Colorado,Evergreen,80439,1535,https://www.homedepot.com/l/Evergreen/CO/Evergreen/80439/1535
Colorado,Firestone,80504,1552,https://www.homedepot.com/l/Firestone/CO/Firestone/80504/1552
Colorado,Ft Collins,80525,1512,https://www.homedepot.com/l/Ft-Collins/CO/Fort-Collins/80525/1512
Colorado,"Glendale,CO",80246,1526,https://www.homedepot.com/l/Glendale-CO/CO/Glendale/80246/1526
Colorado,Golden,80401,1522,https://www.homedepot.com/l/Golden/CO/Golden/80401/1522
Colorado,Grand Junction,81505,1513,https://www.homedepot.com/l/Grand-Junction/CO/Grand-Junction/81505/1513
Colorado,Greeley,80634,1515,https://www.homedepot.com/l/Greeley/CO/Greeley/80634/1515
Colorado,Greenwood Village,80112,1509,https://www.homedepot.com/l/Greenwood-Village/CO/Greenwood-Village/80112/1509
Colorado,Highlands Ranch,80129,1540,https://www.homedepot.com/l/Highlands-Ranch/CO/Highlands-Ranch/80129/1540
Colorado,Jefferson County,80465,1549,https://www.homedepot.com/l/Jefferson-County/CO/Morrison/80465/1549
Colorado,"Lakewood, CO",80226,1514,https://www.homedepot.com/l/Lakewood-CO/CO/Lakewood/80226/1514
Colorado,Lakewood-North,80214,1550,https://www.homedepot.com/l/Lakewood-North/CO/Lakewood/80214/1550
Colorado,Littleton,80123,1519,https://www.homedepot.com/l/Littleton/CO/Littleton/80123/1519
Colorado,Longmont,80501,1521,https://www.homedepot.com/l/Longmont/CO/Longmont/80501/1521
Colorado,Louisville,80027,1506,https://www.homedepot.com/l/Louisville/CO/Louisville/80027/1506
Colorado,Loveland,80537,1529,https://www.homedepot.com/l/Loveland/CO/Loveland/80537/1529
Colorado,Montrose,81401,1537,https://www.homedepot.com/l/Montrose/CO/Montrose/81401/1537
Colorado,Monument,80132,1541,https://www.homedepot.com/l/Monument/CO/Monument/80132/1541
Colorado,N Ft Collins,80524,1544,https://www.homedepot.com/l/N-Ft-Collins/CO/Fort-Collins/80524/1544
Colorado,N Thornton,80023,1548,https://www.homedepot.com/l/N-Thornton/CO/Thornton/80023/1548
Colorado,Ne Colorado Springs,80920,1538,https://www.homedepot.com/l/Ne-Colorado-Springs/CO/Colorado-Springs/80920/1538
Colorado,North Aurora,80011,1551,https://www.homedepot.com/l/North-Aurora/CO/Aurora/80011/1551
Colorado,Park Meadows,80124,1508,https://www.homedepot.com/l/Park-Meadows/CO/Lone-Tree/80124/1508
Colorado,Parker,80134,1516,https://www.homedepot.com/l/Parker/CO/Parker/80134/1516
Colorado,Pioneer Hills,80015,1523,https://www.homedepot.com/l/Pioneer-Hills/CO/Aurora/80015/1523
Colorado,Pueblo,81008,1511,https://www.homedepot.com/l/Pueblo/CO/Pueblo/81008/1511
Colorado,Saddlerock,80016,1528,https://www.homedepot.com/l/Saddlerock/CO/Aurora/80016/1528
Colorado,Santa Fe,80223,1505,https://www.homedepot.com/l/Santa-Fe/CO/Denver/80223/1505
Colorado,Stapleton,80207,1532,https://www.homedepot.com/l/Stapleton/CO/Denver/80207/1532
Colorado,Sterling,80751,1545,https://www.homedepot.com/l/Sterling/CO/Sterling/80751/1545
Colorado,Sw Colorado Springs,80906,1518,https://www.homedepot.com/l/Sw-Colorado-Springs/CO/Colorado-Springs/80906/1518
Colorado,Thornton,80229,1503,https://www.homedepot.com/l/Thornton/CO/Thornton/80229/1503
Colorado,"Westminster, CO",80021,1517,https://www.homedepot.com/l/Westminster-CO/CO/Westminster/80021/1517
Connecticut,Berlin,06037,6203,https://www.homedepot.com/l/Berlin/CT/Berlin/06037/6203
Connecticut,"Bloomfield,CT",06002,6228,https://www.homedepot.com/l/Bloomfield-CT/CT/Bloomfield/06002/6228
Connecticut,Bridgeport,06606,6213,https://www.homedepot.com/l/Bridgeport/CT/Bridgeport/06606/6213
Connecticut,Bristol,06010,6229,https://www.homedepot.com/l/Bristol/CT/Bristol/06010/6229
Connecticut,Danbury,06811,6209,https://www.homedepot.com/l/Danbury/CT/Danbury/06811/6209
Connecticut,Derby,06418,6226,https://www.homedepot.com/l/Derby/CT/Derby/06418/6226
Connecticut,East Haven,06512,6223,https://www.homedepot.com/l/East-Haven/CT/East-Haven/06512/6223
Connecticut,Enfield,06082,6214,https://www.homedepot.com/l/Enfield/CT/Enfield/06082/6214
Connecticut,"Fairfield, CT",06824,6206,https://www.homedepot.com/l/Fairfield-CT/CT/Fairfield/06824/6206
Connecticut,Glastonbury,06033,6220,https://www.homedepot.com/l/Glastonbury/CT/Glastonbury/06033/6220
Connecticut,Hamden,06514,8473,https://www.homedepot.com/l/Hamden/CT/Hamden/06514/8473
Connecticut,Lisbon,06351,6221,https://www.homedepot.com/l/Lisbon/CT/Lisbon/06351/6221
Connecticut,"Manchester, CT",06042,6207,https://www.homedepot.com/l/Manchester-CT/CT/Manchester/06042/6207
Connecticut,"Middletown,CT",06457,6233,https://www.homedepot.com/l/Middletown-CT/CT/Middletown/06457/6233
Connecticut,"Montville,CT",06382,6234,https://www.homedepot.com/l/Montville-CT/CT/Uncasville/06382/6234
Connecticut,N Haven,06473,6201,https://www.homedepot.com/l/N-Haven/CT/North-Haven/06473/6201
Connecticut,New Hartford,06057,6218,https://www.homedepot.com/l/New-Hartford/CT/New-Hartford/06057/6218
Connecticut,New Milford,06776,4878,https://www.homedepot.com/l/New-Milford/CT/New-Milford/06776/4878
Connecticut,Norwalk,06854,6204,https://www.homedepot.com/l/Norwalk/CT/Norwalk/06854/6204
Connecticut,"Orange, CT",06477,6202,https://www.homedepot.com/l/Orange-CT/CT/Orange/06477/6202
Connecticut,South Southington,06489,6235,https://www.homedepot.com/l/South-Southington/CT/Southington/06489/6235
Connecticut,Southington,06489,6208,https://www.homedepot.com/l/Southington/CT/Southington/06489/6208
Connecticut,Stamford,06902,6242,https://www.homedepot.com/l/Stamford/CT/Stamford/06902/6242
Connecticut,Stratford,06614,6225,https://www.homedepot.com/l/Stratford/CT/Stratford/06614/6225
Connecticut,Trumbull,06611,6236,https://www.homedepot.com/l/Trumbull/CT/Trumbull/06611/6236
Connecticut,W Hartford,06110,6210,https://www.homedepot.com/l/W-Hartford/CT/West-Hartford/06110/6210
Connecticut,Wallingford,06492,6217,https://www.homedepot.com/l/Wallingford/CT/Wallingford/06492/6217
Connecticut,Waterbury,06708,6212,https://www.homedepot.com/l/Waterbury/CT/Waterbury/06708/6212
Connecticut,Waterford,06385,6215,https://www.homedepot.com/l/Waterford/CT/Waterford/06385/6215
Connecticut,Windham,06256,6230,https://www.homedepot.com/l/Windham/CT/North-Windham/06256/6230
Delaware,Brandywine,19703,1602,https://www.homedepot.com/l/Brandywine/DE/Claymont/19703/1602
Delaware,Christiana,19713,1601,https://www.homedepot.com/l/Christiana/DE/Newark/19713/1601
Delaware,"Dover,DE",19901,1608,https://www.homedepot.com/l/Dover-DE/DE/Dover/19901/1608
Delaware,Glasgow,19702,1603,https://www.homedepot.com/l/Glasgow/DE/Newark/19702/1603
Delaware,"Middletown,DE",19709,6843,https://www.homedepot.com/l/Middletown-DE/DE/Middletown/19709/6843
Delaware,New Castle,19720,1605,https://www.homedepot.com/l/New-Castle/DE/New-Castle/19720/1605
Delaware,"Newark,DE",19711,1610,https://www.homedepot.com/l/Newark-DE/DE/Newark/19711/1610
Delaware,Rehoboth Beach,19958,1604,https://www.homedepot.com/l/Rehoboth-Beach/DE/Lewes/19958/1604
Delaware,"Wilmington,DE",19802,8440,https://www.homedepot.com/l/Wilmington-DE/DE/Wilmington/19802/8440
Dist of Columbia,Ne Washington DC,20018,2583,https://www.homedepot.com/l/Ne-Washington-DC/DC/Washington/20018/2583
Florida,Alafaya Trail,32828,6331,https://www.homedepot.com/l/Alafaya-Trail/FL/Orlando/32828/6331
Florida,Apopka,32712,8926,https://www.homedepot.com/l/Apopka/FL/Apopka/32712/8926
Florida,Atlantic And Girvin,32225,6365,https://www.homedepot.com/l/Atlantic-And-Girvin/FL/Jacksonville/32225/6365
Florida,Boca Raton,33434,204,https://www.homedepot.com/l/Boca-Raton/FL/Boca-Raton/33434/204
Florida,Bonita Springs,34135,6373,https://www.homedepot.com/l/Bonita-Springs/FL/Bonita-Springs/34135/6373
Florida,Boynton Beach,33426,224,https://www.homedepot.com/l/Boynton-Beach/FL/Boynton-Beach/33426/224
Florida,Bradenton,34207,244,https://www.homedepot.com/l/Bradenton/FL/Bradenton/34207/244
Florida,Brandon,33619,243,https://www.homedepot.com/l/Brandon/FL/Tampa/33619/243
Florida,Bruce B Downs,33647,6311,https://www.homedepot.com/l/Bruce-B-Downs/FL/Tampa/33647/6311
Florida,Cape Coral,33909,268,https://www.homedepot.com/l/Cape-Coral/FL/Cape-Coral/33909/268
Florida,Carrollwood,33618,245,https://www.homedepot.com/l/Carrollwood/FL/Tampa/33618/245
Florida,Casselberry,32707,262,https://www.homedepot.com/l/Casselberry/FL/Casselberry/32707/262
Florida,Clearwater,33765,6357,https://www.homedepot.com/l/Clearwater/FL/Clearwater/33765/6357
Florida,Clermont,34711,6375,https://www.homedepot.com/l/Clermont/FL/Clermont/34711/6375
Florida,Coconut Creek,33073,6356,https://www.homedepot.com/l/Coconut-Creek/FL/Coconut-Creek/33073/6356
Florida,Coconut Grove,33133,6856,https://www.homedepot.com/l/Coconut-Grove/FL/Miami/33133/6856
Florida,Coral Springs,33071,284,https://www.homedepot.com/l/Coral-Springs/FL/Coral-Springs/33071/284
Florida,Crystal River,34429,6332,https://www.homedepot.com/l/Crystal-River/FL/Crystal-River/34429/6332
Florida,Cutler Ridge,33157,207,https://www.homedepot.com/l/Cutler-Ridge/FL/Miami/33157/207
Florida,Davie,33324,222,https://www.homedepot.com/l/Davie/FL/Davie/33324/222
Florida,Davie II,33328,6341,https://www.homedepot.com/l/Davie-II/FL/Davie/33328/6341
Florida,Daytona Beach,32114,233,https://www.homedepot.com/l/Daytona-Beach/FL/Daytona-Beach/32114/233
Florida,Deerfield Beach,33442,218,https://www.homedepot.com/l/Deerfield-Beach/FL/Deerfield-Beach/33442/218
Florida,Deerwood,33177,6976,https://www.homedepot.com/l/Deerwood/FL/Miami/33177/6976
Florida,Destin,32541,6377,https://www.homedepot.com/l/Destin/FL/Destin/32541/6377
Florida,Dixie Hwy,33156,6306,https://www.homedepot.com/l/Dixie-Hwy/FL/Pinecrest/33156/6306
Florida,Doral,33182,3331,https://www.homedepot.com/l/Doral/FL/Miami/33182/3331
Florida,E Bradenton,34201,6319,https://www.homedepot.com/l/E-Bradenton/FL/University-Park/34201/6319
Florida,E Colonial,32807,266,https://www.homedepot.com/l/E-Colonial/FL/Orlando/32807/266
Florida,E Delray Beach,33444,6315,https://www.homedepot.com/l/E-Delray-Beach/FL/Delray-Beach/33444/6315
Florida,E Fort Lauderdale,33304,6372,https://www.homedepot.com/l/E-Fort-Lauderdale/FL/Fort-Lauderdale/33304/6372
Florida,E Hialeah,33010,6378,https://www.homedepot.com/l/E-Hialeah/FL/Hialeah/33010/6378
Florida,E Palm Beach Lakes,33401,6320,https://www.homedepot.com/l/E-Palm-Beach-Lakes/FL/West-Palm-Beach/33401/6320
Florida,East Brandon,33511,6305,https://www.homedepot.com/l/East-Brandon/FL/Brandon/33511/6305
Florida,East Port Richey,34654,6865,https://www.homedepot.com/l/East-Port-Richey/FL/New-Port-Richey/34654/6865
Florida,Englewood,33981,1855,https://www.homedepot.com/l/Englewood/FL/Port-Charlotte/33981/1855
Florida,Flagler II,33144,6343,https://www.homedepot.com/l/Flagler-II/FL/Miami/33144/6343
Florida,Fleming Island,32003,6369,https://www.homedepot.com/l/Fleming-Island/FL/Orange-Park/32003/6369
Florida,Florida City,33034,6355,https://www.homedepot.com/l/Florida-City/FL/Florida-City/33034/6355
Florida,Forest City,32714,263,https://www.homedepot.com/l/Forest-City/FL/Altamonte-Springs/32714/263
Florida,Ft Myers,33912,276,https://www.homedepot.com/l/Ft-Myers/FL/Fort-Myers/33912/276
Florida,Ft Myers East,33905,8444,https://www.homedepot.com/l/Ft-Myers-East/FL/Fort-Myers/33905/8444
Florida,Ft Pierce,34947,283,https://www.homedepot.com/l/Ft-Pierce/FL/Fort-Pierce/34947/283
Florida,Ft Walton,32548,6301,https://www.homedepot.com/l/Ft-Walton/FL/Fort-Walton-Beach/32548/6301
Florida,Gainesville,32607,270,https://www.homedepot.com/l/Gainesville/FL/Gainesville/32607/270
Florida,Gainesville Ne,32609,1854,https://www.homedepot.com/l/Gainesville-Ne/FL/Gainesville/32609/1854
Florida,Gandy Blvd,33611,6327,https://www.homedepot.com/l/Gandy-Blvd/FL/Tampa/33611/6327
Florida,Hialeah,33012,202,https://www.homedepot.com/l/Hialeah/FL/Hialeah/33012/202
Florida,Hialeah Gardens,33018,6872,https://www.homedepot.com/l/Hialeah-Gardens/FL/Hialeah-Gardens/33018/6872
Florida,Hillsborough,33615,6361,https://www.homedepot.com/l/Hillsborough/FL/Tampa/33615/6361
Florida,Holiday,34691,288,https://www.homedepot.com/l/Holiday/FL/Holiday/34691/288
Florida,Hollywood,33023,285,https://www.homedepot.com/l/Hollywood/FL/West-Park/33023/285
Florida,Jacksonville (lane Ave),32205,6346,https://www.homedepot.com/l/Jacksonville-lane-Ave/FL/Jacksonville/32205/6346
Florida,Jacksonville Beach,32250,6974,https://www.homedepot.com/l/Jacksonville-Beach/FL/Jacksonville-Beach/32250/6974
Florida,Jacksonville W (oakleaf),32222,6890,https://www.homedepot.com/l/Jacksonville-W-oakleaf/FL/Jacksonville/32222/6890
Florida,Jensen Beach,34957,221,https://www.homedepot.com/l/Jensen-Beach/FL/Jensen-Beach/34957/221
Florida,Jupiter,33458,274,https://www.homedepot.com/l/Jupiter/FL/Jupiter/33458/274
Florida,Kendall,33186,210,https://www.homedepot.com/l/Kendall/FL/Miami/33186/210
Florida,Key West,33040,6313,https://www.homedepot.com/l/Key-West/FL/Key-West/33040/6313
Florida,Kissimmee,34741,265,https://www.homedepot.com/l/Kissimmee/FL/Kissimmee/34741/265
Florida,Lady Lake,32159,8447,https://www.homedepot.com/l/Lady-Lake/FL/Lady-Lake/32159/8447
Florida,Lake City,32025,6864,https://www.homedepot.com/l/Lake-City/FL/Lake-City/32025/6864
Florida,Lake Mary,32746,264,https://www.homedepot.com/l/Lake-Mary/FL/Lake-Mary/32746/264
Florida,Lake Park,33403,220,https://www.homedepot.com/l/Lake-Park/FL/Lake-Park/33403/220
Florida,Lake Wales,33859,203,https://www.homedepot.com/l/Lake-Wales/FL/Lake-Wales/33859/203
Florida,Lake Worth,33461,205,https://www.homedepot.com/l/Lake-Worth/FL/Lake-Worth/33461/205
Florida,Lake Worth II,33467,6316,https://www.homedepot.com/l/Lake-Worth-II/FL/Lake-Worth/33467/6316
Florida,Lakeland,33805,248,https://www.homedepot.com/l/Lakeland/FL/Lakeland/33805/248
Florida,Largo,33771,6321,https://www.homedepot.com/l/Largo/FL/Largo/33771/6321
Florida,"Leesburg, FL",34788,278,https://www.homedepot.com/l/Leesburg-FL/FL/Leesburg/34788/278
Florida,Marathon,33050,6302,https://www.homedepot.com/l/Marathon/FL/Marathon/33050/6302
Florida,Melbourne,32904,260,https://www.homedepot.com/l/Melbourne/FL/West-Melbourne/32904/260
Florida,Merritt Island,32953,234,https://www.homedepot.com/l/Merritt-Island/FL/Merritt-Island/32953/234
Florida,Miami (calle Ocho),33135,277,https://www.homedepot.com/l/Miami-calle-Ocho/FL/Miami/33135/277
Florida,Middleburg,32068,6935,https://www.homedepot.com/l/Middleburg/FL/Middleburg/32068/6935
Florida,Millenia,32839,6367,https://www.homedepot.com/l/Millenia/FL/Orlando/32839/6367
Florida,Miramar,33027,6353,https://www.homedepot.com/l/Miramar/FL/Miramar/33027/6353
Florida,N Hollywood/Stirling,33020,6310,https://www.homedepot.com/l/N-Hollywood-Stirling/FL/Hollywood/33020/6310
Florida,N Jacksonville,32218,6351,https://www.homedepot.com/l/N-Jacksonville/FL/Jacksonville/32218/6351
Florida,N Lauderdale,33068,6312,https://www.homedepot.com/l/N-Lauderdale/FL/North-Lauderdale/33068/6312
Florida,N Melbourne,32940,6381,https://www.homedepot.com/l/N-Melbourne/FL/Melbourne/32940/6381
Florida,N Miami Beach,33162,251,https://www.homedepot.com/l/N-Miami-Beach/FL/North-Miami-Beach/33162/251
Florida,N Miami/Biscayne,33181,6322,https://www.homedepot.com/l/N-Miami-Biscayne/FL/Miami/33181/6322
Florida,N Pensacola,32534,8472,https://www.homedepot.com/l/N-Pensacola/FL/Pensacola/32534/8472
Florida,Naples,34109,280,https://www.homedepot.com/l/Naples/FL/Naples/34109/280
Florida,Ne Bradenton,34208,1863,https://www.homedepot.com/l/Ne-Bradenton/FL/Bradenton/34208/1863
Florida,New Smyrna Beach,32168,6936,https://www.homedepot.com/l/New-Smyrna-Beach/FL/New-Smyrna-Beach/32168/6936
Florida,North Port,34287,8528,https://www.homedepot.com/l/North-Port/FL/North-Port/34287/8528
Florida,Northgate,33604,279,https://www.homedepot.com/l/Northgate/FL/Tampa/33604/279
Florida,Nw Dade,33014,209,https://www.homedepot.com/l/Nw-Dade/FL/Hialeah/33014/209
Florida,Oakland Park,33311,249,https://www.homedepot.com/l/Oakland-Park/FL/Oakland-Park/33311/249
Florida,Ocala,34474,253,https://www.homedepot.com/l/Ocala/FL/Ocala/34474/253
Florida,Okeechobee,34974,6878,https://www.homedepot.com/l/Okeechobee/FL/Okeechobee/34974/6878
Florida,Orange City,32763,6323,https://www.homedepot.com/l/Orange-City/FL/Orange-City/32763/6323
Florida,Orange Park,32073,275,https://www.homedepot.com/l/Orange-Park/FL/Orange-Park/32073/275
Florida,Orlando Se,32822,6869,https://www.homedepot.com/l/Orlando-Se/FL/Orlando/32822/6869
Florida,Oviedo,32765,287,https://www.homedepot.com/l/Oviedo/FL/Oviedo/32765/287
Florida,Pace,32571,6368,https://www.homedepot.com/l/Pace/FL/Pace/32571/6368
Florida,Palatka,32177,8531,https://www.homedepot.com/l/Palatka/FL/Palatka/32177/8531
Florida,Palm Bay,32907,6336,https://www.homedepot.com/l/Palm-Bay/FL/Palm-Bay/32907/6336
Florida,Palm Coast,32137,6363,https://www.homedepot.com/l/Palm-Coast/FL/Palm-Coast/32137/6363
Florida,Palm Harbor,33761,247,https://www.homedepot.com/l/Palm-Harbor/FL/Clearwater/33761/247
Florida,Panama City,32405,6303,https://www.homedepot.com/l/Panama-City/FL/Panama-City/32405/6303
Florida,Panama City Beach,32407,8446,https://www.homedepot.com/l/Panama-City-Beach/FL/Panama-City/32407/8446
Florida,Pembroke Pines (r0259),33026,6852,https://www.homedepot.com/l/Pembroke-Pines-r0259/FL/Pembroke-Pines/33026/6852
Florida,Pensacola,32503,6853,https://www.homedepot.com/l/Pensacola/FL/Pensacola/32503/6853
Florida,Pensacola West,32506,6932,https://www.homedepot.com/l/Pensacola-West/FL/Pensacola/32506/6932
Florida,Pinellas Park,33781,289,https://www.homedepot.com/l/Pinellas-Park/FL/Pinellas-Park/33781/289
Florida,Poinciana,34758,6851,https://www.homedepot.com/l/Poinciana/FL/Kissimmee/34758/6851
Florida,Pompano Beach,33064,208,https://www.homedepot.com/l/Pompano-Beach/FL/Pompano-Beach/33064/208
Florida,Port Charlotte,33948,201,https://www.homedepot.com/l/Port-Charlotte/FL/Port-Charlotte/33948/201
Florida,Port Orange,32127,6335,https://www.homedepot.com/l/Port-Orange/FL/Port-Orange/32127/6335
Florida,Port Richey,34668,238,https://www.homedepot.com/l/Port-Richey/FL/Port-Richey/34668/238
Florida,Port St Lucie-South,34953,6934,https://www.homedepot.com/l/Port-St-Lucie-South/FL/Port-Saint-Lucie/34953/6934
Florida,Punta Gorda,33950,6950,https://www.homedepot.com/l/Punta-Gorda/FL/Punta-Gorda/33950/6950
Florida,Regency Sq,32225,272,https://www.homedepot.com/l/Regency-Sq/FL/Jacksonville/32225/272
Florida,Riverview,33578,6380,https://www.homedepot.com/l/Riverview/FL/Riverview/33578/6380
Florida,Royal Palm,33414,6379,https://www.homedepot.com/l/Royal-Palm/FL/West-Palm-Beach/33414/6379
Florida,S Cape Coral,33914,6975,https://www.homedepot.com/l/S-Cape-Coral/FL/Cape-Coral/33914/6975
Florida,S Lakeland,33813,6324,https://www.homedepot.com/l/S-Lakeland/FL/Lakeland/33813/6324
Florida,Sarasota,34233,255,https://www.homedepot.com/l/Sarasota/FL/Sarasota/34233/255
Florida,Sawgrass,33323,6329,https://www.homedepot.com/l/Sawgrass/FL/Sunrise/33323/6329
Florida,Sebastian,32958,8545,https://www.homedepot.com/l/Sebastian/FL/Sebastian/32958/8545
Florida,Sebring,33870,6340,https://www.homedepot.com/l/Sebring/FL/Sebring/33870/6340
Florida,Seminole,33772,6304,https://www.homedepot.com/l/Seminole/FL/Seminole/33772/6304
Florida,South Chase,32837,6328,https://www.homedepot.com/l/South-Chase/FL/Orlando/32837/6328
Florida,South Naples,34112,6348,https://www.homedepot.com/l/South-Naples/FL/Naples/34112/6348
Florida,Southland,32809,232,https://www.homedepot.com/l/Southland/FL/Orlando/32809/232
Florida,Southside,32256,226,https://www.homedepot.com/l/Southside/FL/Jacksonville/32256/226
Florida,Spring Hill,34606,281,https://www.homedepot.com/l/Spring-Hill/FL/Spring-Hill/34606/281
Florida,St Augustine,32084,6334,https://www.homedepot.com/l/St-Augustine/FL/Saint-Augustine/32084/6334
Florida,St Cloud West,34769,6350,https://www.homedepot.com/l/St-Cloud-West/FL/Saint-Cloud/34769/6350
Florida,St Johns,32259,1324,https://www.homedepot.com/l/St-Johns/FL/Saint-Johns/32259/1324
Florida,St Pete,33713,257,https://www.homedepot.com/l/St-Pete/FL/Saint-Petersburg/33713/257
Florida,Stadium,33607,256,https://www.homedepot.com/l/Stadium/FL/Tampa/33607/256
Florida,Stuart,34994,6314,https://www.homedepot.com/l/Stuart/FL/Stuart/34994/6314
Florida,Sun City,33573,6951,https://www.homedepot.com/l/Sun-City/FL/Ruskin/33573/6951
Florida,Sunrise,33322,258,https://www.homedepot.com/l/Sunrise/FL/Sunrise/33322/258
Florida,Tallahassee,32308,254,https://www.homedepot.com/l/Tallahassee/FL/Tallahassee/32308/254
Florida,Titusville,32780,6871,https://www.homedepot.com/l/Titusville/FL/Titusville/32780/6871
Florida,Venice,34293,273,https://www.homedepot.com/l/Venice/FL/Venice/34293/273
Florida,Vero Beach,32966,213,https://www.homedepot.com/l/Vero-Beach/FL/Vero-Beach/32966/213
Florida,W Colonial,32818,261,https://www.homedepot.com/l/W-Colonial/FL/Orlando/32818/261
Florida,W Griffin,33331,6326,https://www.homedepot.com/l/W-Griffin/FL/Davie/33331/6326
Florida,W Kendall,33196,6339,https://www.homedepot.com/l/W-Kendall/FL/Miami/33196/6339
Florida,W Palm Beach,33411,6330,https://www.homedepot.com/l/W-Palm-Beach/FL/West-Palm-Beach/33411/6330
Florida,W St Petersburg,33710,6364,https://www.homedepot.com/l/W-St-Petersburg/FL/Saint-Petersburg/33710/6364
Florida,W Tallahassee,32303,6374,https://www.homedepot.com/l/W-Tallahassee/FL/Tallahassee/32303/6374
Florida,West Dade,33165,206,https://www.homedepot.com/l/West-Dade/FL/Miami/33165/206
Florida,West Delray,33446,6325,https://www.homedepot.com/l/West-Delray/FL/Delray-Beach/33446/6325
Florida,West Port St Lucie,34986,6376,https://www.homedepot.com/l/West-Port-St-Lucie/FL/Port-Saint-Lucie/34986/6376
Florida,Winter Haven,33881,6371,https://www.homedepot.com/l/Winter-Haven/FL/Winter-Haven/33881/6371
Florida,Winter Park,32810,6349,https://www.homedepot.com/l/Winter-Park/FL/Orlando/32810/6349
Florida,Yulee,32097,6921,https://www.homedepot.com/l/Yulee/FL/Yulee/32097/6921
Florida,Zephyrhills,33545,8929,https://www.homedepot.com/l/Zephyrhills/FL/Zephyrhills/33545/8929
Georgia,Acworth,30101,156,https://www.homedepot.com/l/Acworth/GA/Acworth/30101/156
Georgia,"Albany, GA",31707,155,https://www.homedepot.com/l/Albany-GA/GA/Albany/31707/155
Georgia,Alpharetta,30004,149,https://www.homedepot.com/l/Alpharetta/GA/Alpharetta/30004/149
Georgia,Athens,30606,129,https://www.homedepot.com/l/Athens/GA/Athens/30606/129
Georgia,Augusta,30907,119,https://www.homedepot.com/l/Augusta/GA/Augusta/30907/119
Georgia,Augusta North,30809,1747,https://www.homedepot.com/l/Augusta-North/GA/Evans/30809/1747
Georgia,Austell,30106,1749,https://www.homedepot.com/l/Austell/GA/Austell/30106/1749
Georgia,Bainbridge,39819,6959,https://www.homedepot.com/l/Bainbridge/GA/Bainbridge/39819/6959
Georgia,Blairsville,30512,1750,https://www.homedepot.com/l/Blairsville/GA/Blairsville/30512/1750
Georgia,Blue Ridge,30513,1771,https://www.homedepot.com/l/Blue-Ridge/GA/Blue-Ridge/30513/1771
Georgia,Brookwood,30024,6978,https://www.homedepot.com/l/Brookwood/GA/Suwanee/30024/6978
Georgia,Brunswick,31520,141,https://www.homedepot.com/l/Brunswick/GA/Brunswick/31520/141
Georgia,Buckhead,30324,6986,https://www.homedepot.com/l/Buckhead/GA/Atlanta/30324/6986
Georgia,Buford,30518,147,https://www.homedepot.com/l/Buford/GA/Buford/30518/147
Georgia,Calhoun,30701,8924,https://www.homedepot.com/l/Calhoun/GA/Calhoun/30701/8924
Georgia,"Canton, GA",30114,145,https://www.homedepot.com/l/Canton-GA/GA/Canton/30114/145
Georgia,"Carrollton, GA",30117,132,https://www.homedepot.com/l/Carrollton-GA/GA/Carrollton/30117/132
Georgia,Cartersville,30120,133,https://www.homedepot.com/l/Cartersville/GA/Cartersville/30120/133
Georgia,Cascade,30331,130,https://www.homedepot.com/l/Cascade/GA/Atlanta/30331/130
Georgia,Cedartown,30125,6942,https://www.homedepot.com/l/Cedartown/GA/Cedartown/30125/6942
Georgia,Clayton,30525,8412,https://www.homedepot.com/l/Clayton/GA/Clayton/30525/8412
Georgia,Columbus,31909,136,https://www.homedepot.com/l/Columbus/GA/Columbus/31909/136
Georgia,"Commerce,GA",30529,1764,https://www.homedepot.com/l/Commerce-GA/GA/Commerce/30529/1764
Georgia,Conyers,30013,128,https://www.homedepot.com/l/Conyers/GA/Conyers/30013/128
Georgia,Cordele,31015,1773,https://www.homedepot.com/l/Cordele/GA/Cordele/31015/1773
Georgia,"Covington,GA",30014,165,https://www.homedepot.com/l/Covington-GA/GA/Covington/30014/165
Georgia,Cumberland,30339,121,https://www.homedepot.com/l/Cumberland/GA/Atlanta/30339/121
Georgia,Cumming,30041,134,https://www.homedepot.com/l/Cumming/GA/Cumming/30041/134
Georgia,DahloneGA,30533,6980,https://www.homedepot.com/l/DahloneGA/GA/Dahlonega/30533/6980
Georgia,Dalton,30720,137,https://www.homedepot.com/l/Dalton/GA/Dalton/30720/137
Georgia,Dawsonville,30534,174,https://www.homedepot.com/l/Dawsonville/GA/Dawsonville/30534/174
Georgia,Douglasville,30135,143,https://www.homedepot.com/l/Douglasville/GA/Douglasville/30135/143
Georgia,Dublin,31021,8954,https://www.homedepot.com/l/Dublin/GA/Dublin/31021/8954
Georgia,Duluth,30096,105,https://www.homedepot.com/l/Duluth/GA/Duluth/30096/105
Georgia,East Savannah,31404,170,https://www.homedepot.com/l/East-Savannah/GA/Savannah/31404/170
Georgia,Ellenwood,30294,6977,https://www.homedepot.com/l/Ellenwood/GA/Ellenwood/30294/6977
Georgia,"Fayetteville, GA",30214,127,https://www.homedepot.com/l/Fayetteville-GA/GA/Fayetteville/30214/127
Georgia,Flowery Branch,30542,1856,https://www.homedepot.com/l/Flowery-Branch/GA/Flowery-Branch/30542/1856
Georgia,Ft Oglethorpe,30742,1769,https://www.homedepot.com/l/Ft-Oglethorpe/GA/Fort-Oglethorpe/30742/1769
Georgia,"Gainesville, GA",30501,152,https://www.homedepot.com/l/Gainesville-GA/GA/Gainesville/30501/152
Georgia,"Greensboro,GA",30642,8584,https://www.homedepot.com/l/Greensboro-GA/GA/Greensboro/30642/8584
Georgia,Griffin,30223,138,https://www.homedepot.com/l/Griffin/GA/Griffin/30223/138
Georgia,Hamilton Mill,30019,161,https://www.homedepot.com/l/Hamilton-Mill/GA/Dacula/30019/161
Georgia,Hartwell,30643,1748,https://www.homedepot.com/l/Hartwell/GA/Hartwell/30643/1748
Georgia,"Jasper, GA",30143,8413,https://www.homedepot.com/l/Jasper-GA/GA/Jasper/30143/8413
Georgia,Jonesboro,30354,123,https://www.homedepot.com/l/Jonesboro/GA/Atlanta/30354/123
Georgia,Kennesaw,30144,106,https://www.homedepot.com/l/Kennesaw/GA/Kennesaw/30144/106
Georgia,Kennesaw North,30144,1777,https://www.homedepot.com/l/Kennesaw-North/GA/Kennesaw/30144/1777
Georgia,Lagrange,30241,160,https://www.homedepot.com/l/Lagrange/GA/Lagrange/30241/160
Georgia,Lawrenceville,30043,126,https://www.homedepot.com/l/Lawrenceville/GA/Lawrenceville/30043/126
Georgia,Lilburn,30047,110,https://www.homedepot.com/l/Lilburn/GA/Lilburn/30047/110
Georgia,Lithia Spgs-Thornton Rd,30122,6941,https://www.homedepot.com/l/Lithia-Spgs-Thornton-Rd/GA/Lithia-Springs/30122/6941
Georgia,Loganville,30052,172,https://www.homedepot.com/l/Loganville/GA/Loganville/30052/172
Georgia,Lovejoy,30250,6848,https://www.homedepot.com/l/Lovejoy/GA/Lovejoy/30250/6848
Georgia,Mcdonough,30253,157,https://www.homedepot.com/l/Mcdonough/GA/Mcdonough/30253/157
Georgia,Merchants Walk,30062,111,https://www.homedepot.com/l/Merchants-Walk/GA/Marietta/30062/111
Georgia,Midtown,30308,159,https://www.homedepot.com/l/Midtown/GA/Atlanta/30308/159
Georgia,"Monroe, GA",30655,1774,https://www.homedepot.com/l/Monroe-GA/GA/Monroe/30655/1774
Georgia,Morrow,30260,114,https://www.homedepot.com/l/Morrow/GA/Morrow/30260/114
Georgia,Moultrie,31788,1770,https://www.homedepot.com/l/Moultrie/GA/Moultrie/31788/1770
Georgia,N Fulton,30097,131,https://www.homedepot.com/l/N-Fulton/GA/Duluth/30097/131
Georgia,N Lilburn,30047,1775,https://www.homedepot.com/l/N-Lilburn/GA/Lilburn/30047/1775
Georgia,Newnan,30265,148,https://www.homedepot.com/l/Newnan/GA/Newnan/30265/148
Georgia,Nw Roswell/Westwind,30075,146,https://www.homedepot.com/l/Nw-Roswell-Westwind/GA/Roswell/30075/146
Georgia,Paulding County,30141,151,https://www.homedepot.com/l/Paulding-County/GA/Hiram/30141/151
Georgia,Peachtree City,30269,164,https://www.homedepot.com/l/Peachtree-City/GA/Peachtree-City/30269/164
Georgia,Pooler,31322,179,https://www.homedepot.com/l/Pooler/GA/Pooler/31322/179
Georgia,Powder Springs,30127,6940,https://www.homedepot.com/l/Powder-Springs/GA/Powder-Springs/30127/6940
Georgia,"Riverdale, GA",30274,178,https://www.homedepot.com/l/Riverdale-GA/GA/Riverdale/30274/178
Georgia,Rome,30161,139,https://www.homedepot.com/l/Rome/GA/Rome/30161/139
Georgia,Roswell,30076,1755,https://www.homedepot.com/l/Roswell/GA/Roswell/30076/1755
Georgia,Sandy Plains,30066,1763,https://www.homedepot.com/l/Sandy-Plains/GA/Marietta/30066/1763
Georgia,Sandy Springs,30328,154,https://www.homedepot.com/l/Sandy-Springs/GA/Sandy-Springs/30328/154
Georgia,Savannah,31419,122,https://www.homedepot.com/l/Savannah/GA/Savannah/31419/122
Georgia,Sixes Road,30115,6943,https://www.homedepot.com/l/Sixes-Road/GA/Canton/30115/6943
Georgia,Snellville,30078,144,https://www.homedepot.com/l/Snellville/GA/Snellville/30078/144
Georgia,Suwanee,30024,1754,https://www.homedepot.com/l/Suwanee/GA/Suwanee/30024/1754
Georgia,Thomaston,30286,8527,https://www.homedepot.com/l/Thomaston/GA/Thomaston/30286/8527
Georgia,Tilly Mill,30360,115,https://www.homedepot.com/l/Tilly-Mill/GA/Atlanta/30360/115
Georgia,Toccoa,30577,6888,https://www.homedepot.com/l/Toccoa/GA/Toccoa/30577/6888
Georgia,Tucker,30093,175,https://www.homedepot.com/l/Tucker/GA/Norcross/30093/175
Georgia,Valdosta,31601,140,https://www.homedepot.com/l/Valdosta/GA/Valdosta/31601/140
Georgia,Villa Rica,30180,6861,https://www.homedepot.com/l/Villa-Rica/GA/Villa-Rica/30180/6861
Georgia,W Macon,31206,1772,https://www.homedepot.com/l/W-Macon/GA/Macon/31206/1772
Georgia,Wages Drive,30033,117,https://www.homedepot.com/l/Wages-Drive/GA/Decatur/30033/117
Georgia,Warner Robins,31093,163,https://www.homedepot.com/l/Warner-Robins/GA/Warner-Robins/31093/163
Georgia,Wesley Chapel,30035,118,https://www.homedepot.com/l/Wesley-Chapel/GA/Decatur/30035/118
Georgia,West Cobb,30064,153,https://www.homedepot.com/l/West-Cobb/GA/Marietta/30064/153
Georgia,Winder,30680,6979,https://www.homedepot.com/l/Winder/GA/Winder/30680/6979
Georgia,Woodstock,30189,116,https://www.homedepot.com/l/Woodstock/GA/Woodstock/30189/116
Hawaii,Hilo,96720,8453,https://www.homedepot.com/l/Hilo/HI/Hilo/96720/8453
Hawaii,Honolulu,96817,1701,https://www.homedepot.com/l/Honolulu/HI/Honolulu/96817/1701
Hawaii,Kapolei,96707,1706,https://www.homedepot.com/l/Kapolei/HI/Kapolei/96707/1706
Hawaii,Kona,96740,1704,https://www.homedepot.com/l/Kona/HI/Kailua-Kona/96740/1704
Hawaii,Lihue-Kauai,96766,1705,https://www.homedepot.com/l/Lihue-Kauai/HI/Lihue/96766/1705
Hawaii,Maui,96732,1703,https://www.homedepot.com/l/Maui/HI/Kahului/96732/1703
Hawaii,Pearl City,96782,1702,https://www.homedepot.com/l/Pearl-City/HI/Pearl-City/96782/1702
Idaho,Boise,83704,1801,https://www.homedepot.com/l/Boise/ID/Boise/83704/1801
Idaho,Coeur D Alene,83815,1803,https://www.homedepot.com/l/Coeur-D-Alene/ID/Coeur-D-Alene/83815/1803
Idaho,E Boise,83705,1806,https://www.homedepot.com/l/E-Boise/ID/Boise/83705/1806
Idaho,Eagle,83616,1809,https://www.homedepot.com/l/Eagle/ID/Eagle/83616/1809
Idaho,Idaho Falls,83404,1802,https://www.homedepot.com/l/Idaho-Falls/ID/Idaho-Falls/83404/1802
Idaho,Lewiston,83501,1808,https://www.homedepot.com/l/Lewiston/ID/Lewiston/83501/1808
Idaho,Meridian,83642,1804,https://www.homedepot.com/l/Meridian/ID/Meridian/83642/1804
Idaho,Nampa,83651,8941,https://www.homedepot.com/l/Nampa/ID/Nampa/83651/8941
Idaho,Pocatello,83202,1807,https://www.homedepot.com/l/Pocatello/ID/Chubbuck/83202/1807
Idaho,Sandpoint,83852,1810,https://www.homedepot.com/l/Sandpoint/ID/Ponderay/83852/1810
Idaho,Twin Falls,83301,1805,https://www.homedepot.com/l/Twin-Falls/ID/Twin-Falls/83301/1805
Illinois,47th And Western,60609,1986,https://www.homedepot.com/l/47th-And-Western/IL/Chicago/60609/1986
Illinois,Algonquin,60102,1940,https://www.homedepot.com/l/Algonquin/IL/Algonquin/60102/1940
Illinois,Alsip,60803,6822,https://www.homedepot.com/l/Alsip/IL/Alsip/60803/6822
Illinois,"Alton,IL",62002,6920,https://www.homedepot.com/l/Alton-IL/IL/Alton/62002/6920
Illinois,Armitage / Cicero,60639,1974,https://www.homedepot.com/l/Armitage-Cicero/IL/Chicago/60639/1974
Illinois,Bartlett,60103,1964,https://www.homedepot.com/l/Bartlett/IL/Bartlett/60103/1964
Illinois,Bedford Park,60629,1908,https://www.homedepot.com/l/Bedford-Park/IL/Chicago/60629/1908
Illinois,Belleville,62226,1851,https://www.homedepot.com/l/Belleville/IL/Belleville/62226/1851
Illinois,Bolingbrook,60490,1939,https://www.homedepot.com/l/Bolingbrook/IL/Bolingbrook/60490/1939
Illinois,Brickyard,60707,1903,https://www.homedepot.com/l/Brickyard/IL/Chicago/60707/1903
Illinois,Broadview,60155,1901,https://www.homedepot.com/l/Broadview/IL/Broadview/60155/1901
Illinois,Calumet City,60409,1909,https://www.homedepot.com/l/Calumet-City/IL/Calumet-City/60409/1909
Illinois,Carol Stream,60188,1943,https://www.homedepot.com/l/Carol-Stream/IL/Carol-Stream/60188/1943
Illinois,Carpentersville,60110,1948,https://www.homedepot.com/l/Carpentersville/IL/Carpentersville/60110/1948
Illinois,Champaign,61820,1984,https://www.homedepot.com/l/Champaign/IL/Champaign/61820/1984
Illinois,Chicago Ridge,60415,1935,https://www.homedepot.com/l/Chicago-Ridge/IL/Chicago-Ridge/60415/1935
Illinois,"Cicero, IL",60804,1911,https://www.homedepot.com/l/Cicero-IL/IL/Cicero/60804/1911
Illinois,"Collinsville,IL",62234,6961,https://www.homedepot.com/l/Collinsville-IL/IL/Collinsville/62234/6961
Illinois,Countryside,60525,1983,https://www.homedepot.com/l/Countryside/IL/Countryside/60525/1983
Illinois,Crystal Lake,60014,1920,https://www.homedepot.com/l/Crystal-Lake/IL/Crystal-Lake/60014/1920
Illinois,Dan Ryan,60620,1914,https://www.homedepot.com/l/Dan-Ryan/IL/Chicago/60620/1914
Illinois,Darien,60561,1905,https://www.homedepot.com/l/Darien/IL/Darien/60561/1905
Illinois,Deerfield,60015,1926,https://www.homedepot.com/l/Deerfield/IL/Deerfield/60015/1926
Illinois,Downers Grove,60515,1916,https://www.homedepot.com/l/Downers-Grove/IL/Downers-Grove/60515/1916
Illinois,Edwardsville,62025,1973,https://www.homedepot.com/l/Edwardsville/IL/Edwardsville/62025/1973
Illinois,Elgin,60123,1934,https://www.homedepot.com/l/Elgin/IL/Elgin/60123/1934
Illinois,Elk Grove Village,60007,6701,https://www.homedepot.com/l/Elk-Grove-Village/IL/Elk-Grove-Village/60007/6701
Illinois,Elston/Leavitt,60647,1961,https://www.homedepot.com/l/Elston-Leavitt/IL/Chicago/60647/1961
Illinois,Evanston,60202,1902,https://www.homedepot.com/l/Evanston/IL/Evanston/60202/1902
Illinois,Fairview Heights,62269,1924,https://www.homedepot.com/l/Fairview-Heights/IL/O-Fallon/62269/1924
Illinois,"Frankfort,IL",60423,6919,https://www.homedepot.com/l/Frankfort-IL/IL/Frankfort/60423/6919
Illinois,Geneva,60134,1921,https://www.homedepot.com/l/Geneva/IL/Geneva/60134/1921
Illinois,Glendale Heights,60139,1917,https://www.homedepot.com/l/Glendale-Heights/IL/Glendale-Heights/60139/1917
Illinois,Glenview,60026,1987,https://www.homedepot.com/l/Glenview/IL/Glenview/60026/1987
Illinois,Gurnee,60031,1922,https://www.homedepot.com/l/Gurnee/IL/Gurnee/60031/1922
Illinois,Homer Township,60491,1989,https://www.homedepot.com/l/Homer-Township/IL/Homer-Glen/60491/1989
Illinois,Homewood,60430,1936,https://www.homedepot.com/l/Homewood/IL/Homewood/60430/1936
Illinois,"Jacksonville,IL",62650,8430,https://www.homedepot.com/l/Jacksonville-IL/IL/Jacksonville/62650/8430
Illinois,Joliet,60435,1962,https://www.homedepot.com/l/Joliet/IL/Joliet/60435/1962
Illinois,Kimball &amp; Addison,60618,1980,https://www.homedepot.com/l/Kimball-Addison/IL/Chicago/60618/1980
Illinois,Lake Zurich,60047,1952,https://www.homedepot.com/l/Lake-Zurich/IL/Lake-Zurich/60047/1952
Illinois,Lincoln &amp; Mccormick,60659,8598,https://www.homedepot.com/l/Lincoln-Mccormick/IL/Chicago/60659/8598
Illinois,Lincoln Park,60614,1976,https://www.homedepot.com/l/Lincoln-Park/IL/Chicago/60614/1976
Illinois,Machesney Park,61115,1956,https://www.homedepot.com/l/Machesney-Park/IL/Machesney-Park/61115/1956
Illinois,Marion,62959,1979,https://www.homedepot.com/l/Marion/IL/Marion/62959/1979
Illinois,Matteson,60443,1932,https://www.homedepot.com/l/Matteson/IL/Matteson/60443/1932
Illinois,Mattoon,61938,1967,https://www.homedepot.com/l/Mattoon/IL/Mattoon/61938/1967
Illinois,Mchenry,60051,1969,https://www.homedepot.com/l/Mchenry/IL/Mchenry/60051/1969
Illinois,Mundelein,60060,6981,https://www.homedepot.com/l/Mundelein/IL/Mundelein/60060/6981
Illinois,Naperville,60540,1918,https://www.homedepot.com/l/Naperville/IL/Naperville/60540/1918
Illinois,Niles,60714,1907,https://www.homedepot.com/l/Niles/IL/Niles/60714/1907
Illinois,Normal,61761,6987,https://www.homedepot.com/l/Normal/IL/Normal/61761/6987
Illinois,North Avenue,60642,1912,https://www.homedepot.com/l/North-Avenue/IL/Chicago/60642/1912
Illinois,Northlake,60164,1919,https://www.homedepot.com/l/Northlake/IL/Northlake/60164/1919
Illinois,Oak Lawn,60453,1955,https://www.homedepot.com/l/Oak-Lawn/IL/Oak-Lawn/60453/1955
Illinois,Oakbrook Terrace,60181,1982,https://www.homedepot.com/l/Oakbrook-Terrace/IL/Oakbrook-Terrace/60181/1982
Illinois,Orland Park,60462,1906,https://www.homedepot.com/l/Orland-Park/IL/Orland-Park/60462/1906
Illinois,Oswego,60543,1975,https://www.homedepot.com/l/Oswego/IL/Oswego/60543/1975
Illinois,Palatine,60074,1927,https://www.homedepot.com/l/Palatine/IL/Palatine/60074/1927
Illinois,"Peoria,IL",61615,1978,https://www.homedepot.com/l/Peoria-IL/IL/Peoria/61615/1978
Illinois,Peru,61354,1977,https://www.homedepot.com/l/Peru/IL/Peru/61354/1977
Illinois,"Quincy, IL",62305,1915,https://www.homedepot.com/l/Quincy-IL/IL/Quincy/62305/1915
Illinois,Randhurst,60056,1913,https://www.homedepot.com/l/Randhurst/IL/Mount-Prospect/60056/1913
Illinois,Rockford,61107,1928,https://www.homedepot.com/l/Rockford/IL/Rockford/61107/1928
Illinois,Round Lake Beach,60073,8431,https://www.homedepot.com/l/Round-Lake-Beach/IL/Round-Lake-Beach/60073/8431
Illinois,Schaumburg,60194,1904,https://www.homedepot.com/l/Schaumburg/IL/Schaumburg/60194/1904
Illinois,Shorewood,60404,6925,https://www.homedepot.com/l/Shorewood/IL/Shorewood/60404/6925
Illinois,South Elgin,60177,6923,https://www.homedepot.com/l/South-Elgin/IL/South-Elgin/60177/6923
Illinois,South Loop,60607,1950,https://www.homedepot.com/l/South-Loop/IL/Chicago/60607/1950
Illinois,Vernon Hills,60061,1938,https://www.homedepot.com/l/Vernon-Hills/IL/Vernon-Hills/60061/1938
Illinois,Volo,60041,1944,https://www.homedepot.com/l/Volo/IL/Ingleside/60041/1944
Illinois,Waukegan,60085,1941,https://www.homedepot.com/l/Waukegan/IL/Waukegan/60085/1941
Illinois,West Aurora,60506,1957,https://www.homedepot.com/l/West-Aurora/IL/Aurora/60506/1957
Illinois,West Niles,60714,1981,https://www.homedepot.com/l/West-Niles/IL/Niles/60714/1981
Illinois,Woodridge,60517,1942,https://www.homedepot.com/l/Woodridge/IL/Woodridge/60517/1942
Illinois,Yorkville,60560,6887,https://www.homedepot.com/l/Yorkville/IL/Yorkville/60560/6887
Indiana,"Auburn,IN",46706,2024,https://www.homedepot.com/l/Auburn-IN/IN/Auburn/46706/2024
Indiana,Carmel,46032,2037,https://www.homedepot.com/l/Carmel/IN/Carmel/46032/2037
Indiana,Castleton,46256,2018,https://www.homedepot.com/l/Castleton/IN/Indianapolis/46256/2018
Indiana,Clarksville,47129,2002,https://www.homedepot.com/l/Clarksville/IN/Clarksville/47129/2002
Indiana,Crawfordsville,47933,8918,https://www.homedepot.com/l/Crawfordsville/IN/Crawfordsville/47933/8918
Indiana,Eagle Creek,46254,2014,https://www.homedepot.com/l/Eagle-Creek/IN/Indianapolis/46254/2014
Indiana,Evansville,47715,2003,https://www.homedepot.com/l/Evansville/IN/Evansville/47715/2003
Indiana,Ft Wayne,46818,2009,https://www.homedepot.com/l/Ft-Wayne/IN/Fort-Wayne/46818/2009
Indiana,Greenfield,46140,2026,https://www.homedepot.com/l/Greenfield/IN/Greenfield/46140/2026
Indiana,"Greenwood,IN",46143,2019,https://www.homedepot.com/l/Greenwood-IN/IN/Greenwood/46143/2019
Indiana,Hammond,46320,2036,https://www.homedepot.com/l/Hammond/IN/Hammond/46320/2036
Indiana,Jasper,47546,2025,https://www.homedepot.com/l/Jasper/IN/Jasper/47546/2025
Indiana,"Lafayette, IN",47904,2034,https://www.homedepot.com/l/Lafayette-IN/IN/Lafayette/47904/2034
Indiana,Logansport,46947,2023,https://www.homedepot.com/l/Logansport/IN/Logansport/46947/2023
Indiana,Mishawaka,46545,2033,https://www.homedepot.com/l/Mishawaka/IN/Mishawaka/46545/2033
Indiana,New Albany,47150,2016,https://www.homedepot.com/l/New-Albany/IN/New-Albany/47150/2016
Indiana,Noblesville,46060,2017,https://www.homedepot.com/l/Noblesville/IN/Noblesville/46060/2017
Indiana,Post Road,46219,2011,https://www.homedepot.com/l/Post-Road/IN/Indianapolis/46219/2011
Indiana,Schererville,46375,1937,https://www.homedepot.com/l/Schererville/IN/Schererville/46375/1937
Indiana,Seymour,47274,2021,https://www.homedepot.com/l/Seymour/IN/Seymour/47274/2021
Indiana,Southlake,46410,2001,https://www.homedepot.com/l/Southlake/IN/Merrillville/46410/2001
Indiana,Southport,46237,2012,https://www.homedepot.com/l/Southport/IN/Indianapolis/46237/2012
Indiana,Valparaiso,46383,2030,https://www.homedepot.com/l/Valparaiso/IN/Valparaiso/46383/2030
Indiana,W Evansville,47712,2010,https://www.homedepot.com/l/W-Evansville/IN/Evansville/47712/2010
Iowa,Ankeny,50021,2107,https://www.homedepot.com/l/Ankeny/IA/Ankeny/50021/2107
Iowa,Bettendorf,52722,2111,https://www.homedepot.com/l/Bettendorf/IA/Bettendorf/52722/2111
Iowa,Cedar Rapids,52402,2108,https://www.homedepot.com/l/Cedar-Rapids/IA/Cedar-Rapids/52402/2108
Iowa,Clinton,52732,2113,https://www.homedepot.com/l/Clinton/IA/Clinton/52732/2113
Iowa,Council Bluffs,51501,2109,https://www.homedepot.com/l/Council-Bluffs/IA/Council-Bluffs/51501/2109
Iowa,Se Des Moines,50320,2104,https://www.homedepot.com/l/Se-Des-Moines/IA/Des-Moines/50320/2104
Iowa,Sioux City,51106,2114,https://www.homedepot.com/l/Sioux-City/IA/Sioux-City/51106/2114
Iowa,Urbandale,50322,2115,https://www.homedepot.com/l/Urbandale/IA/Urbandale/50322/2115
Iowa,W Des Moines,50266,2103,https://www.homedepot.com/l/W-Des-Moines/IA/West-Des-Moines/50266/2103
Iowa,Waterloo,50702,2101,https://www.homedepot.com/l/Waterloo/IA/Waterloo/50702/2101
Kansas,E Wichita,67220,2204,https://www.homedepot.com/l/E-Wichita/KS/Wichita/67220/2204
Kansas,Garden City,67846,2219,https://www.homedepot.com/l/Garden-City/KS/Garden-City/67846/2219
Kansas,Hays,67601,2221,https://www.homedepot.com/l/Hays/KS/Hays/67601/2221
Kansas,Hutchinson,67501,2214,https://www.homedepot.com/l/Hutchinson/KS/Hutchinson/67501/2214
Kansas,Lawrence,66046,2211,https://www.homedepot.com/l/Lawrence/KS/Lawrence/66046/2211
Kansas,Leavenworth,66048,2216,https://www.homedepot.com/l/Leavenworth/KS/Leavenworth/66048/2216
Kansas,"Manhattan,KS",66502,2217,https://www.homedepot.com/l/Manhattan-KS/KS/Manhattan/66502/2217
Kansas,Merriam,66202,2202,https://www.homedepot.com/l/Merriam/KS/Merriam/66202/2202
Kansas,N Overland Park,66212,2203,https://www.homedepot.com/l/N-Overland-Park/KS/Overland-Park/66212/2203
Kansas,Olathe,66062,2201,https://www.homedepot.com/l/Olathe/KS/Olathe/66062/2201
Kansas,"Pittsburg,KS",66762,2220,https://www.homedepot.com/l/Pittsburg-KS/KS/Pittsburg/66762/2220
Kansas,S Olathe,66062,2218,https://www.homedepot.com/l/S-Olathe/KS/Olathe/66062/2218
Kansas,S Overland Park,66223,2209,https://www.homedepot.com/l/S-Overland-Park/KS/Overland-Park/66223/2209
Kansas,Shawnee,66217,2213,https://www.homedepot.com/l/Shawnee/KS/Shawnee/66217/2213
Kansas,Topeka,66604,2207,https://www.homedepot.com/l/Topeka/KS/Topeka/66604/2207
Kansas,W Wichita,67209,2205,https://www.homedepot.com/l/W-Wichita/KS/Wichita/67209/2205
Kentucky,"Bowling Green,KY",42104,2318,https://www.homedepot.com/l/Bowling-Green-KY/KY/Bowling-Green/42104/2318
Kentucky,Cold Spring,41076,2323,https://www.homedepot.com/l/Cold-Spring/KY/Cold-Spring/41076/2323
Kentucky,Crescent Springs,41017,2324,https://www.homedepot.com/l/Crescent-Springs/KY/Crescent-Springs/41017/2324
Kentucky,"Dixie Hwy, KY",40258,2302,https://www.homedepot.com/l/Dixie-Hwy-KY/KY/Louisville/40258/2302
Kentucky,Elizabethtown,42701,2316,https://www.homedepot.com/l/Elizabethtown/KY/Elizabethtown/42701/2316
Kentucky,Florence,41042,2306,https://www.homedepot.com/l/Florence/KY/Florence/41042/2306
Kentucky,Hurstborne Rd,40220,2301,https://www.homedepot.com/l/Hurstborne-Rd/KY/Louisville/40220/2301
Kentucky,Lexington,40502,2303,https://www.homedepot.com/l/Lexington/KY/Lexington/40502/2303
Kentucky,Owensboro,42301,2317,https://www.homedepot.com/l/Owensboro/KY/Owensboro/42301/2317
Kentucky,Paducah,42001,2314,https://www.homedepot.com/l/Paducah/KY/Paducah/42001/2314
Kentucky,Preston Hwy,40219,2307,https://www.homedepot.com/l/Preston-Hwy/KY/Louisville/40219/2307
Kentucky,St Matthews,40207,2313,https://www.homedepot.com/l/St-Matthews/KY/Louisville/40207/2313
Kentucky,Turfland,40504,2315,https://www.homedepot.com/l/Turfland/KY/Lexington/40504/2315
Kentucky,Westport,40241,2305,https://www.homedepot.com/l/Westport/KY/Louisville/40241/2305
Louisiana,"Alexandria,LA",71301,374,https://www.homedepot.com/l/Alexandria-LA/LA/Alexandria/71301/374
Louisiana,Baton Rouge,70816,357,https://www.homedepot.com/l/Baton-Rouge/LA/Baton-Rouge/70816/357
Louisiana,Bossier City,71111,364,https://www.homedepot.com/l/Bossier-City/LA/Bossier-City/71111/364
Louisiana,Broussard,70518,389,https://www.homedepot.com/l/Broussard/LA/Broussard/70518/389
Louisiana,Chalmette,70043,373,https://www.homedepot.com/l/Chalmette/LA/Chalmette/70043/373
Louisiana,Covington,70433,358,https://www.homedepot.com/l/Covington/LA/Covington/70433/358
Louisiana,Denham Springs,70726,375,https://www.homedepot.com/l/Denham-Springs/LA/Denham-Springs/70726/375
Louisiana,Gonzales,70737,383,https://www.homedepot.com/l/Gonzales/LA/Gonzales/70737/383
Louisiana,Gretna,70053,359,https://www.homedepot.com/l/Gretna/LA/Gretna/70053/359
Louisiana,"Hammond,LA",70403,347,https://www.homedepot.com/l/Hammond-LA/LA/Hammond/70403/347
Louisiana,Harahan,70123,362,https://www.homedepot.com/l/Harahan/LA/Harahan/70123/362
Louisiana,Houma,70360,371,https://www.homedepot.com/l/Houma/LA/Houma/70360/371
Louisiana,I-10 Bullard,70128,352,https://www.homedepot.com/l/I-10-Bullard/LA/New-Orleans/70128/352
Louisiana,Kenner,70062,349,https://www.homedepot.com/l/Kenner/LA/Kenner/70062/349
Louisiana,La Place,70068,378,https://www.homedepot.com/l/La-Place/LA/La-Place/70068/378
Louisiana,Lafayette,70503,360,https://www.homedepot.com/l/Lafayette/LA/Lafayette/70503/360
Louisiana,Lake Charles,70615,363,https://www.homedepot.com/l/Lake-Charles/LA/Lake-Charles/70615/363
Louisiana,Marrero,70072,368,https://www.homedepot.com/l/Marrero/LA/Marrero/70072/368
Louisiana,Monroe,71203,366,https://www.homedepot.com/l/Monroe/LA/Monroe/71203/366
Louisiana,N Baton Rouge,70815,367,https://www.homedepot.com/l/N-Baton-Rouge/LA/Baton-Rouge/70815/367
Louisiana,N Lafayette,70501,376,https://www.homedepot.com/l/N-Lafayette/LA/Lafayette/70501/376
Louisiana,New Orleans Central,70125,385,https://www.homedepot.com/l/New-Orleans-Central/LA/New-Orleans/70125/385
Louisiana,Se Baton Rouge,70810,370,https://www.homedepot.com/l/Se-Baton-Rouge/LA/Baton-Rouge/70810/370
Louisiana,Shreveport,71106,356,https://www.homedepot.com/l/Shreveport/LA/Shreveport/71106/356
Louisiana,Slidell,70460,365,https://www.homedepot.com/l/Slidell/LA/Slidell/70460/365
Louisiana,Slidell East,70461,386,https://www.homedepot.com/l/Slidell-East/LA/Slidell/70461/386
Louisiana,W Shrevport,71129,381,https://www.homedepot.com/l/W-Shrevport/LA/Shreveport/71129/381
Louisiana,Zachary,70791,380,https://www.homedepot.com/l/Zachary/LA/Zachary/70791/380
Maine,"Auburn, ME",04210,2403,https://www.homedepot.com/l/Auburn-ME/ME/Auburn/04210/2403
Maine,"Augusta, ME",04330,2404,https://www.homedepot.com/l/Augusta-ME/ME/Augusta/04330/2404
Maine,Bangor,04401,2414,https://www.homedepot.com/l/Bangor/ME/Bangor/04401/2414
Maine,Biddeford,04005,2405,https://www.homedepot.com/l/Biddeford/ME/Biddeford/04005/2405
Maine,Ellsworth,04605,2408,https://www.homedepot.com/l/Ellsworth/ME/Ellsworth/04605/2408
Maine,North Windham,04062,2412,https://www.homedepot.com/l/North-Windham/ME/Windham/04062/2412
Maine,Portland,04103,2401,https://www.homedepot.com/l/Portland/ME/Portland/04103/2401
Maine,"Rockland,ME",04841,2409,https://www.homedepot.com/l/Rockland-ME/ME/Rockland/04841/2409
Maine,South Portland,04106,2406,https://www.homedepot.com/l/South-Portland/ME/South-Portland/04106/2406
Maine,Topsham,04086,2410,https://www.homedepot.com/l/Topsham/ME/Topsham/04086/2410
Maine,Waterville,04901,2407,https://www.homedepot.com/l/Waterville/ME/Waterville/04901/2407
Maryland,"Aberdeen,MD",21001,2510,https://www.homedepot.com/l/Aberdeen-MD/MD/Aberdeen/21001/2510
Maryland,Annapolis,21401,2557,https://www.homedepot.com/l/Annapolis/MD/Annapolis/21401/2557
Maryland,Aspen Hill,20906,2558,https://www.homedepot.com/l/Aspen-Hill/MD/Aspen-Hill/20906/2558
Maryland,Bel Air,21014,2506,https://www.homedepot.com/l/Bel-Air/MD/Bel-Air/21014/2506
Maryland,Bethesda,20817,2509,https://www.homedepot.com/l/Bethesda/MD/Bethesda/20817/2509
Maryland,Bowie,20716,2562,https://www.homedepot.com/l/Bowie/MD/Bowie/20716/2562
Maryland,Capitol Heights,20743,2555,https://www.homedepot.com/l/Capitol-Heights/MD/Capitol-Heights/20743/2555
Maryland,Catonsville,21228,2503,https://www.homedepot.com/l/Catonsville/MD/Catonsville/21228/2503
Maryland,College Park,20740,2552,https://www.homedepot.com/l/College-Park/MD/College-Park/20740/2552
Maryland,"Columbia,MD",21046,2575,https://www.homedepot.com/l/Columbia-MD/MD/Columbia/21046/2575
Maryland,Dundalk,21224,2505,https://www.homedepot.com/l/Dundalk/MD/Baltimore/21224/2505
Maryland,Edgewood,21040,2576,https://www.homedepot.com/l/Edgewood/MD/Edgewood/21040/2576
Maryland,Eldersburg,21784,2581,https://www.homedepot.com/l/Eldersburg/MD/Sykesville/21784/2581
Maryland,Ellicott City,21042,2566,https://www.homedepot.com/l/Ellicott-City/MD/Ellicott-City/21042/2566
Maryland,Frederick,21704,2559,https://www.homedepot.com/l/Frederick/MD/Frederick/21704/2559
Maryland,Gaithersburg,20877,2550,https://www.homedepot.com/l/Gaithersburg/MD/Gaithersburg/20877/2550
Maryland,Germantown,20876,2560,https://www.homedepot.com/l/Germantown/MD/Germantown/20876/2560
Maryland,Glen Burnie,21060,2501,https://www.homedepot.com/l/Glen-Burnie/MD/Glen-Burnie/21060/2501
Maryland,Golden Ring Mall,21237,2587,https://www.homedepot.com/l/Golden-Ring-Mall/MD/Rosedale/21237/2587
Maryland,Hagerstown,21740,2567,https://www.homedepot.com/l/Hagerstown/MD/Hagerstown/21740/2567
Maryland,Hyattsville,20782,2564,https://www.homedepot.com/l/Hyattsville/MD/Hyattsville/20782/2564
Maryland,Lanham,20706,8548,https://www.homedepot.com/l/Lanham/MD/Lanham/20706/8548
Maryland,Lansdowne,21227,2579,https://www.homedepot.com/l/Lansdowne/MD/Halethorpe/21227/2579
Maryland,Laurel,20707,2571,https://www.homedepot.com/l/Laurel/MD/Laurel/20707/2571
Maryland,Ocean City,21811,2578,https://www.homedepot.com/l/Ocean-City/MD/Berlin/21811/2578
Maryland,Owings Mills,21117,2507,https://www.homedepot.com/l/Owings-Mills/MD/Owings-Mills/21117/2507
Maryland,Oxon Hill,20745,2554,https://www.homedepot.com/l/Oxon-Hill/MD/Oxon-Hill/20745/2554
Maryland,Parkville,21234,2577,https://www.homedepot.com/l/Parkville/MD/Parkville/21234/2577
Maryland,"Pasadena,MD",21060,2582,https://www.homedepot.com/l/Pasadena-MD/MD/Glen-Burnie/21060/2582
Maryland,Randallstown,21133,6945,https://www.homedepot.com/l/Randallstown/MD/Randallstown/21133/6945
Maryland,Reisterstown,21215,2584,https://www.homedepot.com/l/Reisterstown/MD/Baltimore/21215/2584
Maryland,S Annapolis,21401,2589,https://www.homedepot.com/l/S-Annapolis/MD/Annapolis/21401/2589
Maryland,Salisbury,21804,2561,https://www.homedepot.com/l/Salisbury/MD/Salisbury/21804/2561
Maryland,Silver Spring,20904,2551,https://www.homedepot.com/l/Silver-Spring/MD/Silver-Spring/20904/2551
Maryland,Timonium,21030,2565,https://www.homedepot.com/l/Timonium/MD/Cockeysville/21030/2565
Maryland,Towson,21234,2504,https://www.homedepot.com/l/Towson/MD/Parkville/21234/2504
Maryland,Upper Marlboro,20772,8550,https://www.homedepot.com/l/Upper-Marlboro/MD/Upper-Marlboro/20772/8550
Maryland,Waldorf,20601,2563,https://www.homedepot.com/l/Waldorf/MD/Waldorf/20601/2563
Maryland,West Frederick,21702,2511,https://www.homedepot.com/l/West-Frederick/MD/Frederick/21702/2511
Maryland,"Westminster,MD",21157,2580,https://www.homedepot.com/l/Westminster-MD/MD/Westminster/21157/2580
Maryland,White Marsh,21220,2502,https://www.homedepot.com/l/White-Marsh/MD/Baltimore/21220/2502
Massachusetts,"Auburn,MA",01501,2682,https://www.homedepot.com/l/Auburn-MA/MA/Auburn/01501/2682
Massachusetts,Avon,02322,2671,https://www.homedepot.com/l/Avon/MA/Avon/02322/2671
Massachusetts,Bellingham,02019,2651,https://www.homedepot.com/l/Bellingham/MA/Bellingham/02019/2651
Massachusetts,Bridgewater,02324,2603,https://www.homedepot.com/l/Bridgewater/MA/Bridgewater/02324/2603
Massachusetts,Brockton,02302,2611,https://www.homedepot.com/l/Brockton/MA/Brockton/02302/2611
Massachusetts,"Chelsea,MA",02150,8979,https://www.homedepot.com/l/Chelsea-MA/MA/Chelsea/02150/8979
Massachusetts,Chicopee,01020,2610,https://www.homedepot.com/l/Chicopee/MA/Chicopee/01020/2610
Massachusetts,Danvers,01923,2663,https://www.homedepot.com/l/Danvers/MA/Danvers/01923/2663
Massachusetts,Danvers East,01923,2623,https://www.homedepot.com/l/Danvers-East/MA/Danvers/01923/2623
Massachusetts,E Springfield,01095,2678,https://www.homedepot.com/l/E-Springfield/MA/Wilbraham/01095/2678
Massachusetts,"Everett,MA",02149,2688,https://www.homedepot.com/l/Everett-MA/MA/Everett/02149/2688
Massachusetts,"Greenfield,MA",01301,2619,https://www.homedepot.com/l/Greenfield-MA/MA/Greenfield/01301/2619
Massachusetts,Hadley,01035,8452,https://www.homedepot.com/l/Hadley/MA/Hadley/01035/8452
Massachusetts,Hyannis,02601,2612,https://www.homedepot.com/l/Hyannis/MA/Hyannis/02601/2612
Massachusetts,Leominster,01453,2676,https://www.homedepot.com/l/Leominster/MA/Leominster/01453/2676
Massachusetts,Mansfield,02048,2609,https://www.homedepot.com/l/Mansfield/MA/Mansfield/02048/2609
Massachusetts,Marlborough,01752,2607,https://www.homedepot.com/l/Marlborough/MA/Marlborough/01752/2607
Massachusetts,Methuen,01844,2685,https://www.homedepot.com/l/Methuen/MA/Methuen/01844/2685
Massachusetts,N Dartmouth,02747,2673,https://www.homedepot.com/l/N-Dartmouth/MA/North-Dartmouth/02747/2673
Massachusetts,Natick,01760,2669,https://www.homedepot.com/l/Natick/MA/Natick/01760/2669
Massachusetts,Norwood,02062,2681,https://www.homedepot.com/l/Norwood/MA/Norwood/02062/2681
Massachusetts,"Oxford,MA",01540,2624,https://www.homedepot.com/l/Oxford-MA/MA/Oxford/01540/2624
Massachusetts,Pittsfield,01201,2683,https://www.homedepot.com/l/Pittsfield/MA/Pittsfield/01201/2683
Massachusetts,"Plymouth,MA",02360,2680,https://www.homedepot.com/l/Plymouth-MA/MA/Plymouth/02360/2680
Massachusetts,Quincy,02169,2670,https://www.homedepot.com/l/Quincy/MA/Quincy/02169/2670
Massachusetts,Quincy II,02169,2608,https://www.homedepot.com/l/Quincy-II/MA/Quincy/02169/2608
Massachusetts,"Reading,MA",01867,2614,https://www.homedepot.com/l/Reading-MA/MA/Reading/01867/2614
Massachusetts,Rockland,02370,2650,https://www.homedepot.com/l/Rockland/MA/Rockland/02370/2650
Massachusetts,S Attleboro,02703,2659,https://www.homedepot.com/l/S-Attleboro/MA/South-Attleboro/02703/2659
Massachusetts,"Salem,MA",01970,2686,https://www.homedepot.com/l/Salem-MA/MA/Salem/01970/2686
Massachusetts,Saugus,01906,2653,https://www.homedepot.com/l/Saugus/MA/Saugus/01906/2653
Massachusetts,Seekonk,02771,2615,https://www.homedepot.com/l/Seekonk/MA/Seekonk/02771/2615
Massachusetts,Shrewsbury,01545,2672,https://www.homedepot.com/l/Shrewsbury/MA/Shrewsbury/01545/2672
Massachusetts,Somerset,02726,2605,https://www.homedepot.com/l/Somerset/MA/Somerset/02726/2605
Massachusetts,Somerville,02145,2667,https://www.homedepot.com/l/Somerville/MA/Somerville/02145/2667
Massachusetts,South Bay/Boston,02125,2679,https://www.homedepot.com/l/South-Bay-Boston/MA/Boston/02125/2679
Massachusetts,Taunton,02780,2677,https://www.homedepot.com/l/Taunton/MA/Taunton/02780/2677
Massachusetts,Tewksbury,01876,2668,https://www.homedepot.com/l/Tewksbury/MA/Tewksbury/01876/2668
Massachusetts,W Roxbury,02132,2665,https://www.homedepot.com/l/W-Roxbury/MA/West-Roxbury/02132/2665
Massachusetts,W Springfield,01089,2662,https://www.homedepot.com/l/W-Springfield/MA/West-Springfield/01089/2662
Massachusetts,Waltham,02451,2674,https://www.homedepot.com/l/Waltham/MA/Waltham/02451/2674
Massachusetts,Wareham,02538,2613,https://www.homedepot.com/l/Wareham/MA/East-Wareham/02538/2613
Massachusetts,Watertown,02472,2602,https://www.homedepot.com/l/Watertown/MA/Watertown/02472/2602
Massachusetts,Westfield,01085,8923,https://www.homedepot.com/l/Westfield/MA/Westfield/01085/8923
Massachusetts,"Worcester,MA",01606,2684,https://www.homedepot.com/l/Worcester-MA/MA/Worcester/01606/2684
Michigan,Allen Park,48101,6821,https://www.homedepot.com/l/Allen-Park/MI/Allen-Park/48101/6821
Michigan,Alpena,49707,2760,https://www.homedepot.com/l/Alpena/MI/Alpena/49707/2760
Michigan,Ann Arbor,48197,2721,https://www.homedepot.com/l/Ann-Arbor/MI/Ypsilanti/48197/2721
Michigan,Auburn Hills,48326,2764,https://www.homedepot.com/l/Auburn-Hills/MI/Auburn-Hills/48326/2764
Michigan,Bay City,48706,2739,https://www.homedepot.com/l/Bay-City/MI/Bay-City/48706/2739
Michigan,Bear Creek,49770,2755,https://www.homedepot.com/l/Bear-Creek/MI/Petoskey/49770/2755
Michigan,Benton Harbor,49022,2768,https://www.homedepot.com/l/Benton-Harbor/MI/Benton-Harbor/49022/2768
Michigan,Brighton,48116,2724,https://www.homedepot.com/l/Brighton/MI/Brighton/48116/2724
Michigan,Burton,48509,2717,https://www.homedepot.com/l/Burton/MI/Burton/48509/2717
Michigan,Cadillac,49601,2752,https://www.homedepot.com/l/Cadillac/MI/Cadillac/49601/2752
Michigan,Caledonia Twshp,48867,2772,https://www.homedepot.com/l/Caledonia-Twshp/MI/Owosso/48867/2772
Michigan,Canton,48187,2703,https://www.homedepot.com/l/Canton/MI/Canton/48187/2703
Michigan,Chesterfield,48051,2734,https://www.homedepot.com/l/Chesterfield/MI/Chesterfield/48051/2734
Michigan,Coldwater,49036,2766,https://www.homedepot.com/l/Coldwater/MI/Coldwater/49036/2766
Michigan,Commerce Township,48390,2722,https://www.homedepot.com/l/Commerce-Township/MI/Commerce-Township/48390/2722
Michigan,Dearborn,48126,2757,https://www.homedepot.com/l/Dearborn/MI/Dearborn/48126/2757
Michigan,Dearborn Heights,48125,2710,https://www.homedepot.com/l/Dearborn-Heights/MI/Dearborn-Heights/48125/2710
Michigan,Detroit 7 Mile/Meyers,48235,2781,https://www.homedepot.com/l/Detroit-7-Mile-Meyers/MI/Detroit/48235/2781
Michigan,E Lansing,48864,2723,https://www.homedepot.com/l/E-Lansing/MI/Okemos/48864/2723
Michigan,E Wyoming,49548,2761,https://www.homedepot.com/l/E-Wyoming/MI/Wyoming/49548/2761
Michigan,Farmington Hills,48334,2773,https://www.homedepot.com/l/Farmington-Hills/MI/Farmington-Hills/48334/2773
Michigan,Fenton,48430,2741,https://www.homedepot.com/l/Fenton/MI/Fenton/48430/2741
Michigan,Gaylord,49735,2759,https://www.homedepot.com/l/Gaylord/MI/Gaylord/49735/2759
Michigan,Grand Haven,49417,2780,https://www.homedepot.com/l/Grand-Haven/MI/Grand-Haven/49417/2780
Michigan,Harper Woods,48225,2718,https://www.homedepot.com/l/Harper-Woods/MI/Harper-Woods/48225/2718
Michigan,Houghton Lake,48629,2769,https://www.homedepot.com/l/Houghton-Lake/MI/Houghton-Lake/48629/2769
Michigan,"Howell,MI",48843,2751,https://www.homedepot.com/l/Howell-MI/MI/Howell/48843/2751
Michigan,Iron Mountain,49801,2775,https://www.homedepot.com/l/Iron-Mountain/MI/Iron-Mountain/49801/2775
Michigan,Jackson,49202,2770,https://www.homedepot.com/l/Jackson/MI/Jackson/49202/2770
Michigan,Kentwood,49512,2715,https://www.homedepot.com/l/Kentwood/MI/Grand-Rapids/49512/2715
Michigan,Lapeer,48446,2736,https://www.homedepot.com/l/Lapeer/MI/Lapeer/48446/2736
Michigan,Livonia,48150,2742,https://www.homedepot.com/l/Livonia/MI/Livonia/48150/2742
Michigan,Ludington,49431,2767,https://www.homedepot.com/l/Ludington/MI/Ludington/49431/2767
Michigan,Macomb Township,48044,2776,https://www.homedepot.com/l/Macomb-Township/MI/Macomb-Township/48044/2776
Michigan,Madison Heights,48071,2731,https://www.homedepot.com/l/Madison-Heights/MI/Madison-Heights/48071/2731
Michigan,"Midland,MI",48642,2747,https://www.homedepot.com/l/Midland-MI/MI/Midland/48642/2747
Michigan,Mt Pleasant,48858,2732,https://www.homedepot.com/l/Mt-Pleasant/MI/Mount-Pleasant/48858/2732
Michigan,Mundy Township,48507,2763,https://www.homedepot.com/l/Mundy-Township/MI/Flint/48507/2763
Michigan,North Flint,48433,2765,https://www.homedepot.com/l/North-Flint/MI/Flushing/48433/2765
Michigan,Northville,48167,2704,https://www.homedepot.com/l/Northville/MI/Northville/48167/2704
Michigan,Novi,48374,2737,https://www.homedepot.com/l/Novi/MI/Novi/48374/2737
Michigan,Orion Township,48360,2743,https://www.homedepot.com/l/Orion-Township/MI/Lake-Orion/48360/2743
Michigan,Plainwell,49080,2771,https://www.homedepot.com/l/Plainwell/MI/Plainwell/49080/2771
Michigan,"Plymouth,MI",48170,2762,https://www.homedepot.com/l/Plymouth-MI/MI/Plymouth/48170/2762
Michigan,Pontiac,48341,2701,https://www.homedepot.com/l/Pontiac/MI/Pontiac/48341/2701
Michigan,Port Huron (ft Gratiot),48059,2733,https://www.homedepot.com/l/Port-Huron-ft-Gratiot/MI/Fort-Gratiot/48059/2733
Michigan,Portage (kalamazoo),49002,2728,https://www.homedepot.com/l/Portage-kalamazoo/MI/Portage/49002/2728
Michigan,Rochester Hills,48307,2727,https://www.homedepot.com/l/Rochester-Hills/MI/Rochester-Hills/48307/2727
Michigan,Roosevelt Park,49441,2754,https://www.homedepot.com/l/Roosevelt-Park/MI/Muskegon/49441/2754
Michigan,"Roseville, MI",48066,2707,https://www.homedepot.com/l/Roseville-MI/MI/Roseville/48066/2707
Michigan,Saginaw,48604,2714,https://www.homedepot.com/l/Saginaw/MI/Saginaw/48604/2714
Michigan,Shelby Township,48316,2758,https://www.homedepot.com/l/Shelby-Township/MI/Shelby-Township/48316/2758
Michigan,South Canton,48188,2744,https://www.homedepot.com/l/South-Canton/MI/Canton/48188/2744
Michigan,Southfield,48076,2711,https://www.homedepot.com/l/Southfield/MI/Southfield/48076/2711
Michigan,Sterling Heights,48312,2740,https://www.homedepot.com/l/Sterling-Heights/MI/Sterling-Heights/48312/2740
Michigan,Taylor,48180,2709,https://www.homedepot.com/l/Taylor/MI/Taylor/48180/2709
Michigan,Taylor West,48180,2789,https://www.homedepot.com/l/Taylor-West/MI/Taylor/48180/2789
Michigan,Thomas Township,48609,2779,https://www.homedepot.com/l/Thomas-Township/MI/Saginaw/48609/2779
Michigan,Three Rivers,49093,2785,https://www.homedepot.com/l/Three-Rivers/MI/Three-Rivers/49093/2785
Michigan,Traverse City,49684,2726,https://www.homedepot.com/l/Traverse-City/MI/Traverse-City/49684/2726
Michigan,Troy,48084,2706,https://www.homedepot.com/l/Troy/MI/Troy/48084/2706
Michigan,Utica,48315,2708,https://www.homedepot.com/l/Utica/MI/Utica/48315/2708
Michigan,W Flint,48532,2716,https://www.homedepot.com/l/W-Flint/MI/Flint/48532/2716
Michigan,W Lansing,48917,2725,https://www.homedepot.com/l/W-Lansing/MI/Lansing/48917/2725
Michigan,W Wyoming,49418,2748,https://www.homedepot.com/l/W-Wyoming/MI/Grandville/49418/2748
Michigan,Walker,49544,2720,https://www.homedepot.com/l/Walker/MI/Walker/49544/2720
Michigan,Warren,48089,2702,https://www.homedepot.com/l/Warren/MI/Warren/48089/2702
Michigan,West Branch,48661,2782,https://www.homedepot.com/l/West-Branch/MI/West-Branch/48661/2782
Michigan,White Lake,48386,2729,https://www.homedepot.com/l/White-Lake/MI/White-Lake/48386/2729
Michigan,Woodhaven,48183,2738,https://www.homedepot.com/l/Woodhaven/MI/Woodhaven/48183/2738
Minnesota,Albert Lea,56007,2832,https://www.homedepot.com/l/Albert-Lea/MN/Albert-Lea/56007/2832
Minnesota,Apple Valley,55124,2833,https://www.homedepot.com/l/Apple-Valley/MN/Apple-Valley/55124/2833
Minnesota,Bemidji,56601,2830,https://www.homedepot.com/l/Bemidji/MN/Bemidji/56601/2830
Minnesota,Blaine,55449,2828,https://www.homedepot.com/l/Blaine/MN/Blaine/55449/2828
Minnesota,Bloomington,55420,2805,https://www.homedepot.com/l/Bloomington/MN/Bloomington/55420/2805
Minnesota,Brainerd/Baxter,56425,2818,https://www.homedepot.com/l/Brainerd-Baxter/MN/Baxter/56425/2818
Minnesota,Brooklyn Park,55428,2804,https://www.homedepot.com/l/Brooklyn-Park/MN/Brooklyn-Park/55428/2804
Minnesota,Burnsville,55337,2809,https://www.homedepot.com/l/Burnsville/MN/Burnsville/55337/2809
Minnesota,Chaska,55318,2825,https://www.homedepot.com/l/Chaska/MN/Chaska/55318/2825
Minnesota,Coon Rapids,55433,2803,https://www.homedepot.com/l/Coon-Rapids/MN/Coon-Rapids/55433/2803
Minnesota,"Duluth,MN",55811,2817,https://www.homedepot.com/l/Duluth-MN/MN/Duluth/55811/2817
Minnesota,Eagan,55121,2813,https://www.homedepot.com/l/Eagan/MN/Eagan/55121/2813
Minnesota,Eden Prairie,55344,2812,https://www.homedepot.com/l/Eden-Prairie/MN/Eden-Prairie/55344/2812
Minnesota,Elk River,55330,2821,https://www.homedepot.com/l/Elk-River/MN/Elk-River/55330/2821
Minnesota,Fergus Falls,56537,2831,https://www.homedepot.com/l/Fergus-Falls/MN/Fergus-Falls/56537/2831
Minnesota,Forest Lake,55025,2820,https://www.homedepot.com/l/Forest-Lake/MN/Forest-Lake/55025/2820
Minnesota,Fridley,55432,2802,https://www.homedepot.com/l/Fridley/MN/Fridley/55432/2802
Minnesota,"Grand Rapids,MN",55744,2834,https://www.homedepot.com/l/Grand-Rapids-MN/MN/Grand-Rapids/55744/2834
Minnesota,Inver Grove Heights,55077,2843,https://www.homedepot.com/l/Inver-Grove-Heights/MN/Inver-Grove-Heights/55077/2843
Minnesota,Mankato,56001,2829,https://www.homedepot.com/l/Mankato/MN/Mankato/56001/2829
Minnesota,Maple Grove,55369,2844,https://www.homedepot.com/l/Maple-Grove/MN/Maple-Grove/55369/2844
Minnesota,Maplewood,55109,2801,https://www.homedepot.com/l/Maplewood/MN/Maplewood/55109/2801
Minnesota,Minneapolis Ne,55413,2807,https://www.homedepot.com/l/Minneapolis-Ne/MN/Minneapolis/55413/2807
Minnesota,Monticello,55362,2840,https://www.homedepot.com/l/Monticello/MN/Monticello/55362/2840
Minnesota,Plymouth,55441,2808,https://www.homedepot.com/l/Plymouth/MN/Plymouth/55441/2808
Minnesota,"Richfield,MN",55423,2845,https://www.homedepot.com/l/Richfield-MN/MN/Richfield/55423/2845
Minnesota,"Rochester,MN",55901,2826,https://www.homedepot.com/l/Rochester-MN/MN/Rochester/55901/2826
Minnesota,Shakopee,55379,2841,https://www.homedepot.com/l/Shakopee/MN/Shakopee/55379/2841
Minnesota,St Cloud,56387,2811,https://www.homedepot.com/l/St-Cloud/MN/Waite-Park/56387/2811
Minnesota,St Louis Park,55416,2806,https://www.homedepot.com/l/St-Louis-Park/MN/Saint-Louis-Park/55416/2806
Minnesota,Sw Blaine,55434,2847,https://www.homedepot.com/l/Sw-Blaine/MN/Blaine/55434/2847
Minnesota,Willmar,56201,2842,https://www.homedepot.com/l/Willmar/MN/Willmar/56201/2842
Minnesota,Woodbury,55125,2810,https://www.homedepot.com/l/Woodbury/MN/Woodbury/55125/2810
Mississippi,Biloxi,39532,2910,https://www.homedepot.com/l/Biloxi/MS/Biloxi/39532/2910
Mississippi,"Brandon,MS",39042,2907,https://www.homedepot.com/l/Brandon-MS/MS/Brandon/39042/2907
Mississippi,Brookhaven,39601,2913,https://www.homedepot.com/l/Brookhaven/MS/Brookhaven/39601/2913
Mississippi,"Clinton,MS",39056,2917,https://www.homedepot.com/l/Clinton-MS/MS/Clinton/39056/2917
Mississippi,Gulfport,39503,2901,https://www.homedepot.com/l/Gulfport/MS/Gulfport/39503/2901
Mississippi,Hattiesburg,39402,2905,https://www.homedepot.com/l/Hattiesburg/MS/Hattiesburg/39402/2905
Mississippi,"Madison, MS",39110,2912,https://www.homedepot.com/l/Madison-MS/MS/Madison/39110/2912
Mississippi,Ne Jackson,39213,2902,https://www.homedepot.com/l/Ne-Jackson/MS/Jackson/39213/2902
Mississippi,Olive Branch,38654,8469,https://www.homedepot.com/l/Olive-Branch/MS/Olive-Branch/38654/8469
Mississippi,Oxford,38655,2914,https://www.homedepot.com/l/Oxford/MS/Oxford/38655/2914
Mississippi,Picayune,39466,2915,https://www.homedepot.com/l/Picayune/MS/Picayune/39466/2915
Mississippi,Southaven,38637,2903,https://www.homedepot.com/l/Southaven/MS/Horn-Lake/38637/2903
Mississippi,Tupelo,38866,2906,https://www.homedepot.com/l/Tupelo/MS/Saltillo/38866/2906
Mississippi,Vicksburg,39180,2909,https://www.homedepot.com/l/Vicksburg/MS/Vicksburg/39180/2909
Missouri,Arnold,63010,3014,https://www.homedepot.com/l/Arnold/MO/Arnold/63010/3014
Missouri,Bannister Mall,64137,3016,https://www.homedepot.com/l/Bannister-Mall/MO/Kansas-City/64137/3016
Missouri,Belton,64012,3029,https://www.homedepot.com/l/Belton/MO/Belton/64012/3029
Missouri,Blue Springs,64014,3024,https://www.homedepot.com/l/Blue-Springs/MO/Blue-Springs/64014/3024
Missouri,Branson,65616,3038,https://www.homedepot.com/l/Branson/MO/Branson/65616/3038
Missouri,Bridgeton,63044,3003,https://www.homedepot.com/l/Bridgeton/MO/Bridgeton/63044/3003
Missouri,"Chesterfield,MO",63005,8994,https://www.homedepot.com/l/Chesterfield-MO/MO/Chesterfield/63005/8994
Missouri,Columbia,65202,3001,https://www.homedepot.com/l/Columbia/MO/Columbia/65202/3001
Missouri,Cottleville,63304,3022,https://www.homedepot.com/l/Cottleville/MO/Saint-Peters/63304/3022
Missouri,Ellisville,63011,3018,https://www.homedepot.com/l/Ellisville/MO/Ellisville/63011/3018
Missouri,Ferguson,63136,3013,https://www.homedepot.com/l/Ferguson/MO/Saint-Louis/63136/3013
Missouri,Festus,63028,3032,https://www.homedepot.com/l/Festus/MO/Festus/63028/3032
Missouri,Florissant,63033,3034,https://www.homedepot.com/l/Florissant/MO/Florissant/63033/3034
Missouri,Gladstone,64118,3008,https://www.homedepot.com/l/Gladstone/MO/Gladstone/64118/3008
Missouri,Hanley Rd &amp; 40,63144,3002,https://www.homedepot.com/l/Hanley-Rd-40/MO/Brentwood/63144/3002
Missouri,Independence,64055,3006,https://www.homedepot.com/l/Independence/MO/Independence/64055/3006
Missouri,Joplin,64801,3042,https://www.homedepot.com/l/Joplin/MO/Joplin/64801/3042
Missouri,Kirksville,63501,3036,https://www.homedepot.com/l/Kirksville/MO/Kirksville/63501/3036
Missouri,Lees Summit,64081,3026,https://www.homedepot.com/l/Lees-Summit/MO/Lees-Summit/64081/3026
Missouri,Liberty,64157,3019,https://www.homedepot.com/l/Liberty/MO/Kansas-City/64157/3019
Missouri,Manchester Road,63011,3004,https://www.homedepot.com/l/Manchester-Road/MO/Ballwin/63011/3004
Missouri,Midtown Kansas City,64111,3021,https://www.homedepot.com/l/Midtown-Kansas-City/MO/Kansas-City/64111/3021
Missouri,N Kansas City,64154,8460,https://www.homedepot.com/l/N-Kansas-City/MO/Kansas-City/64154/8460
Missouri,Ofallon,63366,3015,https://www.homedepot.com/l/Ofallon/MO/O-Fallon/63366/3015
Missouri,Osage Beach,65065,3027,https://www.homedepot.com/l/Osage-Beach/MO/Osage-Beach/65065/3027
Missouri,Overland,63114,3037,https://www.homedepot.com/l/Overland/MO/Overland/63114/3037
Missouri,Poplar Bluff,63901,3033,https://www.homedepot.com/l/Poplar-Bluff/MO/Poplar-Bluff/63901/3033
Missouri,South County,63125,3010,https://www.homedepot.com/l/South-County/MO/Saint-Louis/63125/3010
Missouri,Southtown,63139,3011,https://www.homedepot.com/l/Southtown/MO/Saint-Louis/63139/3011
Missouri,"Springfield, MO",65804,3012,https://www.homedepot.com/l/Springfield-MO/MO/Springfield/65804/3012
Missouri,St Charles County,63303,3009,https://www.homedepot.com/l/St-Charles-County/MO/Saint-Charles/63303/3009
Missouri,St Joseph,64506,8984,https://www.homedepot.com/l/St-Joseph/MO/Saint-Joseph/64506/8984
Missouri,Sunset Hills,63127,3007,https://www.homedepot.com/l/Sunset-Hills/MO/Saint-Louis/63127/3007
Missouri,Wentzville,63385,3025,https://www.homedepot.com/l/Wentzville/MO/Wentzville/63385/3025
Montana,Billings,59102,3101,https://www.homedepot.com/l/Billings/MT/Billings/59102/3101
Montana,Bozeman,59718,3104,https://www.homedepot.com/l/Bozeman/MT/Bozeman/59718/3104
Montana,Great Falls,59404,3103,https://www.homedepot.com/l/Great-Falls/MT/Great-Falls/59404/3103
Montana,Helena,59602,3106,https://www.homedepot.com/l/Helena/MT/Helena/59602/3106
Montana,Kalispell,59901,3105,https://www.homedepot.com/l/Kalispell/MT/Kalispell/59901/3105
Montana,Missoula,59808,3102,https://www.homedepot.com/l/Missoula/MT/Missoula/59808/3102
Nebraska,Central Omaha,68134,3202,https://www.homedepot.com/l/Central-Omaha/NE/Omaha/68134/3202
Nebraska,Grand Island,68803,3208,https://www.homedepot.com/l/Grand-Island/NE/Grand-Island/68803/3208
Nebraska,N Lincoln,68521,3209,https://www.homedepot.com/l/N-Lincoln/NE/Lincoln/68521/3209
Nebraska,Nw Omaha,68116,3201,https://www.homedepot.com/l/Nw-Omaha/NE/Omaha/68116/3201
Nebraska,Papillion,68046,3206,https://www.homedepot.com/l/Papillion/NE/Papillion/68046/3206
Nebraska,Scottsbluff,69361,3210,https://www.homedepot.com/l/Scottsbluff/NE/Scottsbluff/69361/3210
Nebraska,South Lincoln,68516,3204,https://www.homedepot.com/l/South-Lincoln/NE/Lincoln/68516/3204
Nebraska,Sw Omaha,68137,3203,https://www.homedepot.com/l/Sw-Omaha/NE/Omaha/68137/3203
Nevada,Carson City,89705,3312,https://www.homedepot.com/l/Carson-City/NV/Carson-City/89705/3312
Nevada,Centennial Parkway,89149,3305,https://www.homedepot.com/l/Centennial-Parkway/NV/Las-Vegas/89149/3305
Nevada,E Las Vegas,89104,3303,https://www.homedepot.com/l/E-Las-Vegas/NV/Las-Vegas/89104/3303
Nevada,Elko,89801,3320,https://www.homedepot.com/l/Elko/NV/Elko/89801/3320
Nevada,Henderson,89014,3302,https://www.homedepot.com/l/Henderson/NV/Henderson/89014/3302
Nevada,N Carson City,89706,3309,https://www.homedepot.com/l/N-Carson-City/NV/Carson-City/89706/3309
Nevada,N Las Vegas,89032,3307,https://www.homedepot.com/l/N-Las-Vegas/NV/North-Las-Vegas/89032/3307
Nevada,N Reno,89512,3304,https://www.homedepot.com/l/N-Reno/NV/Reno/89512/3304
Nevada,Nv Aliante,89086,3324,https://www.homedepot.com/l/Nv-Aliante/NV/North-Las-Vegas/89086/3324
Nevada,Pahrump,89060,3322,https://www.homedepot.com/l/Pahrump/NV/Pahrump/89060/3322
Nevada,Pecos,89120,3316,https://www.homedepot.com/l/Pecos/NV/Las-Vegas/89120/3316
Nevada,Rainbow Rd,89145,3301,https://www.homedepot.com/l/Rainbow-Rd/NV/Las-Vegas/89145/3301
Nevada,Rainbow-Arroyo Crossing,89113,3308,https://www.homedepot.com/l/Rainbow-Arroyo-Crossing/NV/Las-Vegas/89113/3308
Nevada,Reno,89511,3310,https://www.homedepot.com/l/Reno/NV/Reno/89511/3310
Nevada,S Las Vegas,89123,3306,https://www.homedepot.com/l/S-Las-Vegas/NV/Las-Vegas/89123/3306
Nevada,S Reno,89521,8560,https://www.homedepot.com/l/S-Reno/NV/Reno/89521/8560
Nevada,Spanish Springs,89436,3313,https://www.homedepot.com/l/Spanish-Springs/NV/Sparks/89436/3313
Nevada,Summerlin,89117,3315,https://www.homedepot.com/l/Summerlin/NV/Las-Vegas/89117/3315
Nevada,Sw Las Vegas,89147,3314,https://www.homedepot.com/l/Sw-Las-Vegas/NV/Las-Vegas/89147/3314
Nevada,W Central Las Vegas,89103,3318,https://www.homedepot.com/l/W-Central-Las-Vegas/NV/Las-Vegas/89103/3318
Nevada,W Reno,89523,3311,https://www.homedepot.com/l/W-Reno/NV/Reno/89523/3311
New Hampshire,Claremont,03743,3408,https://www.homedepot.com/l/Claremont/NH/Claremont/03743/3408
New Hampshire,"Concord, NH",03301,3485,https://www.homedepot.com/l/Concord-NH/NH/Concord/03301/3485
New Hampshire,Hooksett,03106,3403,https://www.homedepot.com/l/Hooksett/NH/Hooksett/03106/3403
New Hampshire,Keene,03431,3488,https://www.homedepot.com/l/Keene/NH/Keene/03431/3488
New Hampshire,"Littleton, NH",03561,8539,https://www.homedepot.com/l/Littleton-NH/NH/Littleton/03561/8539
New Hampshire,Londonderry,03053,3401,https://www.homedepot.com/l/Londonderry/NH/Londonderry/03053/3401
New Hampshire,"Manchester, NH",03103,3482,https://www.homedepot.com/l/Manchester-NH/NH/Manchester/03103/3482
New Hampshire,Nashua,03060,3481,https://www.homedepot.com/l/Nashua/NH/Nashua/03060/3481
New Hampshire,Nashua Mall,03063,3484,https://www.homedepot.com/l/Nashua-Mall/NH/Nashua/03063/3484
New Hampshire,North Conway,03860,3407,https://www.homedepot.com/l/North-Conway/NH/North-Conway/03860/3407
New Hampshire,North Hampton,03862,3405,https://www.homedepot.com/l/North-Hampton/NH/North-Hampton/03862/3405
New Hampshire,Plaistow,03865,3487,https://www.homedepot.com/l/Plaistow/NH/Plaistow/03865/3487
New Hampshire,Portsmouth,03801,3409,https://www.homedepot.com/l/Portsmouth/NH/Portsmouth/03801/3409
New Hampshire,"Rochester,NH",03867,3489,https://www.homedepot.com/l/Rochester-NH/NH/Rochester/03867/3489
New Hampshire,"Salem, NH",03079,3480,https://www.homedepot.com/l/Salem-NH/NH/Salem/03079/3480
New Hampshire,Seabrook,03874,3404,https://www.homedepot.com/l/Seabrook/NH/Seabrook/03874/3404
New Hampshire,Somersworth,03878,8931,https://www.homedepot.com/l/Somersworth/NH/Somersworth/03878/8931
New Hampshire,South Merrimack,03054,3486,https://www.homedepot.com/l/South-Merrimack/NH/Merrimack/03054/3486
New Hampshire,Tilton,03276,3402,https://www.homedepot.com/l/Tilton/NH/Tilton/03276/3402
New Hampshire,W Lebanon,03784,3406,https://www.homedepot.com/l/W-Lebanon/NH/West-Lebanon/03784/3406
New Jersey,Absecon,08201,975,https://www.homedepot.com/l/Absecon/NJ/Absecon/08201/975
New Jersey,Berlin Township,08091,940,https://www.homedepot.com/l/Berlin-Township/NJ/West-Berlin/08091/940
New Jersey,Bloomfield,07003,928,https://www.homedepot.com/l/Bloomfield/NJ/Bloomfield/07003/928
New Jersey,Brick,08724,912,https://www.homedepot.com/l/Brick/NJ/Brick/08724/912
New Jersey,Bridgewater - Rt 28,08807,947,https://www.homedepot.com/l/Bridgewater-Rt-28/NJ/Bridgewater/08807/947
New Jersey,Bridgewater II - Rt 202,08807,962,https://www.homedepot.com/l/Bridgewater-II-Rt-202/NJ/Bridgewater/08807/962
New Jersey,Burlington,08060,939,https://www.homedepot.com/l/Burlington/NJ/Westampton/08060/939
New Jersey,Cape May,08210,943,https://www.homedepot.com/l/Cape-May/NJ/Cape-May-Court-House/08210/943
New Jersey,Cherry Hill,08002,989,https://www.homedepot.com/l/Cherry-Hill/NJ/Cherry-Hill/08002/989
New Jersey,Clifton,07012,908,https://www.homedepot.com/l/Clifton/NJ/Clifton/07012/908
New Jersey,Colonia,07067,981,https://www.homedepot.com/l/Colonia/NJ/Colonia/07067/981
New Jersey,Delran,08075,970,https://www.homedepot.com/l/Delran/NJ/Delran/08075/970
New Jersey,Deptford,08096,929,https://www.homedepot.com/l/Deptford/NJ/Deptford/08096/929
New Jersey,Dover,07801,925,https://www.homedepot.com/l/Dover/NJ/Dover/07801/925
New Jersey,E Hanover,07936,901,https://www.homedepot.com/l/E-Hanover/NJ/East-Hanover/07936/901
New Jersey,E Windsor,08520,982,https://www.homedepot.com/l/E-Windsor/NJ/East-Windsor/08520/982
New Jersey,Edison,08837,944,https://www.homedepot.com/l/Edison/NJ/Edison/08837/944
New Jersey,Egg Harbor,08234,930,https://www.homedepot.com/l/Egg-Harbor/NJ/Egg-Harbor-Township/08234/930
New Jersey,Ewing,08638,976,https://www.homedepot.com/l/Ewing/NJ/Ewing/08638/976
New Jersey,Forked River,08731,969,https://www.homedepot.com/l/Forked-River/NJ/Forked-River/08731/969
New Jersey,Freehold,07728,961,https://www.homedepot.com/l/Freehold/NJ/Freehold/07728/961
New Jersey,Hackensack,07601,983,https://www.homedepot.com/l/Hackensack/NJ/Hackensack/07601/983
New Jersey,Hackettstown,07840,953,https://www.homedepot.com/l/Hackettstown/NJ/Hackettstown/07840/953
New Jersey,Hamilton,08691,927,https://www.homedepot.com/l/Hamilton/NJ/Robbinsville/08691/927
New Jersey,Hazlet,07730,926,https://www.homedepot.com/l/Hazlet/NJ/Hazlet/07730/926
New Jersey,Howell,07731,933,https://www.homedepot.com/l/Howell/NJ/Howell/07731/933
New Jersey,Jersey City,07305,935,https://www.homedepot.com/l/Jersey-City/NJ/Jersey-City/07305/935
New Jersey,"Jersey City,NJ",07310,6845,https://www.homedepot.com/l/Jersey-City-NJ/NJ/Jersey-City/07310/6845
New Jersey,Lakewood,08701,902,https://www.homedepot.com/l/Lakewood/NJ/Lakewood/08701/902
New Jersey,Lawnside,08045,917,https://www.homedepot.com/l/Lawnside/NJ/Lawnside/08045/917
New Jersey,Linden,07036,934,https://www.homedepot.com/l/Linden/NJ/Linden/07036/934
New Jersey,Lodi,07644,932,https://www.homedepot.com/l/Lodi/NJ/Lodi/07644/932
New Jersey,Mahwah,07430,963,https://www.homedepot.com/l/Mahwah/NJ/Mahwah/07430/963
New Jersey,Manahawkin,08050,951,https://www.homedepot.com/l/Manahawkin/NJ/Stafford-Township/08050/951
New Jersey,Mantua,08051,974,https://www.homedepot.com/l/Mantua/NJ/Mantua/08051/974
New Jersey,Marlboro,07751,6911,https://www.homedepot.com/l/Marlboro/NJ/Morganville/07751/6911
New Jersey,Milltown,08850,918,https://www.homedepot.com/l/Milltown/NJ/Milltown/08850/918
New Jersey,Montville,07045,965,https://www.homedepot.com/l/Montville/NJ/Montville/07045/965
New Jersey,Mt Laurel,08054,914,https://www.homedepot.com/l/Mt-Laurel/NJ/Mount-Laurel/08054/914
New Jersey,Neptune,07753,949,https://www.homedepot.com/l/Neptune/NJ/Neptune/07753/949
New Jersey,"Newark,NJ",07103,980,https://www.homedepot.com/l/Newark-NJ/NJ/Newark/07103/980
New Jersey,Newton,07860,984,https://www.homedepot.com/l/Newton/NJ/Newton/07860/984
New Jersey,North Bergen,07047,8475,https://www.homedepot.com/l/North-Bergen/NJ/North-Bergen/07047/8475
New Jersey,Old Bridge II,08857,957,https://www.homedepot.com/l/Old-Bridge-II/NJ/Old-Bridge/08857/957
New Jersey,Paramus,07652,904,https://www.homedepot.com/l/Paramus/NJ/Paramus/07652/904
New Jersey,Parsippany,07054,977,https://www.homedepot.com/l/Parsippany/NJ/Parsippany/07054/977
New Jersey,Passaic,07055,950,https://www.homedepot.com/l/Passaic/NJ/Passaic/07055/950
New Jersey,Paterson,07514,959,https://www.homedepot.com/l/Paterson/NJ/Paterson/07514/959
New Jersey,Phillipsburg,08865,931,https://www.homedepot.com/l/Phillipsburg/NJ/Phillipsburg/08865/931
New Jersey,Raritan,08822,941,https://www.homedepot.com/l/Raritan/NJ/Flemington/08822/941
New Jersey,"Riverdale, NJ",07457,919,https://www.homedepot.com/l/Riverdale-NJ/NJ/Riverdale/07457/919
New Jersey,Roxbury,07876,909,https://www.homedepot.com/l/Roxbury/NJ/Succasunna/07876/909
New Jersey,S Brunswick,08852,6917,https://www.homedepot.com/l/S-Brunswick/NJ/Monmouth-Junction/08852/6917
New Jersey,S Plainfield,07080,903,https://www.homedepot.com/l/S-Plainfield/NJ/South-Plainfield/07080/903
New Jersey,Secaucus,07094,910,https://www.homedepot.com/l/Secaucus/NJ/Secaucus/07094/910
New Jersey,Toms River,08755,920,https://www.homedepot.com/l/Toms-River/NJ/Toms-River/08755/920
New Jersey,Totowa,07512,922,https://www.homedepot.com/l/Totowa/NJ/Totowa/07512/922
New Jersey,Union - Rt 22,07083,954,https://www.homedepot.com/l/Union-Rt-22/NJ/Union/07083/954
New Jersey,Union/Vauxhall,07088,915,https://www.homedepot.com/l/Union-Vauxhall/NJ/Vauxhall/07088/915
New Jersey,Vh-Elizabeth,07202,6905,https://www.homedepot.com/l/Vh-Elizabeth/NJ/Elizabeth/07202/6905
New Jersey,Vh-Garwood,07027,6903,https://www.homedepot.com/l/Vh-Garwood/NJ/Garwood/07027/6903
New Jersey,Vineland,08360,946,https://www.homedepot.com/l/Vineland/NJ/Vineland/08360/946
New Jersey,W Long Branch,07764,907,https://www.homedepot.com/l/W-Long-Branch/NJ/West-Long-Branch/07764/907
New Jersey,W Windsor,08540,921,https://www.homedepot.com/l/W-Windsor/NJ/Princeton/08540/921
New Jersey,Washington Twsp/Monroe,08081,942,https://www.homedepot.com/l/Washington-Twsp-Monroe/NJ/Sicklerville/08081/942
New Jersey,Watchung,07069,906,https://www.homedepot.com/l/Watchung/NJ/Watchung/07069/906
New Jersey,Woodbridge,07095,916,https://www.homedepot.com/l/Woodbridge/NJ/Woodbridge/07095/916
New Mexico,Alamogordo,88310,3516,https://www.homedepot.com/l/Alamogordo/NM/Alamogordo/88310/3516
New Mexico,Eubank,87123,3501,https://www.homedepot.com/l/Eubank/NM/Albuquerque/87123/3501
New Mexico,Farmington,87402,3508,https://www.homedepot.com/l/Farmington/NM/Farmington/87402/3508
New Mexico,Gallup,87301,3514,https://www.homedepot.com/l/Gallup/NM/Gallup/87301/3514
New Mexico,Hobbs,88240,3515,https://www.homedepot.com/l/Hobbs/NM/Hobbs/88240/3515
New Mexico,Las Cruces,88011,3505,https://www.homedepot.com/l/Las-Cruces/NM/Las-Cruces/88011/3505
New Mexico,Los Lunas,87031,3511,https://www.homedepot.com/l/Los-Lunas/NM/Los-Lunas/87031/3511
New Mexico,Montano,87107,3502,https://www.homedepot.com/l/Montano/NM/Albuquerque/87107/3502
New Mexico,Rio Rancho,87124,3517,https://www.homedepot.com/l/Rio-Rancho/NM/Rio-Rancho/87124/3517
New Mexico,"Roswell,NM",88201,3510,https://www.homedepot.com/l/Roswell-NM/NM/Roswell/88201/3510
New Mexico,"Santa Fe, NM",87507,3503,https://www.homedepot.com/l/Santa-Fe-NM/NM/Santa-Fe/87507/3503
New Mexico,Sw Albuquerque,87120,3507,https://www.homedepot.com/l/Sw-Albuquerque/NM/Albuquerque/87120/3507
New Mexico,W Albuquerque,87114,3504,https://www.homedepot.com/l/W-Albuquerque/NM/Albuquerque/87114/3504
New York,AlbaNY,12205,1241,https://www.homedepot.com/l/AlbaNY/NY/Albany/12205/1241
New York,"Albany,NY",12205,1262,https://www.homedepot.com/l/Albany-NY/NY/Albany/12205/1262
New York,Amherst,14228,1233,https://www.homedepot.com/l/Amherst/NY/Amherst/14228/1233
New York,Amsterdam,12010,1289,https://www.homedepot.com/l/Amsterdam/NY/Amsterdam/12010/1289
New York,Auburn,13021,6846,https://www.homedepot.com/l/Auburn/NY/Auburn/13021/6846
New York,Batavia,14020,6168,https://www.homedepot.com/l/Batavia/NY/Batavia/14020/6168
New York,Bayshore,11706,1211,https://www.homedepot.com/l/Bayshore/NY/Bay-Shore/11706/1211
New York,Bedford Stuyvesant,11205,6957,https://www.homedepot.com/l/Bedford-Stuyvesant/NY/Brooklyn/11205/6957
New York,Bellport,11713,8958,https://www.homedepot.com/l/Bellport/NY/Bellport/11713/8958
New York,Binghamton,13790,1252,https://www.homedepot.com/l/Binghamton/NY/Johnson-City/13790/1252
New York,Bronx,10469,1221,https://www.homedepot.com/l/Bronx/NY/Bronx/10469/1221
New York,Bronx Terminal,10451,6891,https://www.homedepot.com/l/Bronx-Terminal/NY/Bronx/10451/6891
New York,"Brooklyn, NY",11232,1225,https://www.homedepot.com/l/Brooklyn-NY/NY/Brooklyn/11232/1225
New York,Bruckner Blvd And Brush,10465,6877,https://www.homedepot.com/l/Bruckner-Blvd-And-Brush/NY/Bronx/10465/6877
New York,Bulova/Queens,11370,6844,https://www.homedepot.com/l/Bulova-Queens/NY/East-Elmhurst/11370/6844
New York,Camillus,13031,1257,https://www.homedepot.com/l/Camillus/NY/Camillus/13031/1257
New York,Catskill,12451,6176,https://www.homedepot.com/l/Catskill/NY/Leeds/12451/6176
New York,Central Islip,11722,6955,https://www.homedepot.com/l/Central-Islip/NY/Central-Islip/11722/6955
New York,Cheektowaga,14225,1228,https://www.homedepot.com/l/Cheektowaga/NY/Cheektowaga/14225/1228
New York,"Cicero, NY",13039,1235,https://www.homedepot.com/l/Cicero-NY/NY/Cicero/13039/1235
New York,Clarence,14221,1230,https://www.homedepot.com/l/Clarence/NY/Williamsville/14221/1230
New York,Clay,13090,6153,https://www.homedepot.com/l/Clay/NY/Liverpool/13090/6153
New York,Clifton Park,12065,1269,https://www.homedepot.com/l/Clifton-Park/NY/Halfmoon/12065/1269
New York,College Point,11354,1277,https://www.homedepot.com/l/College-Point/NY/Flushing/11354/1277
New York,Commack,11725,1202,https://www.homedepot.com/l/Commack/NY/Commack/11725/1202
New York,Copiague,11726,1218,https://www.homedepot.com/l/Copiague/NY/Copiague/11726/1218
New York,Coram,11727,1229,https://www.homedepot.com/l/Coram/NY/Coram/11727/1229
New York,Corning,14870,6159,https://www.homedepot.com/l/Corning/NY/Painted-Post/14870/6159
New York,Cortlandt/Mohegan,10547,1251,https://www.homedepot.com/l/Cortlandt-Mohegan/NY/Mohegan-Lake/10547/1251
New York,Cropsey,11214,1256,https://www.homedepot.com/l/Cropsey/NY/Brooklyn/11214/1256
New York,Deer Park,11729,1285,https://www.homedepot.com/l/Deer-Park/NY/Deer-Park/11729/1285
New York,Dewitt/E Syracuse,13057,1236,https://www.homedepot.com/l/Dewitt-E-Syracuse/NY/East-Syracuse/13057/1236
New York,Dunkirk,14048,6169,https://www.homedepot.com/l/Dunkirk/NY/Dunkirk/14048/6169
New York,Elmont,11003,1208,https://www.homedepot.com/l/Elmont/NY/Elmont/11003/1208
New York,Farmingdale,11735,1267,https://www.homedepot.com/l/Farmingdale/NY/Farmingdale/11735/1267
New York,Fishkill,12524,6178,https://www.homedepot.com/l/Fishkill/NY/Fishkill/12524/6178
New York,Flushing,11355,1214,https://www.homedepot.com/l/Flushing/NY/Flushing/11355/1214
New York,Freeport,11520,1206,https://www.homedepot.com/l/Freeport/NY/Freeport/11520/1206
New York,Gates,14624,1278,https://www.homedepot.com/l/Gates/NY/Rochester/14624/1278
New York,Glens Falls,12804,6160,https://www.homedepot.com/l/Glens-Falls/NY/Queensbury/12804/6160
New York,Greece,14615,1244,https://www.homedepot.com/l/Greece/NY/Greece/14615/1244
New York,Hamburg,14219,1286,https://www.homedepot.com/l/Hamburg/NY/Buffalo/14219/1286
New York,Harriman,10950,1284,https://www.homedepot.com/l/Harriman/NY/Monroe/10950/1284
New York,Hempstead,11550,1274,https://www.homedepot.com/l/Hempstead/NY/Hempstead/11550/1274
New York,Henrietta,14623,1246,https://www.homedepot.com/l/Henrietta/NY/Rochester/14623/1246
New York,"Huntington,NY",11743,1272,https://www.homedepot.com/l/Huntington-NY/NY/Huntington/11743/1272
New York,Irondequoit,14621,1273,https://www.homedepot.com/l/Irondequoit/NY/Rochester/14621/1273
New York,Ithaca,14850,6155,https://www.homedepot.com/l/Ithaca/NY/Ithaca/14850/6155
New York,Jamaica,11433,6928,https://www.homedepot.com/l/Jamaica/NY/Jamaica/11433/6928
New York,Jamestown,14701,6154,https://www.homedepot.com/l/Jamestown/NY/Jamestown/14701/6154
New York,Jericho,11753,1213,https://www.homedepot.com/l/Jericho/NY/Jericho/11753/1213
New York,Kingston/Ulster,12401,1227,https://www.homedepot.com/l/Kingston-Ulster/NY/Kingston/12401/1227
New York,Latham,12110,1259,https://www.homedepot.com/l/Latham/NY/Latham/12110/1259
New York,Levittown (relo #1201),11756,6105,https://www.homedepot.com/l/Levittown-relo-1201/NY/Levittown/11756/6105
New York,Lockport,14094,1268,https://www.homedepot.com/l/Lockport/NY/Lockport/14094/1268
New York,Long Island City,11101,1255,https://www.homedepot.com/l/Long-Island-City/NY/Long-Island-City/11101/1255
New York,Manhattan 59th Street,10022,6177,https://www.homedepot.com/l/Manhattan-59th-Street/NY/New-York/10022/6177
New York,Manhattan West 23rd St,10010,6175,https://www.homedepot.com/l/Manhattan-West-23rd-St/NY/New-York/10010/6175
New York,Massena,13662,8996,https://www.homedepot.com/l/Massena/NY/Massena/13662/8996
New York,Mill Basin,11234,6158,https://www.homedepot.com/l/Mill-Basin/NY/Brooklyn/11234/6158
New York,"Mt Pleasant,NY",10532,8456,https://www.homedepot.com/l/Mt-Pleasant-NY/NY/Hawthorne/10532/8456
New York,N Buffalo,14207,1234,https://www.homedepot.com/l/N-Buffalo/NY/Buffalo/14207/1234
New York,N Greenbush,12144,1263,https://www.homedepot.com/l/N-Greenbush/NY/Rensselaer/12144/1263
New York,Nanuet,10954,1261,https://www.homedepot.com/l/Nanuet/NY/Nanuet/10954/1261
New York,New Rochelle,10805,1245,https://www.homedepot.com/l/New-Rochelle/NY/New-Rochelle/10805/1245
New York,Newburgh,12550,1250,https://www.homedepot.com/l/Newburgh/NY/Newburgh/12550/1250
New York,Niagara Falls,14304,1287,https://www.homedepot.com/l/Niagara-Falls/NY/Niagara-Falls/14304/1287
New York,Olean,14760,6161,https://www.homedepot.com/l/Olean/NY/Olean/14760/6161
New York,Oneonta,13820,6173,https://www.homedepot.com/l/Oneonta/NY/Oneonta/13820/6173
New York,Ozone Park,11420,1215,https://www.homedepot.com/l/Ozone-Park/NY/South-Ozone-Park/11420/1215
New York,Patchogue West,11772,1258,https://www.homedepot.com/l/Patchogue-West/NY/Patchogue/11772/1258
New York,Penfield/Rochester,14625,1247,https://www.homedepot.com/l/Penfield-Rochester/NY/Rochester/14625/1247
New York,Port Chester,10573,1212,https://www.homedepot.com/l/Port-Chester/NY/Port-Chester/10573/1212
New York,Poughkeepsie,12601,1266,https://www.homedepot.com/l/Poughkeepsie/NY/Poughkeepsie/12601/1266
New York,Raceway,11590,8465,https://www.homedepot.com/l/Raceway/NY/Westbury/11590/8465
New York,Riverhead,11901,1222,https://www.homedepot.com/l/Riverhead/NY/Riverhead/11901/1222
New York,Saratoga Springs,12866,1223,https://www.homedepot.com/l/Saratoga-Springs/NY/Saratoga-Springs/12866/1223
New York,Schenectady,12304,1239,https://www.homedepot.com/l/Schenectady/NY/Schenectady/12304/1239
New York,Selden,11784,1209,https://www.homedepot.com/l/Selden/NY/Selden/11784/1209
New York,Seneca,14224,1231,https://www.homedepot.com/l/Seneca/NY/West-Seneca/14224/1231
New York,Shirley,11967,1282,https://www.homedepot.com/l/Shirley/NY/Shirley/11967/1282
New York,Smithtown,11725,6167,https://www.homedepot.com/l/Smithtown/NY/Commack/11725/6167
New York,South Setauket,11720,1265,https://www.homedepot.com/l/South-Setauket/NY/South-Setauket/11720/1265
New York,Southeast/Brewster,10509,1271,https://www.homedepot.com/l/Southeast-Brewster/NY/Brewster/10509/1271
New York,Springfield Gardens,11434,1238,https://www.homedepot.com/l/Springfield-Gardens/NY/Jamaica/11434/1238
New York,Starrett City,11239,6152,https://www.homedepot.com/l/Starrett-City/NY/Brooklyn/11239/6152
New York,Staten Island,10303,1249,https://www.homedepot.com/l/Staten-Island/NY/Staten-Island/10303/1249
New York,Staten Island East,10304,6150,https://www.homedepot.com/l/Staten-Island-East/NY/Staten-Island/10304/6150
New York,Staten Island South,10309,1281,https://www.homedepot.com/l/Staten-Island-South/NY/Staten-Island/10309/1281
New York,Syosset,11791,8466,https://www.homedepot.com/l/Syosset/NY/Syosset/11791/8466
New York,Thompson,12701,6172,https://www.homedepot.com/l/Thompson/NY/Monticello/12701/6172
New York,"Utica, NY",13413,1254,https://www.homedepot.com/l/Utica-NY/NY/New-Hartford/13413/1254
New York,Valley Stream,11581,1216,https://www.homedepot.com/l/Valley-Stream/NY/Valley-Stream/11581/1216
New York,Victor,14564,1264,https://www.homedepot.com/l/Victor/NY/Victor/14564/1264
New York,W Nyack,10994,1217,https://www.homedepot.com/l/W-Nyack/NY/West-Nyack/10994/1217
New York,Wallkill,10940,1242,https://www.homedepot.com/l/Wallkill/NY/Middletown/10940/1242
New York,Wappingers Falls,12590,1207,https://www.homedepot.com/l/Wappingers-Falls/NY/Wappingers-Falls/12590/1207
New York,"Watertown,NY",13601,6174,https://www.homedepot.com/l/Watertown-NY/NY/Watertown/13601/6174
New York,Woodhaven Blvd/Queens,11385,1220,https://www.homedepot.com/l/Woodhaven-Blvd-Queens/NY/Glendale/11385/1220
New York,Yonkers,10710,1248,https://www.homedepot.com/l/Yonkers/NY/Yonkers/10710/1248
North Carolina,Apex,27523,3644,https://www.homedepot.com/l/Apex/NC/Apex/27523/3644
North Carolina,Asheville,28803,3625,https://www.homedepot.com/l/Asheville/NC/Asheville/28803/3625
North Carolina,Battleground,27410,3605,https://www.homedepot.com/l/Battleground/NC/Greensboro/27410/3605
North Carolina,"Burlington,NC",27215,3627,https://www.homedepot.com/l/Burlington-NC/NC/Burlington/27215/3627
North Carolina,Cary,27518,3615,https://www.homedepot.com/l/Cary/NC/Cary/27518/3615
North Carolina,Cornelius,28031,3638,https://www.homedepot.com/l/Cornelius/NC/Cornelius/28031/3638
North Carolina,Durham,27707,3620,https://www.homedepot.com/l/Durham/NC/Durham/27707/3620
North Carolina,E Charlotte,28227,3639,https://www.homedepot.com/l/E-Charlotte/NC/Charlotte/28227/3639
North Carolina,E Greensboro,27406,3651,https://www.homedepot.com/l/E-Greensboro/NC/Greensboro/27406/3651
North Carolina,Fayetteville,28314,3626,https://www.homedepot.com/l/Fayetteville/NC/Fayetteville/28314/3626
North Carolina,Fuquay Varina,27526,3652,https://www.homedepot.com/l/Fuquay-Varina/NC/Fuquay-Varina/27526/3652
North Carolina,Garner,27529,3631,https://www.homedepot.com/l/Garner/NC/Garner/27529/3631
North Carolina,Gastonia,28056,3606,https://www.homedepot.com/l/Gastonia/NC/Gastonia/28056/3606
North Carolina,Greensboro,27407,3604,https://www.homedepot.com/l/Greensboro/NC/Greensboro/27407/3604
North Carolina,Hendersonville,28792,3637,https://www.homedepot.com/l/Hendersonville/NC/Hendersonville/28792/3637
North Carolina,Hickory,28602,3628,https://www.homedepot.com/l/Hickory/NC/Hickory/28602/3628
North Carolina,High Point,27262,3633,https://www.homedepot.com/l/High-Point/NC/High-Point/27262/3633
North Carolina,"Hillsborough,NC",27278,3661,https://www.homedepot.com/l/Hillsborough-NC/NC/Hillsborough/27278/3661
North Carolina,Jacksonville,28546,3655,https://www.homedepot.com/l/Jacksonville/NC/Jacksonville/28546/3655
North Carolina,Kannapolis,28083,3607,https://www.homedepot.com/l/Kannapolis/NC/Kannapolis/28083/3607
North Carolina,Kitty Hawk,27949,3650,https://www.homedepot.com/l/Kitty-Hawk/NC/Kitty-Hawk/27949/3650
North Carolina,Knightdale,27545,3663,https://www.homedepot.com/l/Knightdale/NC/Knightdale/27545/3663
North Carolina,Matthews,28105,3602,https://www.homedepot.com/l/Matthews/NC/Matthews/28105/3602
North Carolina,Myrtle Grove,28412,3609,https://www.homedepot.com/l/Myrtle-Grove/NC/Wilmington/28412/3609
North Carolina,North Durham,27705,3632,https://www.homedepot.com/l/North-Durham/NC/Durham/27705/3632
North Carolina,Nw Raleigh,27615,3634,https://www.homedepot.com/l/Nw-Raleigh/NC/Raleigh/27615/3634
North Carolina,Pineville,28134,3601,https://www.homedepot.com/l/Pineville/NC/Pineville/28134/3601
North Carolina,Raleigh,27616,3616,https://www.homedepot.com/l/Raleigh/NC/Raleigh/27616/3616
North Carolina,S Boulevard Charlotte,28217,3646,https://www.homedepot.com/l/S-Boulevard-Charlotte/NC/Charlotte/28217/3646
North Carolina,Shallotte,28470,3648,https://www.homedepot.com/l/Shallotte/NC/Shallotte/28470/3648
North Carolina,South Charlotte,28277,3640,https://www.homedepot.com/l/South-Charlotte/NC/Charlotte/28277/3640
North Carolina,Statesville,28625,3642,https://www.homedepot.com/l/Statesville/NC/Statesville/28625/3642
North Carolina,Steele Creek,28273,3662,https://www.homedepot.com/l/Steele-Creek/NC/Charlotte/28273/3662
North Carolina,University,28213,3603,https://www.homedepot.com/l/University/NC/Charlotte/28213/3603
North Carolina,W Asheville,28806,3645,https://www.homedepot.com/l/W-Asheville/NC/Asheville/28806/3645
North Carolina,Wake Forest,27587,3647,https://www.homedepot.com/l/Wake-Forest/NC/Wake-Forest/27587/3647
North Carolina,Wendover,28211,3608,https://www.homedepot.com/l/Wendover/NC/Charlotte/28211/3608
North Carolina,Wilmington,28403,3629,https://www.homedepot.com/l/Wilmington/NC/Wilmington/28403/3629
North Carolina,Winston Salem,27105,3641,https://www.homedepot.com/l/Winston-Salem/NC/Winston-Salem/27105/3641
North Carolina,Winston-Salem,27103,3610,https://www.homedepot.com/l/Winston-Salem/NC/Winston-Salem/27103/3610
North Dakota,Fargo,58103,3701,https://www.homedepot.com/l/Fargo/ND/Fargo/58103/3701
North Dakota,Minot,58701,3703,https://www.homedepot.com/l/Minot/ND/Minot/58701/3703
Ohio,"Ashland,OH",44805,3888,https://www.homedepot.com/l/Ashland-OH/OH/Ashland/44805/3888
Ohio,Ashtabula,44004,3838,https://www.homedepot.com/l/Ashtabula/OH/Ashtabula/44004/3838
Ohio,"Austintown, OH",44515,3886,https://www.homedepot.com/l/Austintown-OH/OH/Austintown/44515/3886
Ohio,"Avon,OH",44011,3835,https://www.homedepot.com/l/Avon-OH/OH/Avon/44011/3835
Ohio,"Bainbridge,OH",44202,6931,https://www.homedepot.com/l/Bainbridge-OH/OH/Aurora/44202/6931
Ohio,Beavercreek,45324,3855,https://www.homedepot.com/l/Beavercreek/OH/Fairborn/45324/3855
Ohio,Beechmont,45255,3812,https://www.homedepot.com/l/Beechmont/OH/Cincinnati/45255/3812
Ohio,Boardman,44512,3805,https://www.homedepot.com/l/Boardman/OH/Boardman/44512/3805
Ohio,"Bowling Green, OH",43402,3864,https://www.homedepot.com/l/Bowling-Green-OH/OH/Bowling-Green/43402/3864
Ohio,Brice Road,43068,3816,https://www.homedepot.com/l/Brice-Road/OH/Reynoldsburg/43068/3816
Ohio,Brooklyn,44130,3806,https://www.homedepot.com/l/Brooklyn/OH/Cleveland/44130/3806
Ohio,"Brunswick,OH",44212,3875,https://www.homedepot.com/l/Brunswick-OH/OH/Brunswick/44212/3875
Ohio,Canal Winchester,43110,3885,https://www.homedepot.com/l/Canal-Winchester/OH/Canal-Winchester/43110/3885
Ohio,"Canton, OH",44720,3810,https://www.homedepot.com/l/Canton-OH/OH/Canton/44720/3810
Ohio,"Centerville,OH",45459,3854,https://www.homedepot.com/l/Centerville-OH/OH/Centerville/45459/3854
Ohio,Chardon,44024,8981,https://www.homedepot.com/l/Chardon/OH/Chardon/44024/8981
Ohio,Cleveland Ave,43231,3811,https://www.homedepot.com/l/Cleveland-Ave/OH/Columbus/43231/3811
Ohio,Cleveland Heights,44118,3818,https://www.homedepot.com/l/Cleveland-Heights/OH/Cleveland-Heights/44118/3818
Ohio,Cross County (colerain),45251,3814,https://www.homedepot.com/l/Cross-County-colerain/OH/Cincinnati/45251/3814
Ohio,Cuyahoga Falls,44221,3809,https://www.homedepot.com/l/Cuyahoga-Falls/OH/Cuyahoga-Falls/44221/3809
Ohio,E Hamilton,45011,3861,https://www.homedepot.com/l/E-Hamilton/OH/Hamilton/45011/3861
Ohio,East Columbus,43230,3828,https://www.homedepot.com/l/East-Columbus/OH/Columbus/43230/3828
Ohio,Elyria,44035,3827,https://www.homedepot.com/l/Elyria/OH/Elyria/44035/3827
Ohio,Euclid,44119,3852,https://www.homedepot.com/l/Euclid/OH/Euclid/44119/3852
Ohio,Fairlawn,44333,3841,https://www.homedepot.com/l/Fairlawn/OH/Fairlawn/44333/3841
Ohio,"Fields-Ertel, OH",45040,3813,https://www.homedepot.com/l/Fields-Ertel-OH/OH/Mason/45040/3813
Ohio,"Forest Park, OH",45240,3821,https://www.homedepot.com/l/Forest-Park-OH/OH/Cincinnati/45240/3821
Ohio,Grove City,43123,6954,https://www.homedepot.com/l/Grove-City/OH/Grove-City/43123/6954
Ohio,Harrison,45030,3863,https://www.homedepot.com/l/Harrison/OH/Harrison/45030/3863
Ohio,Highland Heights,44143,3842,https://www.homedepot.com/l/Highland-Heights/OH/Highland-Heights/44143/3842
Ohio,Hilliard,43026,3872,https://www.homedepot.com/l/Hilliard/OH/Hilliard/43026/3872
Ohio,Lebanon,45036,3868,https://www.homedepot.com/l/Lebanon/OH/Lebanon/45036/3868
Ohio,Lorain,44053,6930,https://www.homedepot.com/l/Lorain/OH/Lorain/44053/6930
Ohio,Macedonia,44056,3824,https://www.homedepot.com/l/Macedonia/OH/Macedonia/44056/3824
Ohio,Maple Heights,44137,3804,https://www.homedepot.com/l/Maple-Heights/OH/Maple-Heights/44137/3804
Ohio,Marysville,43040,3889,https://www.homedepot.com/l/Marysville/OH/Marysville/43040/3889
Ohio,Massillon,44646,3860,https://www.homedepot.com/l/Massillon/OH/Massillon/44646/3860
Ohio,Medina,44256,3833,https://www.homedepot.com/l/Medina/OH/Medina/44256/3833
Ohio,Mentor,44060,3815,https://www.homedepot.com/l/Mentor/OH/Mentor/44060/3815
Ohio,Miamisburg,45449,3857,https://www.homedepot.com/l/Miamisburg/OH/Dayton/45449/3857
Ohio,Milford,45150,3844,https://www.homedepot.com/l/Milford/OH/Milford/45150/3844
Ohio,Ne Toledo,43612,3848,https://www.homedepot.com/l/Ne-Toledo/OH/Toledo/43612/3848
Ohio,Newark,43055,3887,https://www.homedepot.com/l/Newark/OH/Newark/43055/3887
Ohio,"Niles, OH",44484,3808,https://www.homedepot.com/l/Niles-OH/OH/Warren/44484/3808
Ohio,North Olmsted,44070,3803,https://www.homedepot.com/l/North-Olmsted/OH/North-Olmsted/44070/3803
Ohio,Ontario,44906,3846,https://www.homedepot.com/l/Ontario/OH/Mansfield/44906/3846
Ohio,Orange Township,43065,3836,https://www.homedepot.com/l/Orange-Township/OH/Powell/43065/3836
Ohio,Piqua,45356,3862,https://www.homedepot.com/l/Piqua/OH/Piqua/45356/3862
Ohio,Pleasant Ridge,45213,3832,https://www.homedepot.com/l/Pleasant-Ridge/OH/Cincinnati/45213/3832
Ohio,Rocky River,44116,3847,https://www.homedepot.com/l/Rocky-River/OH/Rocky-River/44116/3847
Ohio,Rossford,43460,3858,https://www.homedepot.com/l/Rossford/OH/Rossford/43460/3858
Ohio,S Akron,44312,3830,https://www.homedepot.com/l/S-Akron/OH/Akron/44312/3830
Ohio,Salem,44460,3877,https://www.homedepot.com/l/Salem/OH/Salem/44460/3877
Ohio,Sandusky,44870,3866,https://www.homedepot.com/l/Sandusky/OH/Sandusky/44870/3866
Ohio,Sawmill,43017,3831,https://www.homedepot.com/l/Sawmill/OH/Dublin/43017/3831
Ohio,"Springfield,OH",45504,3867,https://www.homedepot.com/l/Springfield-OH/OH/Springfield/45504/3867
Ohio,Steelyard,44109,6857,https://www.homedepot.com/l/Steelyard/OH/Cleveland/44109/6857
Ohio,Streetsboro,44241,3859,https://www.homedepot.com/l/Streetsboro/OH/Streetsboro/44241/3859
Ohio,Strongsville,44136,3817,https://www.homedepot.com/l/Strongsville/OH/Strongsville/44136/3817
Ohio,Trotwood,45426,3856,https://www.homedepot.com/l/Trotwood/OH/Dayton/45426/3856
Ohio,W Toledo,43615,3801,https://www.homedepot.com/l/W-Toledo/OH/Toledo/43615/3801
Ohio,Wadsworth,44281,3882,https://www.homedepot.com/l/Wadsworth/OH/Wadsworth/44281/3882
Ohio,"Washington Courthouse,OH",43160,3843,https://www.homedepot.com/l/Washington-Courthouse-OH/OH/Washington-Court-House/43160/3843
Ohio,West Broad,43228,3819,https://www.homedepot.com/l/West-Broad/OH/Columbus/43228/3819
Ohio,West Chester,45069,3823,https://www.homedepot.com/l/West-Chester/OH/West-Chester/45069/3823
Ohio,West Cleveland,44111,3820,https://www.homedepot.com/l/West-Cleveland/OH/Cleveland/44111/3820
Ohio,Western Hills,45211,3822,https://www.homedepot.com/l/Western-Hills/OH/Cincinnati/45211/3822
Ohio,Westerville,43082,3825,https://www.homedepot.com/l/Westerville/OH/Westerville/43082/3825
Ohio,Westgate,43606,3807,https://www.homedepot.com/l/Westgate/OH/Toledo/43606/3807
Ohio,Zanesville,43701,3883,https://www.homedepot.com/l/Zanesville/OH/Zanesville/43701/3883
Oklahoma,Ada,74820,3918,https://www.homedepot.com/l/Ada/OK/Ada/74820/3918
Oklahoma,Edmond,73013,3907,https://www.homedepot.com/l/Edmond/OK/Edmond/73013/3907
Oklahoma,Lawton,73505,3914,https://www.homedepot.com/l/Lawton/OK/Lawton/73505/3914
Oklahoma,Midwest City,73110,3911,https://www.homedepot.com/l/Midwest-City/OK/Midwest-City/73110/3911
Oklahoma,Moore,73160,3917,https://www.homedepot.com/l/Moore/OK/Moore/73160/3917
Oklahoma,N Oklahoma City,73112,3902,https://www.homedepot.com/l/N-Oklahoma-City/OK/Oklahoma-City/73112/3902
Oklahoma,N Tulsa,74120,3904,https://www.homedepot.com/l/N-Tulsa/OK/Tulsa/74120/3904
Oklahoma,Norman,73072,3906,https://www.homedepot.com/l/Norman/OK/Norman/73072/3906
Oklahoma,Nw Oklahoma City,73132,3909,https://www.homedepot.com/l/Nw-Oklahoma-City/OK/Oklahoma-City/73132/3909
Oklahoma,Owasso,74055,8922,https://www.homedepot.com/l/Owasso/OK/Owasso/74055/8922
Oklahoma,Quail Springs,73134,3919,https://www.homedepot.com/l/Quail-Springs/OK/Oklahoma-City/73134/3919
Oklahoma,S Oklahoma City,73149,3901,https://www.homedepot.com/l/S-Oklahoma-City/OK/Oklahoma-City/73149/3901
Oklahoma,S Tulsa,74133,3903,https://www.homedepot.com/l/S-Tulsa/OK/Tulsa/74133/3903
Oklahoma,Sw Tulsa,74137,3915,https://www.homedepot.com/l/Sw-Tulsa/OK/Tulsa/74137/3915
Oklahoma,Tulsa Central,74145,3913,https://www.homedepot.com/l/Tulsa-Central/OK/Tulsa/74145/3913
Oklahoma,W Oklahoma City,73127,3908,https://www.homedepot.com/l/W-Oklahoma-City/OK/Oklahoma-City/73127/3908
Oregon,"Albany,OR",97322,4009,https://www.homedepot.com/l/Albany-OR/OR/Albany/97322/4009
Oregon,Beaverton,97229,4001,https://www.homedepot.com/l/Beaverton/OR/Portland/97229/4001
Oregon,Bend,97703,4008,https://www.homedepot.com/l/Bend/OR/Bend/97703/4008
Oregon,Clackamas,97086,4040,https://www.homedepot.com/l/Clackamas/OR/Happy-Valley/97086/4040
Oregon,Corvallis,97330,4029,https://www.homedepot.com/l/Corvallis/OR/Corvallis/97330/4029
Oregon,E Portland Mall,97216,4013,https://www.homedepot.com/l/E-Portland-Mall/OR/Portland/97216/4013
Oregon,Eugene,97408,4003,https://www.homedepot.com/l/Eugene/OR/Eugene/97408/4003
Oregon,Grants Pass,97526,4034,https://www.homedepot.com/l/Grants-Pass/OR/Grants-Pass/97526/4034
Oregon,Hermiston,97838,4031,https://www.homedepot.com/l/Hermiston/OR/Hermiston/97838/4031
Oregon,Hillsboro,97123,4010,https://www.homedepot.com/l/Hillsboro/OR/Hillsboro/97123/4010
Oregon,Jantzen Beach,97217,4007,https://www.homedepot.com/l/Jantzen-Beach/OR/Portland/97217/4007
Oregon,Klamath Falls,97603,4019,https://www.homedepot.com/l/Klamath-Falls/OR/Klamath-Falls/97603/4019
Oregon,N Redmond,97756,4032,https://www.homedepot.com/l/N-Redmond/OR/Redmond/97756/4032
Oregon,Ne Portland,97220,4004,https://www.homedepot.com/l/Ne-Portland/OR/Portland/97220/4004
Oregon,North Salem,97301,4030,https://www.homedepot.com/l/North-Salem/OR/Salem/97301/4030
Oregon,"Ontario,OR",97914,4025,https://www.homedepot.com/l/Ontario-OR/OR/Ontario/97914/4025
Oregon,Oregon City,97045,4017,https://www.homedepot.com/l/Oregon-City/OR/Oregon-City/97045/4017
Oregon,Phoenix,97535,8557,https://www.homedepot.com/l/Phoenix/OR/Phoenix/97535/8557
Oregon,Roseburg,97470,4020,https://www.homedepot.com/l/Roseburg/OR/Roseburg/97470/4020
Oregon,S Beaverton,97005,4018,https://www.homedepot.com/l/S-Beaverton/OR/Beaverton/97005/4018
Oregon,"Salem, OR",97317,4006,https://www.homedepot.com/l/Salem-OR/OR/Salem/97317/4006
Oregon,Sherwood,97140,4015,https://www.homedepot.com/l/Sherwood/OR/Sherwood/97140/4015
Oregon,The Dalles,97058,4026,https://www.homedepot.com/l/The-Dalles/OR/The-Dalles/97058/4026
Oregon,Tigard,97224,4002,https://www.homedepot.com/l/Tigard/OR/Tigard/97224/4002
Oregon,Troutdale,97060,4014,https://www.homedepot.com/l/Troutdale/OR/Troutdale/97060/4014
Oregon,W Eugene,97402,4028,https://www.homedepot.com/l/W-Eugene/OR/Eugene/97402/4028
Oregon,"Warrenton,OR",97146,4023,https://www.homedepot.com/l/Warrenton-OR/OR/Warrenton/97146/4023
Pennsylvania,Allentown South,18103,4140,https://www.homedepot.com/l/Allentown-South/PA/Allentown/18103/4140
Pennsylvania,Allison Park,15101,4152,https://www.homedepot.com/l/Allison-Park/PA/Allison-Park/15101/4152
Pennsylvania,Altoona,16602,4180,https://www.homedepot.com/l/Altoona/PA/Altoona/16602/4180
Pennsylvania,Bensalem,19020,4103,https://www.homedepot.com/l/Bensalem/PA/Bensalem/19020/4103
Pennsylvania,Bethel Park,15102,4176,https://www.homedepot.com/l/Bethel-Park/PA/Bethel-Park/15102/4176
Pennsylvania,Bethlehem,18020,4105,https://www.homedepot.com/l/Bethlehem/PA/Bethlehem/18020/4105
Pennsylvania,Bloomsburg,17815,4171,https://www.homedepot.com/l/Bloomsburg/PA/Bloomsburg/17815/4171
Pennsylvania,Bustleton Ave,19116,6866,https://www.homedepot.com/l/Bustleton-Ave/PA/Philadelphia/19116/6866
Pennsylvania,Butler,16001,4139,https://www.homedepot.com/l/Butler/PA/Butler/16001/4139
Pennsylvania,Carlisle,17013,4149,https://www.homedepot.com/l/Carlisle/PA/Carlisle/17013/4149
Pennsylvania,Cheltenham,19095,4109,https://www.homedepot.com/l/Cheltenham/PA/Wyncote/19095/4109
Pennsylvania,Chippewa,15010,4148,https://www.homedepot.com/l/Chippewa/PA/Beaver-Falls/15010/4148
Pennsylvania,Collier,15017,4160,https://www.homedepot.com/l/Collier/PA/Bridgeville/15017/4160
Pennsylvania,Concord Township,19342,4121,https://www.homedepot.com/l/Concord-Township/PA/Glen-Mills/19342/4121
Pennsylvania,Cranberry,16066,4135,https://www.homedepot.com/l/Cranberry/PA/Cranberry-Township/16066/4135
Pennsylvania,Dickson City,18519,4118,https://www.homedepot.com/l/Dickson-City/PA/Dickson-City/18519/4118
Pennsylvania,Downingtown,19335,4137,https://www.homedepot.com/l/Downingtown/PA/Downingtown/19335/4137
Pennsylvania,"E Whiteland/Frazer, PA",19355,4119,https://www.homedepot.com/l/E-Whiteland-Frazer-PA/PA/Frazer/19355/4119
Pennsylvania,East Liberty,15206,4136,https://www.homedepot.com/l/East-Liberty/PA/Pittsburgh/15206/4136
Pennsylvania,East Reading,19606,4164,https://www.homedepot.com/l/East-Reading/PA/Reading/19606/4164
Pennsylvania,Easton,18045,4173,https://www.homedepot.com/l/Easton/PA/Easton/18045/4173
Pennsylvania,Erie,16509,4124,https://www.homedepot.com/l/Erie/PA/Erie/16509/4124
Pennsylvania,Greensburg,15601,4126,https://www.homedepot.com/l/Greensburg/PA/Greensburg/15601/4126
Pennsylvania,Hanover,17331,4168,https://www.homedepot.com/l/Hanover/PA/Hanover/17331/4168
Pennsylvania,Harrisburg,17111,4113,https://www.homedepot.com/l/Harrisburg/PA/Swatara/17111/4113
Pennsylvania,"Hermitage,PA",16148,4130,https://www.homedepot.com/l/Hermitage-PA/PA/Hermitage/16148/4130
Pennsylvania,Hilltown,18964,4158,https://www.homedepot.com/l/Hilltown/PA/Souderton/18964/4158
Pennsylvania,Honesdale,18431,6956,https://www.homedepot.com/l/Honesdale/PA/Honesdale/18431/6956
Pennsylvania,Johnstown,15904,4128,https://www.homedepot.com/l/Johnstown/PA/Johnstown/15904/4128
Pennsylvania,King Of Prussia,19406,4188,https://www.homedepot.com/l/King-Of-Prussia/PA/King-Of-Prussia/19406/4188
Pennsylvania,"Lancaster, PA",17601,4131,https://www.homedepot.com/l/Lancaster-PA/PA/Lancaster/17601/4131
Pennsylvania,"Lebanon,PA",17042,4141,https://www.homedepot.com/l/Lebanon-PA/PA/Lebanon/17042/4141
Pennsylvania,Lower Paxton,17112,4138,https://www.homedepot.com/l/Lower-Paxton/PA/Harrisburg/17112/4138
Pennsylvania,Lower Pottsgrove,19464,4132,https://www.homedepot.com/l/Lower-Pottsgrove/PA/Pottstown/19464/4132
Pennsylvania,Marple,19008,4181,https://www.homedepot.com/l/Marple/PA/Broomall/19008/4181
Pennsylvania,Matamoras,18336,4162,https://www.homedepot.com/l/Matamoras/PA/Matamoras/18336/4162
Pennsylvania,Meadville,16335,4169,https://www.homedepot.com/l/Meadville/PA/Meadville/16335/4169
Pennsylvania,Mechanicsburg,17050,4120,https://www.homedepot.com/l/Mechanicsburg/PA/Mechanicsburg/17050/4120
Pennsylvania,Montgomeryville,19446,4104,https://www.homedepot.com/l/Montgomeryville/PA/Lansdale/19446/4104
Pennsylvania,N Fayette,15275,4117,https://www.homedepot.com/l/N-Fayette/PA/Pittsburgh/15275/4117
Pennsylvania,Neshaminy,19020,4134,https://www.homedepot.com/l/Neshaminy/PA/Bensalem/19020/4134
Pennsylvania,New Freedom,17349,4177,https://www.homedepot.com/l/New-Freedom/PA/New-Freedom/17349/4177
Pennsylvania,North Versailles,15137,4156,https://www.homedepot.com/l/North-Versailles/PA/North-Versailles/15137/4156
Pennsylvania,Ohio Township,15237,4123,https://www.homedepot.com/l/Ohio-Township/PA/Pittsburgh/15237/4123
Pennsylvania,Oil City,16323,4178,https://www.homedepot.com/l/Oil-City/PA/Franklin/16323/4178
Pennsylvania,Oxford Valley,19030,4102,https://www.homedepot.com/l/Oxford-Valley/PA/Fairless-Hills/19030/4102
Pennsylvania,Patton Twp,16803,6841,https://www.homedepot.com/l/Patton-Twp/PA/State-College/16803/6841
Pennsylvania,Phil/Oregon Ave,19145,4166,https://www.homedepot.com/l/Phil-Oregon-Ave/PA/Philadelphia/19145/4166
Pennsylvania,Plymouth Township,19428,4106,https://www.homedepot.com/l/Plymouth-Township/PA/Conshohocken/19428/4106
Pennsylvania,Port Richmond,19134,4150,https://www.homedepot.com/l/Port-Richmond/PA/Philadelphia/19134/4150
Pennsylvania,Reading,19610,4110,https://www.homedepot.com/l/Reading/PA/Wyomissing/19610/4110
Pennsylvania,Ridley Township,19033,4142,https://www.homedepot.com/l/Ridley-Township/PA/Folsom/19033/4142
Pennsylvania,Roosevelt,19124,4112,https://www.homedepot.com/l/Roosevelt/PA/Philadelphia/19124/4112
Pennsylvania,Ross Township,15237,4159,https://www.homedepot.com/l/Ross-Township/PA/Pittsburgh/15237/4159
Pennsylvania,S Philadelphia,19148,4101,https://www.homedepot.com/l/S-Philadelphia/PA/Philadelphia/19148/4101
Pennsylvania,S Strabane/Washington,15301,4129,https://www.homedepot.com/l/S-Strabane-Washington/PA/Washington/15301/4129
Pennsylvania,Saint Clair,17970,4185,https://www.homedepot.com/l/Saint-Clair/PA/Saint-Clair/17970/4185
Pennsylvania,Stroudsburg,18360,4127,https://www.homedepot.com/l/Stroudsburg/PA/Stroudsburg/18360/4127
Pennsylvania,Tullytown,19055,4163,https://www.homedepot.com/l/Tullytown/PA/Levittown/19055/4163
Pennsylvania,Uniontown,15401,4172,https://www.homedepot.com/l/Uniontown/PA/Uniontown/15401/4172
Pennsylvania,Upper Darby,19018,4114,https://www.homedepot.com/l/Upper-Darby/PA/Primos-Secane/19018/4114
Pennsylvania,Warrington,18976,4143,https://www.homedepot.com/l/Warrington/PA/Warrington/18976/4143
Pennsylvania,West Mifflin,15122,4115,https://www.homedepot.com/l/West-Mifflin/PA/West-Mifflin/15122/4115
Pennsylvania,West Norriton,19403,4145,https://www.homedepot.com/l/West-Norriton/PA/Norristown/19403/4145
Pennsylvania,West Sadsbury,19365,8955,https://www.homedepot.com/l/West-Sadsbury/PA/Parkesburg/19365/8955
Pennsylvania,Whitehall,18052,4108,https://www.homedepot.com/l/Whitehall/PA/Whitehall/18052/4108
Pennsylvania,Wilkes-Barre,18702,4122,https://www.homedepot.com/l/Wilkes-Barre/PA/Wilkes-Barre/18702/4122
Pennsylvania,Wilkins,15235,4116,https://www.homedepot.com/l/Wilkins/PA/Pittsburgh/15235/4116
Pennsylvania,Willow Grove,19090,4187,https://www.homedepot.com/l/Willow-Grove/PA/Willow-Grove/19090/4187
Pennsylvania,York,17402,4125,https://www.homedepot.com/l/York/PA/York/17402/4125
Rhode Island,Coventry,02816,4279,https://www.homedepot.com/l/Coventry/RI/Coventry/02816/4279
Rhode Island,Johnston,02919,4286,https://www.homedepot.com/l/Johnston/RI/Johnston/02919/4286
Rhode Island,Middletown,02842,4287,https://www.homedepot.com/l/Middletown/RI/Middletown/02842/4287
Rhode Island,N Kingstown,02852,4283,https://www.homedepot.com/l/N-Kingstown/RI/North-Kingstown/02852/4283
Rhode Island,Providence,02904,4285,https://www.homedepot.com/l/Providence/RI/Providence/02904/4285
Rhode Island,Smithfield,02917,4282,https://www.homedepot.com/l/Smithfield/RI/Smithfield/02917/4282
Rhode Island,Warwick,02886,4280,https://www.homedepot.com/l/Warwick/RI/Warwick/02886/4280
Rhode Island,Westerly,02891,4284,https://www.homedepot.com/l/Westerly/RI/Westerly/02891/4284
South Carolina,Aiken,29803,1117,https://www.homedepot.com/l/Aiken/SC/Aiken/29803/1117
South Carolina,Anderson,29621,1105,https://www.homedepot.com/l/Anderson/SC/Anderson/29621/1105
South Carolina,Charleston,29406,1103,https://www.homedepot.com/l/Charleston/SC/Charleston/29406/1103
South Carolina,E Columbia,29223,1110,https://www.homedepot.com/l/E-Columbia/SC/Columbia/29223/1110
South Carolina,E Spartanburg,29307,1108,https://www.homedepot.com/l/E-Spartanburg/SC/Spartanburg/29307/1108
South Carolina,Easley,29640,6918,https://www.homedepot.com/l/Easley/SC/Easley/29640/6918
South Carolina,East Charleston,29414,1118,https://www.homedepot.com/l/East-Charleston/SC/Charleston/29414/1118
South Carolina,"Florence,SC",29501,8580,https://www.homedepot.com/l/Florence-SC/SC/Florence/29501/8580
South Carolina,Greenville,29607,1119,https://www.homedepot.com/l/Greenville/SC/Greenville/29607/1119
South Carolina,Greer,29650,1126,https://www.homedepot.com/l/Greer/SC/Greer/29650/1126
South Carolina,Hilton Head,29910,1115,https://www.homedepot.com/l/Hilton-Head/SC/Bluffton/29910/1115
South Carolina,"Lancaster,SC",29720,8913,https://www.homedepot.com/l/Lancaster-SC/SC/Lancaster/29720/8913
South Carolina,"Lexington,SC",29072,1106,https://www.homedepot.com/l/Lexington-SC/SC/Lexington/29072/1106
South Carolina,Mt. Pleasant,29466,1171,https://www.homedepot.com/l/Mt-Pleasant/SC/Mount-Pleasant/29466/1171
South Carolina,Murrells Inlet,29576,1122,https://www.homedepot.com/l/Murrells-Inlet/SC/Murrells-Inlet/29576/1122
South Carolina,Myrtle Beach,29577,1116,https://www.homedepot.com/l/Myrtle-Beach/SC/Myrtle-Beach/29577/1116
South Carolina,N Myrtle Beach,29582,1121,https://www.homedepot.com/l/N-Myrtle-Beach/SC/North-Myrtle-Beach/29582/1121
South Carolina,Pleasantburg,29609,1104,https://www.homedepot.com/l/Pleasantburg/SC/Greenville/29609/1104
South Carolina,Rockhill,29730,1114,https://www.homedepot.com/l/Rockhill/SC/Rock-Hill/29730/1114
South Carolina,Sandhills,29229,1109,https://www.homedepot.com/l/Sandhills/SC/Columbia/29229/1109
South Carolina,"Seneca,SC",29678,1130,https://www.homedepot.com/l/Seneca-SC/SC/Seneca/29678/1130
South Carolina,Simpsonville,29680,1124,https://www.homedepot.com/l/Simpsonville/SC/Simpsonville/29680/1124
South Carolina,Spartanburg,29301,1129,https://www.homedepot.com/l/Spartanburg/SC/Spartanburg/29301/1129
South Carolina,Summerville,29483,1120,https://www.homedepot.com/l/Summerville/SC/Summerville/29483/1120
South Carolina,Sw Greenville,29605,1127,https://www.homedepot.com/l/Sw-Greenville/SC/Greenville/29605/1127
South Carolina,W Columbia,29212,1112,https://www.homedepot.com/l/W-Columbia/SC/Columbia/29212/1112
South Dakota,Sioux Falls,57106,4301,https://www.homedepot.com/l/Sioux-Falls/SD/Sioux-Falls/57106/4301
Tennessee,Antioch,37013,721,https://www.homedepot.com/l/Antioch/TN/Antioch/37013/721
Tennessee,Bartlett/Stage Rd,38128,737,https://www.homedepot.com/l/Bartlett-Stage-Rd/TN/Memphis/38128/737
Tennessee,Bellevue,37221,722,https://www.homedepot.com/l/Bellevue/TN/Nashville/37221/722
Tennessee,Brentwood,37027,723,https://www.homedepot.com/l/Brentwood/TN/Brentwood/37027/723
Tennessee,Centerline,37917,731,https://www.homedepot.com/l/Centerline/TN/Knoxville/37917/731
Tennessee,Chattanooga,37421,742,https://www.homedepot.com/l/Chattanooga/TN/Chattanooga/37421/742
Tennessee,"Clarksville, TN",37040,726,https://www.homedepot.com/l/Clarksville-TN/TN/Clarksville/37040/726
Tennessee,Cleveland,37312,743,https://www.homedepot.com/l/Cleveland/TN/Cleveland/37312/743
Tennessee,Collierville,38017,729,https://www.homedepot.com/l/Collierville/TN/Collierville/38017/729
Tennessee,Cordova,38133,704,https://www.homedepot.com/l/Cordova/TN/Memphis/38133/704
Tennessee,"Covington,TN",38019,779,https://www.homedepot.com/l/Covington-TN/TN/Covington/38019/779
Tennessee,"Franklin,TN",37064,734,https://www.homedepot.com/l/Franklin-TN/TN/Franklin/37064/734
Tennessee,"Hendersonville,TN",37075,735,https://www.homedepot.com/l/Hendersonville-TN/TN/Hendersonville/37075/735
Tennessee,Hermitage,37076,733,https://www.homedepot.com/l/Hermitage/TN/Hermitage/37076/733
Tennessee,Hickory Hill,38115,725,https://www.homedepot.com/l/Hickory-Hill/TN/Memphis/38115/725
Tennessee,"Jackson, TN",38305,727,https://www.homedepot.com/l/Jackson-TN/TN/Jackson/38305/727
Tennessee,Johnson City,37604,701,https://www.homedepot.com/l/Johnson-City/TN/Johnson-City/37604/701
Tennessee,Kingsport,37660,702,https://www.homedepot.com/l/Kingsport/TN/Kingsport/37660/702
Tennessee,"Lebanon,TN",37090,745,https://www.homedepot.com/l/Lebanon-TN/TN/Lebanon/37090/745
Tennessee,Lenoir City,37772,740,https://www.homedepot.com/l/Lenoir-City/TN/Lenoir-City/37772/740
Tennessee,Madison,37115,720,https://www.homedepot.com/l/Madison/TN/Madison/37115/720
Tennessee,Manchester,37355,748,https://www.homedepot.com/l/Manchester/TN/Manchester/37355/748
Tennessee,Maryville,37801,724,https://www.homedepot.com/l/Maryville/TN/Maryville/37801/724
Tennessee,Morristown,37814,744,https://www.homedepot.com/l/Morristown/TN/Morristown/37814/744
Tennessee,Murfreesboro,37129,707,https://www.homedepot.com/l/Murfreesboro/TN/Murfreesboro/37129/707
Tennessee,N Chattanooga,37343,770,https://www.homedepot.com/l/N-Chattanooga/TN/Hixson/37343/770
Tennessee,N Knoxville,37921,728,https://www.homedepot.com/l/N-Knoxville/TN/Knoxville/37921/728
Tennessee,Nashville Briley Parkway,37216,778,https://www.homedepot.com/l/Nashville-Briley-Parkway/TN/Nashville/37216/778
Tennessee,Oak Ridge,37830,736,https://www.homedepot.com/l/Oak-Ridge/TN/Oak-Ridge/37830/736
Tennessee,Poplar Midtown,38104,8916,https://www.homedepot.com/l/Poplar-Midtown/TN/Memphis/38104/8916
Tennessee,Pulaski,38478,772,https://www.homedepot.com/l/Pulaski/TN/Pulaski/38478/772
Tennessee,Se Knoxville,37920,773,https://www.homedepot.com/l/Se-Knoxville/TN/Knoxville/37920/773
Tennessee,Sevierville,37876,739,https://www.homedepot.com/l/Sevierville/TN/Sevierville/37876/739
Tennessee,Smyrna,37167,776,https://www.homedepot.com/l/Smyrna/TN/Smyrna/37167/776
Tennessee,"Spring Hill,TN",37174,775,https://www.homedepot.com/l/Spring-Hill-TN/TN/Spring-Hill/37174/775
Tennessee,Thompson Lane,37204,732,https://www.homedepot.com/l/Thompson-Lane/TN/Nashville/37204/732
Tennessee,Truse In-Town,38117,703,https://www.homedepot.com/l/Truse-In-Town/TN/Memphis/38117/703
Tennessee,W Knoxville,37922,730,https://www.homedepot.com/l/W-Knoxville/TN/Knoxville/37922/730
Tennessee,"Winchester,TN",37398,747,https://www.homedepot.com/l/Winchester-TN/TN/Winchester/37398/747
Texas,Abilene,79606,6583,https://www.homedepot.com/l/Abilene/TX/Abilene/79606/6583
Texas,Alamo Heights,78209,6544,https://www.homedepot.com/l/Alamo-Heights/TX/San-Antonio/78209/6544
Texas,Allen,75013,6502,https://www.homedepot.com/l/Allen/TX/Allen/75013/6502
Texas,Alvin,77511,6539,https://www.homedepot.com/l/Alvin/TX/Alvin/77511/6539
Texas,Amarillo,79124,6552,https://www.homedepot.com/l/Amarillo/TX/Amarillo/79124/6552
Texas,Arlington,76017,541,https://www.homedepot.com/l/Arlington/TX/Arlington/76017/541
Texas,Austin Mueller Airport,78723,6892,https://www.homedepot.com/l/Austin-Mueller-Airport/TX/Austin/78723/6892
Texas,Balch Springs,75180,555,https://www.homedepot.com/l/Balch-Springs/TX/Balch-Springs/75180/555
Texas,Bandera Rd,78249,6547,https://www.homedepot.com/l/Bandera-Rd/TX/San-Antonio/78249/6547
Texas,Bastrop,78602,6575,https://www.homedepot.com/l/Bastrop/TX/Bastrop/78602/6575
Texas,Baytown,77521,6507,https://www.homedepot.com/l/Baytown/TX/Baytown/77521/6507
Texas,Beaumont,77703,501,https://www.homedepot.com/l/Beaumont/TX/Beaumont/77703/501
Texas,Bee Cave,78738,6531,https://www.homedepot.com/l/Bee-Cave/TX/Bee-Cave/78738/6531
Texas,Bellmead Waco,76705,6830,https://www.homedepot.com/l/Bellmead-Waco/TX/Waco/76705/6830
Texas,Beltway 8,77072,584,https://www.homedepot.com/l/Beltway-8/TX/Houston/77072/584
Texas,Bitters Rd,78232,582,https://www.homedepot.com/l/Bitters-Rd/TX/San-Antonio/78232/582
Texas,Boerne,78006,6556,https://www.homedepot.com/l/Boerne/TX/Boerne/78006/6556
Texas,Brenham,77833,8518,https://www.homedepot.com/l/Brenham/TX/Brenham/77833/8518
Texas,Bridgepoint,78415,6584,https://www.homedepot.com/l/Bridgepoint/TX/Corpus-Christi/78415/6584
Texas,Brinkman,77008,577,https://www.homedepot.com/l/Brinkman/TX/Houston/77008/577
Texas,Brownsville,78521,6521,https://www.homedepot.com/l/Brownsville/TX/Brownsville/78521/6521
Texas,Brownwood,76801,6820,https://www.homedepot.com/l/Brownwood/TX/Brownwood/76801/6820
Texas,Bulverde,78163,6989,https://www.homedepot.com/l/Bulverde/TX/Bulverde/78163/6989
Texas,Burleson,76028,8438,https://www.homedepot.com/l/Burleson/TX/Burleson/76028/8438
Texas,Cambray,78229,581,https://www.homedepot.com/l/Cambray/TX/San-Antonio/78229/581
Texas,Carrollton,75006,6555,https://www.homedepot.com/l/Carrollton/TX/Carrollton/75006/6555
Texas,Cedar Hill,75104,530,https://www.homedepot.com/l/Cedar-Hill/TX/Cedar-Hill/75104/530
Texas,Cedar Park,78613,6585,https://www.homedepot.com/l/Cedar-Park/TX/Cedar-Park/78613/6585
Texas,Central Plano,75023,6833,https://www.homedepot.com/l/Central-Plano/TX/Plano/75023/6833
Texas,Clear Lake Shores,77565,6560,https://www.homedepot.com/l/Clear-Lake-Shores/TX/Clear-Lake-Shores/77565/6560
Texas,Cleburne,76033,6520,https://www.homedepot.com/l/Cleburne/TX/Cleburne/76033/6520
Texas,Coit Rd,75080,6504,https://www.homedepot.com/l/Coit-Rd/TX/Richardson/75080/6504
Texas,College Station,77840,6559,https://www.homedepot.com/l/College-Station/TX/College-Station/77840/6559
Texas,Conroe,77304,508,https://www.homedepot.com/l/Conroe/TX/Conroe/77304/508
Texas,Copperfield,77084,6506,https://www.homedepot.com/l/Copperfield/TX/Houston/77084/6506
Texas,Corpus Christi,78411,526,https://www.homedepot.com/l/Corpus-Christi/TX/Corpus-Christi/78411/526
Texas,Corsicana,75109,6817,https://www.homedepot.com/l/Corsicana/TX/Corsicana/75109/6817
Texas,Culebra,78251,6818,https://www.homedepot.com/l/Culebra/TX/San-Antonio/78251/6818
Texas,Del Rio,78840,6832,https://www.homedepot.com/l/Del-Rio/TX/Del-Rio/78840/6832
Texas,Denton,76208,6840,https://www.homedepot.com/l/Denton/TX/Denton/76208/6840
Texas,Dripping Springs,78620,8995,https://www.homedepot.com/l/Dripping-Springs/TX/Dripping-Springs/78620/8995
Texas,E Amarillo,79109,6831,https://www.homedepot.com/l/E-Amarillo/TX/Amarillo/79109/6831
Texas,E Ft Worth,76112,6534,https://www.homedepot.com/l/E-Ft-Worth/TX/Fort-Worth/76112/6534
Texas,E Lubbock,79413,6827,https://www.homedepot.com/l/E-Lubbock/TX/Lubbock/79413/6827
Texas,East El Paso,79938,8523,https://www.homedepot.com/l/East-El-Paso/TX/El-Paso/79938/8523
Texas,El Paso,79936,522,https://www.homedepot.com/l/El-Paso/TX/El-Paso/79936/522
Texas,Eldorado-Webster (r0567),77598,1859,https://www.homedepot.com/l/Eldorado-Webster-r0567/TX/Webster/77598/1859
Texas,Euless,76040,537,https://www.homedepot.com/l/Euless/TX/Euless/76040/537
Texas,Fair Ave,78223,503,https://www.homedepot.com/l/Fair-Ave/TX/San-Antonio/78223/503
Texas,Five Point,78410,6564,https://www.homedepot.com/l/Five-Point/TX/Corpus-Christi/78410/6564
Texas,Flower Mound,75022,6572,https://www.homedepot.com/l/Flower-Mound/TX/Flower-Mound/75022/6572
Texas,Forest Ln,75243,6503,https://www.homedepot.com/l/Forest-Ln/TX/Dallas/75243/6503
Texas,Four Points - W Austin,78726,8418,https://www.homedepot.com/l/Four-Points-W-Austin/TX/Austin/78726/8418
Texas,Ft Worth,76109,542,https://www.homedepot.com/l/Ft-Worth/TX/Fort-Worth/76109/542
Texas,"Gainesville,TX",76240,519,https://www.homedepot.com/l/Gainesville-TX/TX/Gainesville/76240/519
Texas,Galveston,77551,6574,https://www.homedepot.com/l/Galveston/TX/Galveston/77551/6574
Texas,Garland,75040,553,https://www.homedepot.com/l/Garland/TX/Garland/75040/553
Texas,Georgetown,78628,6538,https://www.homedepot.com/l/Georgetown/TX/Georgetown/78628/6538
Texas,Granbury,76048,6571,https://www.homedepot.com/l/Granbury/TX/Granbury/76048/6571
Texas,Grand Parkway,77494,6561,https://www.homedepot.com/l/Grand-Parkway/TX/Katy/77494/6561
Texas,Grand Prairie,75052,507,https://www.homedepot.com/l/Grand-Prairie/TX/Grand-Prairie/75052/507
Texas,Grand Prairie South,75052,8517,https://www.homedepot.com/l/Grand-Prairie-South/TX/Grand-Prairie/75052/8517
Texas,"Greenville,TX",75402,6554,https://www.homedepot.com/l/Greenville-TX/TX/Greenville/75402/6554
Texas,Gulf Freeway,77089,6501,https://www.homedepot.com/l/Gulf-Freeway/TX/Houston/77089/6501
Texas,Gulfgate Mall,77087,6509,https://www.homedepot.com/l/Gulfgate-Mall/TX/Houston/77087/6509
Texas,Harlingen,78552,6528,https://www.homedepot.com/l/Harlingen/TX/Harlingen/78552/6528
Texas,Hillcroft,77085,6859,https://www.homedepot.com/l/Hillcroft/TX/Houston/77085/6859
Texas,Houston Hwy 290,77040,6525,https://www.homedepot.com/l/Houston-Hwy-290/TX/Houston/77040/6525
Texas,Howard Lane,78753,6553,https://www.homedepot.com/l/Howard-Lane/TX/Austin/78753/6553
Texas,Humble,77338,576,https://www.homedepot.com/l/Humble/TX/Humble/77338/576
Texas,Huntsville,77320,6578,https://www.homedepot.com/l/Huntsville/TX/Huntsville/77320/6578
Texas,Hutto,78634,8439,https://www.homedepot.com/l/Hutto/TX/Hutto/78634/8439
Texas,Irving,75061,563,https://www.homedepot.com/l/Irving/TX/Irving/75061/563
Texas,Katy,77449,534,https://www.homedepot.com/l/Katy/TX/Katy/77449/534
Texas,Keller,76248,6548,https://www.homedepot.com/l/Keller/TX/Keller/76248/6548
Texas,Kerrville,78028,6576,https://www.homedepot.com/l/Kerrville/TX/Kerrville/78028/6576
Texas,Killeen,76543,6526,https://www.homedepot.com/l/Killeen/TX/Killeen/76543/6526
Texas,Kingsbridge,77498,6860,https://www.homedepot.com/l/Kingsbridge/TX/Sugar-Land/77498/6860
Texas,Kuykendahl,77389,2389,https://www.homedepot.com/l/Kuykendahl/TX/Spring/77389/2389
Texas,Kyle,78640,8454,https://www.homedepot.com/l/Kyle/TX/Kyle/78640/8454
Texas,Lake Jackson,77566,6517,https://www.homedepot.com/l/Lake-Jackson/TX/Lake-Jackson/77566/6517
Texas,"Lake Worth,TX",76135,6549,https://www.homedepot.com/l/Lake-Worth-TX/TX/Lake-Worth/76135/6549
Texas,Lakeline,78717,509,https://www.homedepot.com/l/Lakeline/TX/Austin/78717/509
Texas,"Lancaster,TX",75146,8976,https://www.homedepot.com/l/Lancaster-TX/TX/Lancaster/75146/8976
Texas,Laredo,78041,6540,https://www.homedepot.com/l/Laredo/TX/Laredo/78041/6540
Texas,League City,77573,1853,https://www.homedepot.com/l/League-City/TX/League-City/77573/1853
Texas,Lemmon Ave,75209,589,https://www.homedepot.com/l/Lemmon-Ave/TX/Dallas/75209/589
Texas,Lewisville,75067,524,https://www.homedepot.com/l/Lewisville/TX/Lewisville/75067/524
Texas,Little York,77093,6806,https://www.homedepot.com/l/Little-York/TX/Houston/77093/6806
Texas,Live Oak,78154,6551,https://www.homedepot.com/l/Live-Oak/TX/Selma/78154/6551
Texas,Longview,75605,6545,https://www.homedepot.com/l/Longview/TX/Longview/75605/6545
Texas,Lubbock,79414,505,https://www.homedepot.com/l/Lubbock/TX/Lubbock/79414/505
Texas,Lufkin,75901,513,https://www.homedepot.com/l/Lufkin/TX/Lufkin/75901/513
Texas,Lumpkin,77043,571,https://www.homedepot.com/l/Lumpkin/TX/Houston/77043/571
Texas,"Mansfield,TX",76063,6568,https://www.homedepot.com/l/Mansfield-TX/TX/Mansfield/76063/6568
Texas,Marble Falls,78654,514,https://www.homedepot.com/l/Marble-Falls/TX/Marble-Falls/78654/514
Texas,Market Street,77015,569,https://www.homedepot.com/l/Market-Street/TX/Houston/77015/569
Texas,Mcallen,78577,506,https://www.homedepot.com/l/Mcallen/TX/Pharr/78577/506
Texas,Mckinney,75070,528,https://www.homedepot.com/l/Mckinney/TX/Mckinney/75070/528
Texas,Mesquite,75150,6537,https://www.homedepot.com/l/Mesquite/TX/Mesquite/75150/6537
Texas,Midland,79707,561,https://www.homedepot.com/l/Midland/TX/Midland/79707/561
Texas,Military,78224,6529,https://www.homedepot.com/l/Military/TX/San-Antonio/78224/6529
Texas,Mission,78572,8519,https://www.homedepot.com/l/Mission/TX/Mission/78572/8519
Texas,Missouri City,77459,6546,https://www.homedepot.com/l/Missouri-City/TX/Missouri-City/77459/6546
Texas,"Mt Pleasant,TX",75455,8540,https://www.homedepot.com/l/Mt-Pleasant-TX/TX/Mount-Pleasant/75455/8540
Texas,N Arlington,76011,554,https://www.homedepot.com/l/N-Arlington/TX/Arlington/76011/554
Texas,N Austin,78759,6839,https://www.homedepot.com/l/N-Austin/TX/Austin/78759/6839
Texas,N Brownsville,78520,6984,https://www.homedepot.com/l/N-Brownsville/TX/Brownsville/78520/6984
Texas,N Fort Worth,76137,6814,https://www.homedepot.com/l/N-Fort-Worth/TX/Fort-Worth/76137/6814
Texas,N Frisco,75033,6513,https://www.homedepot.com/l/N-Frisco/TX/Frisco/75033/6513
Texas,N Houston,77037,6510,https://www.homedepot.com/l/N-Houston/TX/Houston/77037/6510
Texas,N Mcallen,78504,516,https://www.homedepot.com/l/N-Mcallen/TX/Mcallen/78504/516
Texas,N Plano,75024,527,https://www.homedepot.com/l/N-Plano/TX/Plano/75024/527
Texas,N Richland,76180,540,https://www.homedepot.com/l/N-Richland/TX/Richland-Hills/76180/540
Texas,N San Antonio,78249,588,https://www.homedepot.com/l/N-San-Antonio/TX/San-Antonio/78249/588
Texas,New Braunfels,78130,8520,https://www.homedepot.com/l/New-Braunfels/TX/New-Braunfels/78130/8520
Texas,North 281,78258,6550,https://www.homedepot.com/l/North-281/TX/San-Antonio/78258/6550
Texas,North Irving,75063,6557,https://www.homedepot.com/l/North-Irving/TX/Irving/75063/6557
Texas,Nw Dallas,75229,564,https://www.homedepot.com/l/Nw-Dallas/TX/Dallas/75229/564
Texas,Oak Cliff,75211,6816,https://www.homedepot.com/l/Oak-Cliff/TX/Dallas/75211/6816
Texas,Odessa,79762,562,https://www.homedepot.com/l/Odessa/TX/Odessa/79762/562
Texas,Orange,77630,8419,https://www.homedepot.com/l/Orange/TX/Orange/77630/8419
Texas,Paris,75460,6566,https://www.homedepot.com/l/Paris/TX/Paris/75460/6566
Texas,Pasadena,77505,565,https://www.homedepot.com/l/Pasadena/TX/Pasadena/77505/565
Texas,Pearland,77581,6543,https://www.homedepot.com/l/Pearland/TX/Pearland/77581/6543
Texas,Pflugerville,78660,6808,https://www.homedepot.com/l/Pflugerville/TX/Pflugerville/78660/6808
Texas,Pin Oak,77081,566,https://www.homedepot.com/l/Pin-Oak/TX/Houston/77081/566
Texas,Plano,75074,539,https://www.homedepot.com/l/Plano/TX/Plano/75074/539
Texas,Porter,77365,6523,https://www.homedepot.com/l/Porter/TX/Porter/77365/6523
Texas,Precinct Line,76182,6533,https://www.homedepot.com/l/Precinct-Line/TX/North-Richland-Hills/76182/6533
Texas,Richardson,75044,556,https://www.homedepot.com/l/Richardson/TX/Garland/75044/556
Texas,"Roanoke,TX",76262,6581,https://www.homedepot.com/l/Roanoke-TX/TX/Roanoke/76262/6581
Texas,Rockwall,75087,531,https://www.homedepot.com/l/Rockwall/TX/Rockwall/75087/531
Texas,Rosenberg,77471,6530,https://www.homedepot.com/l/Rosenberg/TX/Rosenberg/77471/6530
Texas,Round Rock,78664,504,https://www.homedepot.com/l/Round-Rock/TX/Round-Rock/78664/504
Texas,Rowlett,75088,8951,https://www.homedepot.com/l/Rowlett/TX/Rowlett/75088/8951
Texas,S Austin,78745,6570,https://www.homedepot.com/l/S-Austin/TX/Sunset-Valley/78745/6570
Texas,S Fort Worth,76134,529,https://www.homedepot.com/l/S-Fort-Worth/TX/Fort-Worth/76134/529
Texas,San Angelo,76901,6807,https://www.homedepot.com/l/San-Angelo/TX/San-Angelo/76901/6807
Texas,Se Austin,78704,6542,https://www.homedepot.com/l/Se-Austin/TX/Austin/78704/6542
Texas,Se Military,78223,6988,https://www.homedepot.com/l/Se-Military/TX/San-Antonio/78223/6988
Texas,Seguin,78155,8437,https://www.homedepot.com/l/Seguin/TX/Seguin/78155/8437
Texas,Sherman,75092,518,https://www.homedepot.com/l/Sherman/TX/Sherman/75092/518
Texas,Silverlake,77584,6567,https://www.homedepot.com/l/Silverlake/TX/Pearland/77584/6567
Texas,Skillman,75231,6804,https://www.homedepot.com/l/Skillman/TX/Dallas/75231/6804
Texas,Slaughter Lane,78744,6563,https://www.homedepot.com/l/Slaughter-Lane/TX/Austin/78744/6563
Texas,"Southlake, TX",76092,587,https://www.homedepot.com/l/Southlake-TX/TX/Southlake/76092/587
Texas,Spring,77373,568,https://www.homedepot.com/l/Spring/TX/Spring/77373/568
Texas,Spring Cypress,77429,6586,https://www.homedepot.com/l/Spring-Cypress/TX/Cypress/77429/6586
Texas,Spring Valley,77024,6985,https://www.homedepot.com/l/Spring-Valley/TX/Spring-Valley/77024/6985
Texas,Sugar Land,77478,574,https://www.homedepot.com/l/Sugar-Land/TX/Sugar-Land/77478/574
Texas,Summerwood,77044,1832,https://www.homedepot.com/l/Summerwood/TX/Houston/77044/1832
Texas,Sw San Antonio,78227,586,https://www.homedepot.com/l/Sw-San-Antonio/TX/San-Antonio/78227/586
Texas,Temple,76504,6863,https://www.homedepot.com/l/Temple/TX/Temple/76504/6863
Texas,Terrell,75160,6579,https://www.homedepot.com/l/Terrell/TX/Terrell/75160/6579
Texas,Texarkana,75503,6580,https://www.homedepot.com/l/Texarkana/TX/Texarkana/75503/6580
Texas,The Colony,75056,6562,https://www.homedepot.com/l/The-Colony/TX/The-Colony/75056/6562
Texas,Tomball,77070,6512,https://www.homedepot.com/l/Tomball/TX/Houston/77070/6512
Texas,Torrey Chase,77068,6828,https://www.homedepot.com/l/Torrey-Chase/TX/Houston/77068/6828
Texas,Tyler,75701,6514,https://www.homedepot.com/l/Tyler/TX/Tyler/75701/6514
Texas,Victoria,77904,6587,https://www.homedepot.com/l/Victoria/TX/Victoria/77904/6587
Texas,W El Paso,79912,523,https://www.homedepot.com/l/W-El-Paso/TX/El-Paso/79912/523
Texas,W Houston,77082,585,https://www.homedepot.com/l/W-Houston/TX/Houston/77082/585
Texas,W Mckinney,75071,6809,https://www.homedepot.com/l/W-Mckinney/TX/Mckinney/75071/6809
Texas,W Plano,75093,551,https://www.homedepot.com/l/W-Plano/TX/Plano/75093/551
Texas,Waco,76710,6532,https://www.homedepot.com/l/Waco/TX/Waco/76710/6532
Texas,Waxahachie,75165,6505,https://www.homedepot.com/l/Waxahachie/TX/Waxahachie/75165/6505
Texas,Weatherford,76086,6515,https://www.homedepot.com/l/Weatherford/TX/Weatherford/76086/6515
Texas,Weslaco,78599,6577,https://www.homedepot.com/l/Weslaco/TX/Weslaco/78599/6577
Texas,West Woodlands,77354,6819,https://www.homedepot.com/l/West-Woodlands/TX/Magnolia/77354/6819
Texas,Westbury Square,77035,578,https://www.homedepot.com/l/Westbury-Square/TX/Houston/77035/578
Texas,Westheimer,77063,6558,https://www.homedepot.com/l/Westheimer/TX/Houston/77063/6558
Texas,Westmoreland,75237,552,https://www.homedepot.com/l/Westmoreland/TX/Dallas/75237/552
Texas,White Rock,75218,550,https://www.homedepot.com/l/White-Rock/TX/Dallas/75218/550
Texas,White Settlement,76108,8521,https://www.homedepot.com/l/White-Settlement/TX/White-Settlement/76108/8521
Texas,Wichita Falls,76308,6588,https://www.homedepot.com/l/Wichita-Falls/TX/Wichita-Falls/76308/6588
Texas,Willowbrook,77065,6838,https://www.homedepot.com/l/Willowbrook/TX/Houston/77065/6838
Texas,Windsor Park,78239,580,https://www.homedepot.com/l/Windsor-Park/TX/San-Antonio/78239/580
Texas,Woodlands,77385,6516,https://www.homedepot.com/l/Woodlands/TX/Conroe/77385/6516
Texas,Wylie,75098,6589,https://www.homedepot.com/l/Wylie/TX/Wylie/75098/6589
Utah,21st South,84115,4403,https://www.homedepot.com/l/21st-South/UT/Salt-Lake-City/84115/4403
Utah,American Fork,84003,4417,https://www.homedepot.com/l/American-Fork/UT/American-Fork/84003/4417
Utah,Cedar City,84720,4418,https://www.homedepot.com/l/Cedar-City/UT/Cedar-City/84720/4418
Utah,Centerville,84014,4408,https://www.homedepot.com/l/Centerville/UT/Centerville/84014/4408
Utah,E Salt Lake City,84106,4413,https://www.homedepot.com/l/E-Salt-Lake-City/UT/Salt-Lake-City/84106/4413
Utah,E Sandy,84092,4421,https://www.homedepot.com/l/E-Sandy/UT/Sandy/84092/4421
Utah,Layton,84041,8583,https://www.homedepot.com/l/Layton/UT/Layton/84041/8583
Utah,Lindon,84042,4407,https://www.homedepot.com/l/Lindon/UT/Lindon/84042/4407
Utah,Logan,84341,4414,https://www.homedepot.com/l/Logan/UT/Logan/84341/4414
Utah,Ogden,84404,4411,https://www.homedepot.com/l/Ogden/UT/Ogden/84404/4411
Utah,Park Centre,84121,4402,https://www.homedepot.com/l/Park-Centre/UT/Salt-Lake-City/84121/4402
Utah,Park City,84098,4415,https://www.homedepot.com/l/Park-City/UT/Park-City/84098/4415
Utah,Provo,84601,4416,https://www.homedepot.com/l/Provo/UT/Provo/84601/4416
Utah,Richfield,84701,4422,https://www.homedepot.com/l/Richfield/UT/Richfield/84701/4422
Utah,Riverdale,84405,4401,https://www.homedepot.com/l/Riverdale/UT/Riverdale/84405/4401
Utah,Riverton,84065,8566,https://www.homedepot.com/l/Riverton/UT/Riverton/84065/8566
Utah,Sandy,84070,4409,https://www.homedepot.com/l/Sandy/UT/Sandy/84070/4409
Utah,St George,84780,4412,https://www.homedepot.com/l/St-George/UT/Washington/84780/4412
Utah,Tooele,84074,4419,https://www.homedepot.com/l/Tooele/UT/Tooele/84074/4419
Utah,W Jordan,84088,4410,https://www.homedepot.com/l/W-Jordan/UT/West-Jordan/84088/4410
Utah,W Valley City,84120,4406,https://www.homedepot.com/l/W-Valley-City/UT/West-Valley-City/84120/4406
Utah,West St George,84770,4420,https://www.homedepot.com/l/West-St-George/UT/Saint-George/84770/4420
Vermont,Bennington,05201,4551,https://www.homedepot.com/l/Bennington/VT/Bennington/05201/4551
Vermont,Rutland,05701,4502,https://www.homedepot.com/l/Rutland/VT/Rutland/05701/4502
Vermont,Williston,05495,4501,https://www.homedepot.com/l/Williston/VT/Williston/05495/4501
Virginia,Alexandria,22304,4603,https://www.homedepot.com/l/Alexandria/VA/Alexandria/22304/4603
Virginia,Annandale,22312,4640,https://www.homedepot.com/l/Annandale/VA/Alexandria/22312/4640
Virginia,Ashburn,20147,4647,https://www.homedepot.com/l/Ashburn/VA/Ashburn/20147/4647
Virginia,"Bristol, VA",24202,4658,https://www.homedepot.com/l/Bristol-VA/VA/Bristol/24202/4658
Virginia,Celebration Station,23452,4614,https://www.homedepot.com/l/Celebration-Station/VA/Virginia-Beach/23452/4614
Virginia,Chesapeake,23320,4619,https://www.homedepot.com/l/Chesapeake/VA/Chesapeake/23320/4619
Virginia,Christiansburg,24073,4634,https://www.homedepot.com/l/Christiansburg/VA/Christiansburg/24073/4634
Virginia,Colonial Heights,23834,4633,https://www.homedepot.com/l/Colonial-Heights/VA/Colonial-Heights/23834/4633
Virginia,Dale City,22192,4604,https://www.homedepot.com/l/Dale-City/VA/Woodbridge/22192/4604
Virginia,Danville,24540,8493,https://www.homedepot.com/l/Danville/VA/Danville/24540/8493
Virginia,East Manassas,20110,4648,https://www.homedepot.com/l/East-Manassas/VA/Manassas/20110/4648
Virginia,Fairfax,22030,4601,https://www.homedepot.com/l/Fairfax/VA/Fairfax/22030/4601
Virginia,Fairfax Circle,22030,4639,https://www.homedepot.com/l/Fairfax-Circle/VA/Fairfax/22030/4639
Virginia,Falls Church,22044,4608,https://www.homedepot.com/l/Falls-Church/VA/Falls-Church/22044/4608
Virginia,Fredericksburg,22401,4620,https://www.homedepot.com/l/Fredericksburg/VA/Fredericksburg/22401/4620
Virginia,General Booth,23456,4643,https://www.homedepot.com/l/General-Booth/VA/Virginia-Beach/23456/4643
Virginia,Gloucester,23061,4650,https://www.homedepot.com/l/Gloucester/VA/Gloucester/23061/4650
Virginia,Hampton,23666,4612,https://www.homedepot.com/l/Hampton/VA/Hampton/23666/4612
Virginia,Harrisonburg,22801,4645,https://www.homedepot.com/l/Harrisonburg/VA/Harrisonburg/22801/4645
Virginia,Hybla Valley,22306,4638,https://www.homedepot.com/l/Hybla-Valley/VA/Alexandria/22306/4638
Virginia,Intown (richmond),23230,4632,https://www.homedepot.com/l/Intown-richmond/VA/Richmond/23230/4632
Virginia,Leesburg,20176,4621,https://www.homedepot.com/l/Leesburg/VA/Leesburg/20176/4621
Virginia,Lynchburg,24502,4655,https://www.homedepot.com/l/Lynchburg/VA/Lynchburg/24502/4655
Virginia,Manassas,20109,4607,https://www.homedepot.com/l/Manassas/VA/Manassas/20109/4607
Virginia,Mechanicsville,23111,4624,https://www.homedepot.com/l/Mechanicsville/VA/Mechanicsville/23111/4624
Virginia,Merrifield,22031,4605,https://www.homedepot.com/l/Merrifield/VA/Fairfax/22031/4605
Virginia,Midlothian,23235,4631,https://www.homedepot.com/l/Midlothian/VA/Richmond/23235/4631
Virginia,Military Circle,23502,4615,https://www.homedepot.com/l/Military-Circle/VA/Norfolk/23502/4615
Virginia,Newport News,23602,4613,https://www.homedepot.com/l/Newport-News/VA/Newport-News/23602/4613
Virginia,North Richmond,23005,4653,https://www.homedepot.com/l/North-Richmond/VA/Ashland/23005/4653
Virginia,"Portsmouth, VA",23321,4622,https://www.homedepot.com/l/Portsmouth-VA/VA/Chesapeake/23321/4622
Virginia,Reston,20194,4641,https://www.homedepot.com/l/Reston/VA/Reston/20194/4641
Virginia,Richmond/W Broad,23060,4611,https://www.homedepot.com/l/Richmond-W-Broad/VA/Glen-Allen/23060/4611
Virginia,Roanoke,24017,4609,https://www.homedepot.com/l/Roanoke/VA/Roanoke/24017/4609
Virginia,S Chesapeake,23322,4656,https://www.homedepot.com/l/S-Chesapeake/VA/Chesapeake/23322/4656
Virginia,S Richmond/Chester,23831,4616,https://www.homedepot.com/l/S-Richmond-Chester/VA/Chester/23831/4616
Virginia,S Riding,20152,8551,https://www.homedepot.com/l/S-Riding/VA/Chantilly/20152/8551
Virginia,S Roanoke,24014,4628,https://www.homedepot.com/l/S-Roanoke/VA/Roanoke/24014/4628
Virginia,South Hill,23970,4659,https://www.homedepot.com/l/South-Hill/VA/South-Hill/23970/4659
Virginia,Spotsylvania,22407,4660,https://www.homedepot.com/l/Spotsylvania/VA/Fredericksburg/22407/4660
Virginia,Springfield,22150,4617,https://www.homedepot.com/l/Springfield/VA/Springfield/22150/4617
Virginia,Stafford,22556,4637,https://www.homedepot.com/l/Stafford/VA/Stafford/22556/4637
Virginia,Sterling Park,20165,4602,https://www.homedepot.com/l/Sterling-Park/VA/Sterling/20165/4602
Virginia,Sw Richmond,23112,4627,https://www.homedepot.com/l/Sw-Richmond/VA/Midlothian/23112/4627
Virginia,Va Beach/Princess Anne,23456,4626,https://www.homedepot.com/l/Va-Beach-Princess-Anne/VA/Virginia-Beach/23456/4626
Virginia,Warrenton,20186,8552,https://www.homedepot.com/l/Warrenton/VA/Warrenton/20186/8552
Virginia,Waynesboro,22980,4654,https://www.homedepot.com/l/Waynesboro/VA/Waynesboro/22980/4654
Virginia,Williamsburg,23188,4635,https://www.homedepot.com/l/Williamsburg/VA/Williamsburg/23188/4635
Virginia,Winchester,22601,4618,https://www.homedepot.com/l/Winchester/VA/Winchester/22601/4618
Washington,Aberdeen,98520,8964,https://www.homedepot.com/l/Aberdeen/WA/Aberdeen/98520/8964
Washington,Aurora,98133,4707,https://www.homedepot.com/l/Aurora/WA/Shoreline/98133/4707
Washington,"Bellevue, WA",98005,4711,https://www.homedepot.com/l/Bellevue-WA/WA/Bellevue/98005/4711
Washington,"Bellingham, WA",98226,4715,https://www.homedepot.com/l/Bellingham-WA/WA/Bellingham/98226/4715
Washington,Bitterlake,98133,4706,https://www.homedepot.com/l/Bitterlake/WA/Seattle/98133/4706
Washington,Bonney Lake,98391,8562,https://www.homedepot.com/l/Bonney-Lake/WA/Bonney-Lake/98391/8562
Washington,Bothell,98011,4712,https://www.homedepot.com/l/Bothell/WA/Bothell/98011/4712
Washington,"Burlington,WA",98233,8561,https://www.homedepot.com/l/Burlington-WA/WA/Burlington/98233/8561
Washington,Chehalis,98532,4740,https://www.homedepot.com/l/Chehalis/WA/Chehalis/98532/4740
Washington,College Place,99324,4735,https://www.homedepot.com/l/College-Place/WA/College-Place/99324/4735
Washington,"Covington,WA",98042,4737,https://www.homedepot.com/l/Covington-WA/WA/Covington/98042/4737
Washington,E Kennewick,99337,4739,https://www.homedepot.com/l/E-Kennewick/WA/Kennewick/99337/4739
Washington,E Spokane,99212,4714,https://www.homedepot.com/l/E-Spokane/WA/Spokane-Valley/99212/4714
Washington,E Vancouver,98683,4738,https://www.homedepot.com/l/E-Vancouver/WA/Vancouver/98683/4738
Washington,Everett,98204,4713,https://www.homedepot.com/l/Everett/WA/Everett/98204/4713
Washington,Federal Way,98003,4703,https://www.homedepot.com/l/Federal-Way/WA/Federal-Way/98003/4703
Washington,Gig Harbor,98332,4728,https://www.homedepot.com/l/Gig-Harbor/WA/Gig-Harbor/98332/4728
Washington,Issaquah,98029,4704,https://www.homedepot.com/l/Issaquah/WA/Issaquah/98029/4704
Washington,Kent,98030,4722,https://www.homedepot.com/l/Kent/WA/Kent/98030/4722
Washington,Lacey,98516,4742,https://www.homedepot.com/l/Lacey/WA/Lacey/98516/4742
Washington,Lander,98134,4702,https://www.homedepot.com/l/Lander/WA/Seattle/98134/4702
Washington,Liberty Lake,99019,4743,https://www.homedepot.com/l/Liberty-Lake/WA/Liberty-Lake/99019/4743
Washington,"Longview,WA",98632,4725,https://www.homedepot.com/l/Longview-WA/WA/Longview/98632/4725
Washington,Moses Lake,98837,8966,https://www.homedepot.com/l/Moses-Lake/WA/Moses-Lake/98837/8966
Washington,N Spokane,99218,4719,https://www.homedepot.com/l/N-Spokane/WA/Spokane/99218/4719
Washington,N Tacoma,98409,4720,https://www.homedepot.com/l/N-Tacoma/WA/Tacoma/98409/4720
Washington,Oak Harbor,98277,8563,https://www.homedepot.com/l/Oak-Harbor/WA/Oak-Harbor/98277/8563
Washington,Olympia,98501,4708,https://www.homedepot.com/l/Olympia/WA/Olympia/98501/4708
Washington,Omak,98841,4748,https://www.homedepot.com/l/Omak/WA/Omak/98841/4748
Washington,Poulsbo,98370,4741,https://www.homedepot.com/l/Poulsbo/WA/Poulsbo/98370/4741
Washington,Puyallup,98374,4709,https://www.homedepot.com/l/Puyallup/WA/Puyallup/98374/4709
Washington,Redmond,98052,4723,https://www.homedepot.com/l/Redmond/WA/Redmond/98052/4723
Washington,Sequim,98382,8998,https://www.homedepot.com/l/Sequim/WA/Sequim/98382/8998
Washington,Silverdale,98383,4716,https://www.homedepot.com/l/Silverdale/WA/Silverdale/98383/4716
Washington,Snohomish,98290,4745,https://www.homedepot.com/l/Snohomish/WA/Snohomish/98290/4745
Washington,Southcenter,98188,4705,https://www.homedepot.com/l/Southcenter/WA/Tukwila/98188/4705
Washington,Spanaway,98445,4747,https://www.homedepot.com/l/Spanaway/WA/Tacoma/98445/4747
Washington,Tacoma,98409,4701,https://www.homedepot.com/l/Tacoma/WA/Tacoma/98409/4701
Washington,Tulalip,98271,4726,https://www.homedepot.com/l/Tulalip/WA/Marysville/98271/4726
Washington,Tumwater,98512,4724,https://www.homedepot.com/l/Tumwater/WA/Tumwater/98512/4724
Washington,"Vancouver, WA",98665,4718,https://www.homedepot.com/l/Vancouver-WA/WA/Vancouver/98665/4718
Washington,W Seattle,98106,8944,https://www.homedepot.com/l/W-Seattle/WA/Seattle/98106/8944
Washington,Wenatchee,98801,4732,https://www.homedepot.com/l/Wenatchee/WA/Wenatchee/98801/4732
Washington,West Richland,99352,4746,https://www.homedepot.com/l/West-Richland/WA/Richland/99352/4746
Washington,Yakima,98903,4727,https://www.homedepot.com/l/Yakima/WA/Yakima/98903/4727
West Virginia,"Bridgeport,WV",26330,8433,https://www.homedepot.com/l/Bridgeport-WV/WV/Bridgeport/26330/8433
West Virginia,"Charleston,WV",25309,4802,https://www.homedepot.com/l/Charleston-WV/WV/Charleston/25309/4802
West Virginia,Huntington,25504,4801,https://www.homedepot.com/l/Huntington/WV/Barboursville/25504/4801
West Virginia,Parkersburg,26105,4803,https://www.homedepot.com/l/Parkersburg/WV/Vienna/26105/4803
West Virginia,Ranson,25438,4805,https://www.homedepot.com/l/Ranson/WV/Ranson/25438/4805
West Virginia,Teays Valley,25526,8429,https://www.homedepot.com/l/Teays-Valley/WV/Hurricane/25526/8429
Wisconsin,Bellevue (e Green Bay),54311,4915,https://www.homedepot.com/l/Bellevue-e-Green-Bay/WI/Green-Bay/54311/4915
Wisconsin,Delafield,53018,4910,https://www.homedepot.com/l/Delafield/WI/Delafield/53018/4910
Wisconsin,E Appleton,54915,4928,https://www.homedepot.com/l/E-Appleton/WI/Appleton/54915/4928
Wisconsin,East Madison,53704,4906,https://www.homedepot.com/l/East-Madison/WI/Madison/53704/4906
Wisconsin,Franklin,53132,4907,https://www.homedepot.com/l/Franklin/WI/Franklin/53132/4907
Wisconsin,Grafton,53024,4919,https://www.homedepot.com/l/Grafton/WI/Grafton/53024/4919
Wisconsin,Grand Chute,54914,4903,https://www.homedepot.com/l/Grand-Chute/WI/Grand-Chute/54914/4903
Wisconsin,Hudson,54016,4935,https://www.homedepot.com/l/Hudson/WI/Hudson/54016/4935
Wisconsin,Janesville,53546,4911,https://www.homedepot.com/l/Janesville/WI/Janesville/53546/4911
Wisconsin,Kohler,53044,4924,https://www.homedepot.com/l/Kohler/WI/Kohler/53044/4924
Wisconsin,La Crosse,54650,4905,https://www.homedepot.com/l/La-Crosse/WI/Onalaska/54650/4905
Wisconsin,Lake Geneva,53147,4916,https://www.homedepot.com/l/Lake-Geneva/WI/Lake-Geneva/53147/4916
Wisconsin,Menomonee Falls,53051,4940,https://www.homedepot.com/l/Menomonee-Falls/WI/Menomonee-Falls/53051/4940
Wisconsin,Mukwonago,53149,4921,https://www.homedepot.com/l/Mukwonago/WI/Mukwonago/53149/4921
Wisconsin,North Shore,53212,4912,https://www.homedepot.com/l/North-Shore/WI/Milwaukee/53212/4912
Wisconsin,Racine,53406,4926,https://www.homedepot.com/l/Racine/WI/Racine/53406/4926
Wisconsin,Rhinelander,54501,4930,https://www.homedepot.com/l/Rhinelander/WI/Rhinelander/54501/4930
Wisconsin,Se Milwaukee,53207,4941,https://www.homedepot.com/l/Se-Milwaukee/WI/Milwaukee/53207/4941
Wisconsin,W Green Bay,54303,4920,https://www.homedepot.com/l/W-Green-Bay/WI/Green-Bay/54303/4920
Wisconsin,Waukesha,53186,4918,https://www.homedepot.com/l/Waukesha/WI/Waukesha/53186/4918
Wisconsin,Wausau,54401,4931,https://www.homedepot.com/l/Wausau/WI/Wausau/54401/4931
Wisconsin,Wauwatosa,53222,4923,https://www.homedepot.com/l/Wauwatosa/WI/Wauwatosa/53222/4923
Wisconsin,West Allis,53227,4902,https://www.homedepot.com/l/West-Allis/WI/West-Allis/53227/4902
Wisconsin,West Bend,53095,4925,https://www.homedepot.com/l/West-Bend/WI/West-Bend/53095/4925
Wisconsin,West Madison,53711,4909,https://www.homedepot.com/l/West-Madison/WI/Madison/53711/4909
Wisconsin,Wisconsin Dell,53940,4929,https://www.homedepot.com/l/Wisconsin-Dell/WI/Lake-Delton/53940/4929
Wisconsin,Wisconsin Rapids,54494,4942,https://www.homedepot.com/l/Wisconsin-Rapids/WI/Wisconsin-Rapids/54494/4942
Wyoming,Casper,82609,6001,https://www.homedepot.com/l/Casper/WY/Casper/82609/6001
Wyoming,Cheyenne,82001,6002,https://www.homedepot.com/l/Cheyenne/WY/Cheyenne/82001/6002
Wyoming,Gillette,82718,6005,https://www.homedepot.com/l/Gillette/WY/Gillette/82718/6005
Wyoming,Rock Springs,82901,6003,https://www.homedepot.com/l/Rock-Springs/WY/Rock-Springs/82901/6003
Wyoming,Sheridan,82801,6004,https://www.homedepot.com/l/Sheridan/WY/Sheridan/82801/6004
Guam,Guam - Tamuning,96913,1710,https://www.homedepot.com/l/Guam-Tamuning/GU/Tamuning/96913/1710
Puerto Rico,Bayamon,00961,6401,https://www.homedepot.com/l/Bayamon/PR/Bayamon/00961/6401
Puerto Rico,Caguas,00726,6403,https://www.homedepot.com/l/Caguas/PR/Caguas/00726/6403
Puerto Rico,Carolina,00983,6402,https://www.homedepot.com/l/Carolina/PR/Carolina/00983/6402
Puerto Rico,Hatillo,00659,6412,https://www.homedepot.com/l/Hatillo/PR/Hatillo/00659/6412
Puerto Rico,Humacao,00791,6415,https://www.homedepot.com/l/Humacao/PR/Humacao/00791/6415
Puerto Rico,Los Colobos (e Carolina),00979,6409,https://www.homedepot.com/l/Los-Colobos-e-Carolina/PR/Carolina/00979/6409
Puerto Rico,Mayaguez,00682,6407,https://www.homedepot.com/l/Mayaguez/PR/Mayaguez/00682/6407
Puerto Rico,Monte Hiedra,00928,6408,https://www.homedepot.com/l/Monte-Hiedra/PR/San-Juan/00928/6408
Puerto Rico,Ponce,00728,6411,https://www.homedepot.com/l/Ponce/PR/Ponce/00728/6411
Puerto Rico,Rexville,00960,6405,https://www.homedepot.com/l/Rexville/PR/Bayamon/00960/6405
Virgin Islands,St Croix,00850,8622,https://www.homedepot.com/l/St-Croix/VI/Kingshill/00850/8622
Virgin Islands,St Thomas,00802,8201,https://www.homedepot.com/l/St-Thomas/VI/Saint-Thomas/00802/8201
